{"type":"Topology","arcs":[[[9773,66819],[-1,-146],[-21,10],[-46,-62],[-1,-129],[-40,-171],[-25,86],[-19,-12],[-15,-76],[-21,49],[-21,-131],[-28,54],[-17,-43],[-27,-304],[-35,5],[-17,-87],[-29,-35],[0,-136],[-35,-165],[-33,16],[-5,67],[-29,101],[-18,-145],[-24,-8],[-32,-240],[-19,30],[-24,-22],[-23,-135],[3,-222],[-15,-33],[-17,-138],[-39,27],[-47,-122],[-96,0]],[[8957,64702],[-212,0],[-68,444],[-12,-14]],[[8665,65132],[-17,91],[1,77],[-33,286],[3,67],[-16,214],[-37,196],[-6,216],[-35,211],[-13,-5],[-14,-154],[0,1381],[-4,0],[0,1721],[145,0],[162,0],[16,114],[28,88],[24,122],[28,7],[17,57],[70,-23],[30,55],[49,238],[20,13],[16,188],[-5,149],[12,107],[19,-79],[24,46],[29,125],[27,-242],[34,21],[4,-71],[-10,-172],[-12,-14],[-24,-206],[10,-120],[-6,-68],[12,-136],[36,-221],[20,49],[41,-162],[15,11],[12,-155],[-11,-188],[-19,-68],[-10,-110],[29,-40],[5,-178],[38,132],[22,20],[13,95],[13,-79],[34,-4],[18,139],[21,6],[29,192],[23,6],[53,-220],[7,61],[40,-189],[11,67],[11,-104],[34,127],[2,107],[39,54],[15,-45],[23,46],[23,2],[22,-139],[-7,-161],[-19,-48],[-27,-137],[-3,-99],[30,-171],[-7,-146],[-21,-109],[9,-62],[-14,-269],[8,-140],[-9,-84],[10,-119],[11,-15],[-23,-258],[16,-103],[-3,-104]],[[13117,23852],[10,314],[6,-87],[8,-261],[-8,-211],[-9,84],[-7,161]],[[13001,26526],[9,130],[12,-56],[-14,-109],[-7,35]],[[12979,25614],[7,171],[13,96],[24,-174],[-25,-250],[-15,39],[-4,118]],[[12981,27248],[24,77],[8,196],[16,22],[22,118],[7,233],[10,63],[8,166],[15,58],[13,-65]],[[13104,28116],[-3,-82],[70,-336],[-8,-260],[12,-252],[7,-515],[71,64],[30,-295],[83,-513],[24,-216]],[[13390,25711],[0,-122],[-7,-113],[5,-117],[21,-89],[-5,-87],[6,-247],[-25,-272],[-29,-52],[-12,110],[-23,-127],[-16,-206],[-13,-50],[11,-226],[10,-329],[-14,42],[-16,-16],[-16,61],[1,88],[-16,63],[-20,189],[-9,-45],[6,-136],[-5,-68],[-14,54],[-28,-55],[-11,-151],[-9,-219],[10,-150],[-7,-141],[-17,-62],[0,-117],[-14,-73],[-1,-74],[21,-280],[-12,-224],[-2,-138],[6,-123],[-13,-68],[-13,118],[-9,-67],[0,-182],[-31,-134]],[[13080,21876],[-8,328],[-2,219],[12,-21],[2,316],[31,33],[-6,202],[13,159],[-6,205],[8,179],[21,43],[3,148],[-7,316],[3,311],[-1,240],[23,47],[6,104],[13,-60],[15,68],[17,-91],[4,141],[-17,43],[-14,-36],[-19,67],[-18,-183],[-15,7],[-7,-59],[-3,-246],[-13,-85],[-14,248],[-16,-38],[23,-273],[-15,-100],[-20,-15],[19,-358],[-3,-86],[10,-149],[0,-91],[-16,-49],[-24,18],[-12,-237],[3,-129],[-18,-60],[-8,166],[11,220],[-12,113],[-11,12],[1,326],[-9,-13],[-6,236],[-16,-36],[-9,106],[-8,-170],[-8,-56],[-18,374],[-4,179],[7,114],[-6,239],[12,127],[20,-6],[8,286],[12,207],[9,-8],[18,79],[16,-219],[-6,-351],[22,-228],[12,76],[-15,142],[-10,233],[7,292],[-7,160],[8,113],[-12,239],[-4,193],[39,-170],[6,-170],[-1,-88],[14,-152],[2,161],[-9,286],[-14,148],[-27,202],[-2,335],[7,227],[-23,-155],[-16,-31],[-24,127],[9,340],[-6,91]],[[12874,24337],[5,97],[13,-52],[-1,-118],[-12,-20],[-5,93]],[[12856,24678],[11,3],[15,-127],[-10,-44],[-16,168]],[[12855,24811],[1,91],[20,-56],[-2,-130],[-19,95]],[[12838,25459],[7,81],[11,287],[14,117],[23,18],[13,-73],[21,80],[22,-79],[12,-118],[1,-148],[-15,-189],[7,-267],[-1,-93],[-20,-108],[-20,-33],[-20,-86],[-3,79],[-16,126],[-3,79],[-32,206],[-1,121]],[[7998,40437],[18,54],[-2,-199],[-16,145]],[[7905,40177],[10,216],[8,34],[4,243],[23,-120],[-1,-212],[-12,-87],[-6,-145],[-11,-79],[-15,150]],[[7695,39326],[22,-71],[-7,-95],[-14,84],[-1,82]],[[7640,39170],[6,70],[18,-98],[-6,-73],[-15,27],[-3,74]],[[7596,39369],[17,109],[9,-69],[-5,-146],[-21,106]],[[8390,47761],[-1,-561],[81,0]],[[8470,47200],[25,-41]],[[8495,47159],[0,-156]],[[8495,47003],[0,-65]],[[8495,46938],[0,-72]],[[8495,46866],[0,-841]],[[8495,46025],[-16,-183],[14,-15]],[[8493,45827],[0,-205],[28,-1],[0,-1434],[-6,-319],[0,-613],[-24,-86]],[[8491,43169],[-21,177],[-15,-21],[-5,-105],[-11,-36],[-17,232],[-11,10],[-9,-95],[-21,7],[-16,47],[0,86],[24,311],[-7,54],[-29,-134],[-4,-126],[-12,-179],[-4,-190],[-18,-52],[2,257],[-8,12],[-5,524],[-7,76],[-1,139],[-16,-28],[-5,-95],[3,-143],[-2,-169],[15,-189],[-11,-84],[-15,-238],[-14,-41],[-10,-110],[-6,-275],[-10,-147],[-10,194],[-1,364],[-6,113],[-15,-35],[6,-210],[-9,-185],[3,-177],[-18,116],[-3,-92],[7,-137],[2,-207],[8,-44],[3,-445],[-10,67],[4,122],[-33,182],[-9,151],[-13,-3],[-13,114],[-15,-84],[25,-120],[15,-176],[-4,-236],[-31,-100],[-10,76],[-9,-476],[-23,-82],[-10,-127],[-7,-207],[-16,-13],[3,-249],[-28,-215],[-8,41],[6,133],[17,189],[-11,72],[15,153],[-9,43],[22,324],[-8,56],[16,182],[4,311],[8,146],[-3,97],[-22,-418],[-3,-144],[-18,-298],[-7,-39],[-6,-224],[-15,-270],[-10,29],[-1,147],[-9,46],[-4,129],[17,225],[-18,10],[-5,-148],[-20,-38],[14,-112],[9,-127],[0,-233],[-7,-110],[-15,-35],[-9,80],[-13,-41],[-9,-242],[-20,-88],[-9,-201],[-14,-47],[12,-202],[-15,-164],[-24,25],[7,93],[-13,179],[-11,-117],[-21,77],[2,-110],[14,-43],[1,-125],[-19,-134],[-27,121],[-11,-87],[-21,174],[-15,43],[-23,-140],[-2,-145],[-14,44],[-1,-157],[-11,-41],[-38,-18],[-1,193],[-30,51],[-15,92],[9,105],[-26,19],[-4,292],[8,161],[24,78],[-6,203],[5,105],[30,123],[14,-33],[5,148],[15,71],[23,-80],[18,72],[18,292],[15,5],[10,120],[26,142],[12,-21],[7,84],[-5,161],[27,167],[-1,115],[27,311],[13,78],[-6,104],[-28,-53],[-31,-258],[-38,-251],[-24,-67],[-19,-184],[-42,78],[-45,294],[-14,196],[-5,123],[11,207],[10,336],[10,146],[12,488],[28,425],[28,248],[27,337],[7,181],[4,236],[1,325],[23,149],[4,597],[4,181],[-19,192],[-8,327],[-12,224],[-1,109],[13,74],[26,79],[3,105],[11,37],[31,17],[23,64],[4,65],[52,374],[31,248],[10,118],[14,43],[32,186],[19,71],[13,96],[16,-69],[14,-288],[27,-322],[15,3],[14,-80],[19,-9],[20,72],[13,205],[14,137],[24,4],[27,-116],[7,-104],[22,57],[26,-87],[12,-79],[22,-38],[25,3],[25,-39],[26,-106],[12,-98]],[[7540,45271],[2,89],[19,44],[1,102],[11,203],[-1,216],[12,193],[25,-146],[-16,-107],[2,-90],[-16,-88],[-10,-168],[7,-118],[-9,-59],[-27,-71]],[[7385,44381],[16,37],[9,-278],[-10,-17],[-15,258]],[[7215,37878],[-15,-4]],[[7200,37874],[15,4]],[[7125,40459],[4,78],[17,4],[22,109],[8,-16],[12,-183],[-4,-178],[-16,-53],[-26,-36],[-11,74],[3,112],[-9,89]],[[7162,48060],[0,1291],[-12,0],[0,1291],[135,0]],[[7285,50642],[245,0],[220,1],[0,-861],[100,0],[0,-312]],[[7850,49470],[-17,-96],[-10,-129],[-19,-391],[-8,-96],[-40,-75],[-9,-100],[-41,4],[-37,-269],[-5,-79],[-36,-325],[-8,-196],[26,-521],[-16,-44],[-24,60],[-19,-88],[-34,-283],[-17,-331],[-20,-85],[-25,-184],[-13,-163],[-7,-168],[1,-151],[6,-129],[19,-122],[-37,-204],[-6,-239],[-6,-79],[-15,-35],[-19,-164],[-3,-89],[-17,-39],[-14,101],[-17,2],[-8,-86],[-38,86],[9,-117],[25,-119],[24,-195],[5,-169],[17,-98],[7,-116],[-7,-305],[-23,-265],[-8,-253],[-23,-86],[-4,-88],[-23,26],[-41,1],[-10,-54],[-34,-97],[0,-136],[13,-82],[16,123],[19,5],[9,-119],[-3,-141],[-13,-376],[-13,-114],[-15,-55],[-2,-82],[-18,-102],[-12,22],[-5,151],[-11,-31],[5,-161],[-11,-48],[-23,143],[10,68],[4,175],[-2,162],[-15,212],[-8,-54],[5,-233],[-6,-323],[-7,-73],[-21,-1],[-16,40],[-21,-25],[6,-92],[16,45],[18,-206],[-8,-174],[-38,-14],[-15,-132],[12,-95],[8,-206],[-7,-144],[-26,-86],[-22,-2],[-14,-166],[-20,-35],[-6,62],[-16,-114],[2,-112],[13,45],[8,-109],[-25,-141],[-7,-166],[-4,-343],[-5,-108],[-17,-47],[-9,-203],[24,-36],[2,-96],[-9,-197],[10,-166],[12,17],[16,202],[12,8],[46,-99],[19,121],[10,-63],[13,49],[26,-345],[25,-114],[10,80],[34,-367],[9,0],[4,-350]],[[7197,37874],[-90,-1],[0,-573],[-50,-1],[0,-430],[-138,0]],[[6919,36869],[-92,0],[0,430],[-14,0],[0,1722],[-15,0],[0,861],[94,0],[0,861],[80,0],[0,431],[48,0],[0,861],[47,0],[0,430],[35,0],[0,1722],[36,0],[0,1721],[36,0],[0,1722],[-12,0],[0,430]],[[8749,50643],[150,0],[0,220],[74,0],[0,1722],[-5,0],[0,1721],[-6,0],[0,430],[155,0],[0,1291],[-3,0],[0,1721],[-4,0],[0,501],[-12,0],[0,1048]],[[9098,59297],[11,50],[35,58],[38,-51],[14,20],[8,166],[130,0],[137,0],[0,-430],[160,0],[0,-71],[268,0],[135,0],[3,-375],[9,-32],[-2,-135],[27,-61],[-11,-131],[2,-186],[-10,-80],[-7,-179],[-20,-223],[-12,-28],[43,-291],[-2,-160],[-8,-167],[-11,-22],[0,-191],[-12,-54],[19,-178],[27,-10],[11,-77],[11,69],[27,-55],[1,122],[21,222],[6,193],[13,14],[44,-142],[59,6],[0,-430],[53,0],[0,-430],[41,0],[0,-1722],[-10,0],[0,-230],[51,-2],[0,-1058],[231,-1]],[[10628,53015],[0,-1459],[0,-1863],[0,-2095],[0,-2093]],[[10628,45505],[-59,0],[0,216],[-161,0],[0,430],[-48,0]],[[10360,46151],[0,426],[-250,-61],[-3,962],[-105,-129],[-44,-12],[0,447],[-85,-1],[-1,931],[-198,-2],[0,435],[3,432],[-127,-5],[-146,-1],[-225,-1],[-1,434],[-173,-1],[-105,-4],[-1,213],[-150,0],[0,429]],[[10628,85764],[-295,7],[-279,1],[-278,0],[-260,0],[-281,0],[0,-2483],[-155,0],[-265,0],[-237,0],[-269,0],[-188,0],[-180,0],[-257,0],[-267,0],[-244,0],[-216,0],[-235,0],[-83,0]],[[6639,83289],[0,174],[-256,0],[0,430],[-255,0],[0,429],[-268,0],[-169,0],[-271,0],[0,430],[-130,0],[0,-430],[-259,0],[0,430],[-130,0],[0,-430],[-130,0],[0,430],[-195,0],[0,-430],[-227,0],[-268,0],[0,-860],[-244,0]],[[3837,83462],[-28,106],[-51,152],[-59,116],[-31,166],[-17,284],[-26,206],[-28,154],[-48,177],[-49,124],[-52,51],[-10,38],[82,235],[40,134],[18,189],[1,253],[18,224],[13,1146],[-10,422],[49,-21],[107,-91],[28,-11],[78,47],[116,161],[44,48],[28,66],[35,0],[76,93],[38,164],[45,155],[25,190],[40,191],[35,264],[24,302],[32,260],[36,389],[22,489],[1,557],[-2,366],[2,164],[33,808],[14,164],[78,712],[33,422],[28,310],[40,346],[110,571],[16,102],[71,-117],[50,-54],[44,9],[65,155],[78,282],[65,310],[60,361],[33,222],[30,275],[15,79],[43,326],[26,148],[42,317],[28,109],[65,166],[32,-14],[3,-150],[-44,-63],[0,-117],[41,-105],[58,23],[12,160],[78,-56],[44,39],[41,106],[41,14],[52,68],[73,221],[74,362],[60,413],[90,894],[43,373],[45,253],[22,73],[10,-282],[25,-26],[21,-143],[21,14],[59,-128],[-3,-83],[17,-99],[-11,-170],[32,92],[59,31],[49,-150],[-1,-129],[15,-200],[-8,-176],[-47,-255],[-5,-132],[-36,-62],[-36,-25],[-3,-80],[22,-457],[13,-139],[47,26],[28,-52],[9,99],[24,61],[2,123],[-9,307],[12,9],[29,249],[31,103],[13,-178],[14,121],[-7,136],[-21,219],[30,154],[9,-165],[12,-15],[1,410],[43,-180],[44,-231],[37,-244],[17,-154],[-12,-87],[-2,-142],[4,-432],[5,-123],[27,-43],[39,35],[25,-71],[21,-238],[29,106],[22,142],[15,289],[53,61],[57,-25],[40,36],[43,137],[58,-38],[11,-79],[22,-24],[16,-194],[15,-15],[9,166],[56,-1],[50,-119],[48,-153],[9,-131],[-30,-102],[-22,-322],[-27,-120],[4,-272],[11,-127],[68,-125],[29,-3],[3,-99],[-41,91],[-55,-51],[-29,45],[-13,-87],[12,-124],[23,66],[59,-63],[28,58],[20,-31],[19,97],[70,-111],[-27,-282],[-24,-51],[-7,-142],[18,-79],[48,2],[37,40],[76,-191],[15,-141],[28,26],[27,250],[27,157],[27,-39],[19,57],[24,-77],[11,148],[39,28],[30,-116],[14,-251],[48,128],[22,-28],[18,87],[51,318],[24,-120],[17,90],[38,-45],[31,102],[13,-126],[25,52],[14,-64],[35,-27],[27,-96],[28,-198],[16,21],[32,-129],[19,49],[36,-59],[31,-191],[5,-113],[-6,-151],[35,-29],[22,112],[27,-130],[14,129],[24,-11],[7,-71],[24,-42],[10,-91],[22,-30],[8,-79],[-19,-110],[22,-107],[30,-63],[38,4],[41,-94],[28,45],[32,-206],[51,2],[39,138],[52,-33],[38,58],[65,-42],[18,-68],[26,-20],[20,-71],[37,-67],[21,150],[25,-178],[39,-209],[41,-123],[11,-122],[47,-108],[24,-109],[75,-144],[21,98],[33,-70],[23,-8],[17,63],[34,279],[45,24],[11,89],[32,93],[52,115],[12,100],[23,-62],[15,85],[62,97],[29,-96],[19,18],[28,124],[16,-83],[62,-259],[63,-188],[40,-171],[36,-204],[-3,-83],[35,-155],[23,-57],[44,-235],[51,-205],[59,-148],[47,-210],[35,-244],[7,-215],[17,-132],[33,-10],[14,262],[22,-47],[33,-135],[0,-1787],[0,-2007],[0,-1907]],[[12381,34765],[4,-338],[16,11],[28,96],[10,-51],[23,-12],[13,-95],[14,-34],[25,68],[16,-2]],[[12530,34408],[-68,-210],[-15,-102],[-18,19],[-5,-206],[-20,21],[-13,-156],[-7,12],[-20,272]],[[12364,34058],[-2,62]],[[12362,34120],[1,334],[18,311]],[[12321,36003],[6,18],[12,-207],[15,-327],[-10,7],[-23,509]],[[12252,38464],[60,-10],[4,-29],[169,-19],[4,7]],[[12489,38413],[-4,-200],[22,-310],[79,-465],[37,-188],[37,-582],[42,-443],[50,-460],[-23,-212],[32,-553],[21,-245],[26,-380]],[[12808,34375],[-110,-1348]],[[12698,33027],[-15,-188]],[[12683,32839],[-20,-245]],[[12663,32594],[-8,64],[-16,369],[-18,271],[4,168],[20,140],[10,-232],[10,45],[-20,463],[-12,-63],[2,-173],[-25,-150],[-11,55],[-35,438],[-4,116],[1,193],[-7,257],[1,133],[8,60],[-1,183],[-6,85],[22,77],[10,113],[-11,128],[3,97],[-13,193],[-4,-342],[-20,-137],[-6,-118],[13,-184],[-8,-62],[-4,-157],[-11,38],[-26,-86],[-20,47],[-15,92],[-22,54],[-7,-67],[-23,68],[-22,245],[-5,108],[10,87],[2,330],[-26,-42],[-11,82],[4,128],[-9,405],[-12,91],[-5,116],[-19,326],[-6,45],[-12,295],[19,21],[-7,106],[5,252],[-2,142],[-18,140],[-4,-245],[-10,-49],[-8,196],[-16,199],[-5,130],[4,90],[-9,270],[0,226]],[[3934,47708],[6,203],[20,-74],[12,-121],[-30,-101],[-8,93]],[[3906,48134],[36,211],[17,-51],[39,145],[23,9],[28,-26],[0,-135],[24,-55],[22,82],[11,-34],[6,109],[42,73],[5,98],[18,78],[3,259],[-19,37],[4,137],[-8,56],[7,152],[13,7],[10,-129],[12,81],[-1,83],[18,163],[26,88],[0,186],[-16,68],[1,208],[-9,97],[7,242],[30,-15],[15,-65],[10,56],[36,-155],[20,16],[17,79],[-2,231],[18,38],[-5,118],[16,146],[19,60],[18,-93],[34,-33],[31,153],[41,29],[19,65],[26,218],[10,-29],[59,97],[10,-65],[-2,-195],[22,-24],[19,95],[30,-42],[58,-163],[36,29],[52,234],[27,16],[42,177],[48,95],[42,57],[12,79],[16,189],[20,160],[50,263],[49,107],[38,199],[31,94],[41,-44],[5,124],[-59,79],[-20,90],[-9,115],[-9,266]],[[5186,53224],[274,0],[80,0],[0,430],[204,0],[0,430],[250,0],[159,0],[0,-430],[276,0],[57,0],[266,0],[273,0],[48,0],[0,431],[102,0],[0,430],[91,0],[0,430],[19,0]],[[7285,54945],[0,-2237],[0,-2066]],[[7162,48060],[-227,0],[-70,0],[-276,0],[-140,0]],[[6449,48060],[-67,0],[-258,0],[0,430],[-99,0],[0,-430],[-49,0],[0,-430],[-50,0],[0,430],[-296,0],[0,-431],[-21,0],[0,-430],[-49,0],[0,-430],[-49,0],[0,-861],[-19,0],[0,-430],[-48,0],[0,-861],[-48,0],[0,-431],[-18,0],[0,-861],[-48,0],[0,-860],[-64,0],[0,-861],[-48,0],[0,-861],[-16,0],[0,-431],[-46,0],[0,-430],[-47,0],[0,-861],[-15,0],[0,-431],[-47,0],[0,-797]],[[5047,37793],[-9,-65]],[[5038,37728],[-83,1],[0,-430],[9,0]],[[4964,37299],[-12,-182],[3,-202],[-46,-166],[-9,-132],[-19,-14],[-13,-99],[-3,-95],[-20,-49],[-4,255],[-13,135],[-45,15],[-26,-54],[-22,88],[-3,79],[13,70],[26,9],[7,53],[31,-133],[13,190],[-7,69],[17,152],[9,149],[5,195],[-8,383],[-1,439],[-15,284],[5,107],[-16,87],[-28,398],[-21,578],[18,366],[10,69],[0,132],[21,84],[5,133],[12,41],[4,141],[26,98],[3,96],[-20,305],[-12,141],[-15,251],[-3,316],[-14,178],[-11,303],[-25,300],[-14,318],[1,135],[-19,190],[-10,201],[-4,155],[-9,11],[-5,126],[-13,121],[-14,281],[-22,26],[-14,-228],[2,-289],[4,-200],[-18,-240],[-24,-39],[-25,88],[-12,-208],[-13,-78],[-20,-54],[-57,-309],[-30,-107],[-70,-156],[-72,-65],[-33,2],[-39,60],[-25,67],[-24,107],[-8,98],[-15,408],[13,105],[16,21],[-1,92],[-24,202],[-50,235],[-30,443],[2,79],[-20,128],[-23,197],[-7,196],[-47,72],[-29,144],[-22,169],[-31,348],[9,104],[12,21],[15,108],[9,139],[-1,153],[-25,22],[-38,-235],[-21,-19],[-29,89],[-12,222],[10,109],[25,-15],[11,73],[6,140],[11,-4],[12,163],[14,25],[10,166],[10,-9],[16,198],[-11,94],[-7,208],[11,1],[30,162],[7,122],[-19,146],[-7,145],[10,134],[-10,90],[-19,-184],[-29,52]],[[3257,44611],[13,-61],[12,94],[20,73],[57,-42],[14,-52],[28,40],[0,-90],[25,-4],[13,206],[-7,110],[5,76],[21,149],[21,27],[20,-48],[6,70],[-4,150],[13,50],[11,113],[23,-76],[9,-83],[22,130],[29,62],[36,-259],[-2,-81],[21,-47],[21,29],[12,118],[55,-256],[3,-118],[-15,-106],[10,-111],[2,-129],[-11,-181],[17,-229],[-1,-100],[-12,-135],[7,-172],[15,-81],[-6,-151],[20,-141],[4,-162],[-4,-89],[-39,-92],[-12,64],[-19,-51],[-12,-96],[-20,17],[-26,-97],[-19,-146],[-10,-26],[17,-240],[-2,-66],[-28,-52],[-7,156],[-22,187],[-38,176],[-21,-51],[-30,19],[-17,158],[-23,57],[-8,93],[-33,243],[-39,165],[-17,-20],[-17,111],[-21,227],[-18,20],[-10,327],[-19,304],[-13,120]],[[1695,46056],[7,224],[19,183],[6,107],[10,-6],[-5,-213],[14,-297],[29,-250],[46,-271],[22,-71],[42,-20],[35,-280],[1,-126],[-11,-9],[-9,160],[-24,42],[-25,-6],[-27,-90],[-9,90],[-28,131],[-11,146],[-35,297],[-10,128],[-15,24],[-22,107]],[[1679,46844],[8,173],[8,-1],[1,-249],[-17,77]],[[12229,34475],[-2,20]],[[12227,34495],[2,-20]],[[12202,38671],[7,-33],[8,-225],[-9,-129],[-6,387]],[[12199,40332],[92,0],[1,-19]],[[12292,40313],[19,-324],[72,-159],[6,-282],[32,-303],[23,2],[10,-210],[18,-251],[-7,-296],[24,-77]],[[12252,38464],[-9,278],[0,233],[-8,219],[-11,226],[-5,176],[-23,330],[3,406]],[[12100,42219],[93,-1831]],[[12193,40388],[-6,-358],[-11,-57],[6,-165],[18,-217],[8,-239],[-4,-38],[14,-273],[-21,112],[-4,230],[-7,150],[-23,231],[-14,66],[-1,-132],[21,-238],[1,-149],[7,-153],[18,-106],[-6,-271],[-1,-320],[8,-248],[14,-40],[-4,-127],[15,-351],[12,-183],[0,-276],[13,-168],[15,-357],[-15,-127],[8,-160],[13,-356],[-5,-34],[12,-244],[5,-313],[6,-120],[2,-224],[-15,-44],[-2,-146],[13,-328],[-11,-13],[-18,63],[-17,136],[-13,-23],[-11,70],[-15,301],[-9,92],[-15,633],[-11,235]],[[12163,36109],[15,72],[23,-115],[11,66],[-13,239],[-14,191],[2,147],[-23,179],[-12,2],[-5,208],[-57,234],[11,252],[1,136],[37,186],[13,134],[-21,77],[0,95],[11,96],[0,106],[-36,340],[-7,186],[5,189],[-20,158],[-11,-15],[-23,211],[-20,3],[-42,138],[-4,-95],[-35,192],[-28,29],[-27,156],[-9,-25]],[[11885,39881],[6,123],[-3,458],[1,445],[29,-81],[19,74],[18,297],[0,175],[-32,200],[45,200],[67,110],[65,337]],[[6079,26369],[16,204],[29,23],[25,-18],[17,-159],[-29,20],[-8,-121],[-50,51]],[[5919,25415],[20,102],[9,-223],[-8,-61],[-21,182]],[[5643,28066],[0,-39]],[[5643,28027],[0,39]],[[5642,22832],[8,260],[19,73],[15,-86],[0,-126],[-28,30],[-5,-152],[-9,1]],[[5562,22913],[10,170],[15,-109],[0,-106],[-13,-30],[-12,75]],[[5512,22667],[14,111],[6,-84],[-5,-153],[-15,126]],[[5502,22298],[8,267],[10,-68],[-18,-199]],[[5643,27705],[22,-93],[46,70],[0,206],[-12,217],[3,172],[-4,76],[2,175],[8,201],[34,553],[44,603],[21,214],[34,230],[28,106],[1,70],[22,178],[20,332],[16,97],[23,242],[11,69],[18,27],[9,-316],[15,-46],[8,160],[-9,441],[-27,17],[-3,122],[1,361],[13,439],[7,486],[6,618],[7,436],[10,251],[33,31],[8,58],[4,139],[-14,10],[-27,319],[-3,310],[4,275],[15,431],[8,146],[20,88],[12,120],[21,344]],[[6098,36690],[107,0],[157,0],[0,1336],[-193,0]],[[6169,38026],[9,141],[0,169],[8,175],[-20,-77],[-8,-127],[1,-138],[-11,-197],[-32,-118]],[[6116,37854],[0,1167],[-22,0],[0,861],[47,0],[0,431],[94,0],[0,430],[26,0],[0,430],[48,0],[0,431],[94,0],[0,430],[46,0],[0,1279],[0,2995],[0,1752]],[[6919,36869],[0,-933],[-15,0],[0,-215],[-23,0],[-9,-144],[0,-143],[-30,0],[0,-144],[-46,0],[0,-143],[-38,0],[0,-72],[-38,0],[0,-143],[-15,0],[0,-144],[-45,0],[0,-215],[-31,0],[0,-431],[15,0],[0,-287],[-14,0],[0,-794],[-30,0],[0,-216],[-23,0],[0,-143],[-45,0],[0,-287],[-15,0],[0,-215],[-6,-144],[-37,0],[0,-215],[15,-72],[-30,-287],[0,215],[-15,-71],[-15,0],[0,-144],[-15,-72],[0,-143],[-22,0],[0,71],[-45,0],[0,-143],[-7,-72],[-15,0],[0,-215],[-15,0],[0,-359],[-15,0],[4,-144],[-22,0],[0,-215],[-15,0],[0,-287],[-22,0],[0,-359],[117,0]],[[6357,29544],[-10,-173],[-22,-162],[1,-138],[-9,-25],[-11,-146],[-18,-20],[8,-220],[-3,-92],[-32,121],[-12,163],[-18,-62],[10,-137],[-11,-142],[-5,-322],[-12,107],[-11,193],[-13,-51],[-5,-211],[-8,2],[-13,-108],[-14,-277],[-16,-9],[-5,-89],[3,-128],[-7,-87],[-16,8],[-44,437],[-15,-18],[-10,-124],[3,-118],[12,-49],[5,-134],[-30,-40],[-8,-82],[-7,-210],[3,-124],[12,-71],[8,27],[8,-154],[-11,-117],[-32,14],[-19,-46],[-8,69],[-10,251],[-13,3],[-14,-91],[-26,-94],[-8,-142],[-19,-36],[-27,-245],[0,-121],[45,180],[34,5],[2,-337],[-15,-124],[-21,71],[-18,112],[-21,12],[-7,-254],[-15,-27],[-19,42],[-22,90],[-23,-154],[-15,-271],[-12,-115],[9,-168],[20,-67],[20,-11],[13,-107],[24,-67],[-5,-106],[-26,-159],[3,-121],[10,-94],[24,214],[4,-95],[-7,-124],[-8,3],[-37,-213],[-8,120],[-17,-166],[12,-256],[-8,-27],[-8,-138],[12,-60],[-2,-197],[-10,45],[-12,-29],[-5,-125],[-13,248],[-10,54],[3,492],[-16,-144],[-11,-28],[6,-232],[-1,-122],[7,-81],[-1,-144],[-14,-42],[-9,-141],[-7,35],[8,220],[-25,-75],[-10,120],[-19,-427],[-24,2],[-1,-187],[-8,12],[-10,152],[-17,-73],[-11,-94],[-10,45],[-21,-52],[-2,-110],[-16,58],[-15,-109],[-1,-287],[-9,-23],[-8,123],[-2,271],[-6,133],[-11,-68],[-4,-103],[10,-120],[4,-398],[-16,-253],[6,-65],[-3,-250],[-5,-42]],[[5457,21901],[0,1234],[-85,0],[0,430],[17,0],[0,1723],[-26,0],[0,861],[87,0],[0,431],[87,0],[0,431],[62,0],[0,430],[44,0],[0,264]],[[8279,50850],[20,80],[34,0],[0,-144],[16,0],[0,-143],[200,0]],[[8549,50643],[0,-1291],[-2,0],[0,-1578],[-75,0],[-2,-144],[0,-430]],[[8390,47761],[7,44],[-24,289],[-28,156],[-47,-91],[-13,128],[-23,155],[-33,12],[-8,66],[-28,99],[-11,86],[-20,254],[-22,119],[-10,106],[-27,92],[11,237],[27,40],[14,260],[18,278],[27,108],[-1,177],[22,73],[18,102],[9,-5],[34,237],[-3,67]],[[8041,49157],[12,51],[5,153],[16,-70],[-20,-154],[-13,20]],[[6639,83289],[0,-686],[-14,0],[0,-430],[63,0],[0,-430],[63,0],[0,-430],[63,0],[0,-430],[-16,0],[0,-1290],[124,0],[0,-430],[44,0],[0,-1720],[-18,0],[0,-430],[-181,0],[0,-860],[-181,0],[0,-430],[-13,0],[0,-860],[-119,0],[0,430],[-59,0],[0,431],[-119,-1],[0,-860],[-120,0],[0,860],[-238,0],[0,-1720],[-297,0],[0,-860],[-176,-1],[0,-860],[3,0],[0,-1290]],[[5448,70992],[-58,0],[0,-430],[-232,0],[-71,0],[-266,0],[-272,0],[-260,0],[0,860],[-58,0],[0,860],[-79,0],[0,1720],[-20,0],[0,1720],[-22,0],[0,523]],[[4110,76245],[84,53],[66,4],[53,-85],[5,-107],[-29,-10],[7,-303],[-9,-181],[-25,-198],[-8,-478],[12,-73],[3,-130],[-29,-301],[-28,-37],[0,-117],[38,15],[14,-331],[21,-215],[41,-109],[37,130],[45,11],[15,-94],[35,-41],[28,44],[26,112],[24,-42],[30,72],[20,-123],[17,-170],[47,100],[24,-146],[28,60],[37,189],[7,-62],[24,-13],[29,-143],[14,-142],[-7,-153],[18,-32],[14,34],[-13,128],[7,83],[-6,117],[38,345],[11,142],[26,500],[17,101],[40,-7],[10,-189],[38,-49],[24,104],[3,-198],[20,7],[6,203],[-20,228],[-6,131],[-16,156],[-24,53],[-38,136],[-13,4],[-36,105],[-45,-11],[-23,-115],[-36,-107],[-1,-146],[11,-81],[11,-196],[-19,4],[0,219],[-10,57],[18,514],[2,307],[-9,209],[-20,189],[-35,210],[-7,205],[-12,155],[-25,153],[-23,55],[-38,28],[-12,260],[-29,374],[6,203],[26,48],[5,174],[25,-113],[26,92],[22,-360],[20,-175],[11,-163],[30,-177],[-9,-206],[-9,-86],[1,-290],[32,-293],[8,-161],[37,-249],[32,-138],[29,-182],[16,14],[53,179],[13,137],[-4,79],[-52,18],[-41,403],[-21,97],[-7,109],[-29,186],[-14,161],[11,216],[-5,204],[13,94],[10,160],[-3,156],[17,112],[4,133],[20,99],[20,-79],[24,11],[-1,151],[-12,84],[-16,-22],[-10,131],[-20,13],[-7,-66],[-19,219],[-21,31],[-72,-137],[-30,-129],[-36,-11],[-39,-83],[-34,74],[-23,205],[-15,70],[-50,-70],[-30,10],[-73,134],[-44,104],[-56,83],[-22,145],[2,268],[-5,324],[-30,782],[-41,675],[-23,270],[-25,180],[-98,457],[-93,658],[-64,397],[-19,95],[-18,162],[-40,229]],[[12767,28708],[37,9],[32,-103],[12,-192],[11,-60],[12,-317],[2,-244],[8,-111],[25,-54],[17,-188],[7,-214],[14,-127],[19,-92],[-2,-111],[8,-147],[16,-58],[0,-104],[-22,-161],[-8,8],[-25,-235],[-22,-58],[-15,73],[-8,-40],[-26,49],[-25,95],[-12,-260],[-22,-148],[-14,145],[-28,-16],[-5,104],[-11,-3]],[[12742,26148],[2,123],[-9,84],[-3,236],[6,176],[-4,94],[-11,70],[-8,167],[1,135],[-17,174],[22,38],[-2,309],[3,244],[32,197],[27,78],[3,58],[-17,377]],[[12691,32496],[12,2],[10,198],[18,8],[9,-122],[19,-86],[17,98],[3,-124],[16,24],[11,-157],[15,6],[7,-72],[10,77],[7,-110],[19,6],[7,121],[22,-164],[9,-247],[-11,-112],[-2,-133],[21,-186],[17,35],[8,-35],[18,34],[1,120]],[[12954,31677],[28,-550],[53,-767],[32,-650],[-34,-594],[90,-231],[-19,-769]],[[12981,27248],[8,165],[-32,163],[-16,133],[-25,174],[-7,237],[-20,150],[-5,172],[-14,187],[17,-3],[12,58],[11,-169],[6,25],[-5,222],[-8,204],[-16,-183],[-12,105],[-23,57],[-17,128],[-30,34],[-6,134],[3,105],[-18,-12],[-3,-99],[-12,-46],[-14,110],[-27,107],[-11,114],[-2,144],[4,118],[-10,174],[13,110],[3,125],[14,-110],[17,-8],[32,47],[16,87],[-26,113],[-20,-7],[-27,109],[-6,128],[14,168],[-12,40],[-16,266],[2,338],[8,37],[3,166],[-23,-113],[-16,81],[-16,248],[5,191],[1,207],[25,31],[15,-167],[12,-17],[23,-101],[14,-107],[31,-166],[32,-271],[-22,329],[-26,236],[-13,8],[-16,143],[-11,152],[-21,104],[-7,91],[-20,52]],[[9773,66819],[88,-177],[30,107],[14,299],[29,182],[-11,62],[28,215],[-19,111],[7,362],[-8,122],[9,200],[13,-18],[17,92],[-3,109],[35,157],[16,178],[9,-48],[12,148],[23,133],[20,10],[17,63],[10,-38],[25,276],[3,137],[9,50],[2,264],[-10,144],[20,100],[7,178],[17,95],[21,-88],[24,59],[37,276],[52,154],[38,-155],[36,26],[29,276],[16,101],[20,0],[-1,108],[18,31],[48,318],[-4,89],[15,167],[4,231],[31,271],[27,170],[5,104],[30,89]],[[10628,72559],[0,-2518],[0,-1725],[0,-4861],[0,-4538],[0,-1396],[0,-1438],[0,-1396],[0,-1672]],[[9098,59297],[0,1533],[-141,0]],[[8957,60830],[0,1848],[0,2024]],[[5096,58518],[0,1290],[53,0],[0,430],[-6,1],[0,860],[53,0],[0,430],[108,0],[0,430],[50,0],[0,430],[54,0],[0,1291],[-58,0],[0,1721],[-5,0],[0,1720],[53,0],[0,860],[56,0],[0,861],[-3,0],[0,860],[57,0],[0,860],[-2,430],[-58,0]],[[10628,85764],[0,-1523],[0,-1303],[0,-1917],[0,-5110],[0,-2719],[0,-633]],[[8665,65132],[-202,0],[-100,0],[0,71],[-149,0],[-296,0],[-154,-1792],[-35,0],[-31,116],[8,119],[-21,52],[0,71],[-64,0],[-18,-251],[8,-107],[-63,0],[0,-861],[-48,0],[0,-860],[-180,0],[0,-860],[18,0],[0,-646],[53,0],[0,-215],[53,0],[0,-601],[-125,-1796],[-34,-475]],[[7285,57097],[0,-2152]],[[5186,53224],[-106,0],[0,1290],[-37,0],[0,1721],[14,0],[0,1721],[15,0],[0,499],[24,63]],[[5212,37048],[5,206],[10,-4],[1,-124],[-16,-78]],[[6116,37854],[-4,-36],[-33,-52],[-28,-200],[-29,-102],[-6,-80],[-42,-132],[-44,-261],[-60,-257],[-17,-52],[-21,4],[-16,87],[-16,148],[-4,292],[-10,152],[-17,114],[-23,63],[-11,81],[2,136],[13,153],[8,679],[-14,-8],[-23,-414],[-30,-207],[-13,-38],[-7,-308],[5,-152],[-8,-182],[-21,-37],[14,-528],[15,-320],[6,-244],[14,-66],[-10,-210],[-17,-221],[-28,-77],[-12,19],[-33,137],[-17,328],[-61,1129],[-19,272],[-25,245],[-38,122],[15,240],[-9,181],[-9,29],[-26,-58],[4,-61],[-12,-207],[5,-141],[-17,-5],[5,-182],[-17,-65],[-13,-95],[-25,303],[3,145],[-7,78],[-22,-9],[-2,-82],[-20,35],[4,96],[-12,126],[-15,45],[-6,129],[-12,70],[15,163],[-7,161],[-15,125],[-14,6],[-36,-204],[-47,-365],[-19,-164],[-21,-265],[-14,149],[-23,-35],[-20,-181]],[[5033,36564],[1,220],[7,313],[38,234],[13,-3],[36,264],[11,-39],[-18,-321],[-9,-227],[-14,-248],[-9,-251],[-23,-143],[-21,35],[-12,166]],[[5038,37728],[-18,-127],[-44,-145],[-12,-157]],[[10961,41507],[17,188],[3,-235],[-20,47]],[[10628,45505],[0,-424],[65,-229],[69,-201],[17,439],[133,-627],[81,761],[172,86],[1,-164],[-36,-1148],[41,-464],[71,-349],[25,-91],[11,-480],[12,-204],[110,-999],[174,-1607],[18,-687],[12,-596],[-7,-380]],[[11597,38141],[-117,-498]],[[11480,37643],[6,163],[-6,195],[-36,391],[-46,389],[-28,146],[-76,277],[-20,135],[-33,273],[-24,158],[-44,216],[-77,329],[-77,465],[-20,151],[-47,286],[0,153],[16,-81],[30,341],[0,-207],[12,77],[14,295],[27,317],[-18,159],[-14,300],[1,81],[-9,142],[0,281],[22,126],[16,334],[-18,187],[-16,-201],[-1,-230],[-29,-132],[-16,-243],[-1,-218],[-8,-56],[-40,-132],[-63,-262],[-12,-134],[-26,-80],[-101,104],[-59,140],[-26,138],[-129,574],[24,237],[21,33],[-2,140],[9,152],[-8,178],[4,223],[-23,85],[-5,71],[2,182],[-10,42],[-8,-114],[-16,78],[-9,101],[-9,-76],[7,-130],[16,-94],[5,-192],[10,-22],[13,-159],[-8,-129],[-29,-83],[-11,-107],[-14,-36],[-40,0],[-40,187],[-31,96],[-30,40],[-55,147],[-38,32],[-29,105],[-45,46],[-31,10],[-27,-25],[-62,-123],[-109,-96],[-28,-35],[-20,-58],[-56,-205]],[[9822,43491],[0,189],[46,581],[149,1890],[91,0],[252,0]],[[12156,29795],[10,117],[19,-19],[4,-147],[-6,-123],[-11,-29],[-16,201]],[[12140,27983],[23,-55],[-12,-78],[-11,133]],[[12393,24958],[0,-436]],[[12393,24522],[-11,104],[0,160],[-19,-11],[-10,112],[-8,279],[-16,90],[-1,155],[-12,146],[1,156],[-10,97],[-4,169],[-9,123],[-10,415],[7,119],[23,105],[-10,94],[-14,-54],[-16,-124],[-10,92],[-6,159],[4,188],[-10,-16],[-11,-96],[-11,165],[-8,19],[-10,133],[-1,102],[13,64],[-12,119],[-23,-38],[-28,57],[1,215],[28,55],[4,219],[6,40],[2,199],[-8,94],[1,177],[25,127],[-3,163],[-19,-30],[0,121],[-10,200],[7,203],[-13,112],[13,151],[1,158],[-11,108],[-25,5],[-14,-90],[-8,171],[3,98],[-18,118],[-11,115],[-3,174],[16,5],[21,-54],[8,58],[-30,122],[12,77],[15,177],[4,305],[20,235],[19,-2],[16,-96],[9,-142],[-1,-130],[20,25],[10,-47],[6,-124],[28,-162],[18,-41],[18,84],[12,-28],[17,-112],[-2,-68],[10,-237],[-3,-217],[-14,89],[-11,135],[-13,-73],[1,-282],[12,0],[7,97],[10,-210],[-5,-169],[13,-146],[5,-253],[16,-637],[-1,-258],[13,-270],[-2,-310],[8,-83],[6,-335],[6,-138],[4,-442],[-4,-442],[-11,-32],[9,-313],[-2,-248],[4,-254],[-5,-157],[4,-202],[-12,-120],[3,-125]],[[12056,29782],[12,134],[-3,87],[4,190],[-5,149],[17,-17],[5,70],[39,-233],[16,-269],[-14,-161],[6,-95],[14,-40],[5,194],[21,-234],[-16,-201],[-13,-26],[-3,-221],[-9,-111],[-9,-226],[-23,-94],[-37,-52],[2,461],[12,113],[11,26],[4,252],[-25,54],[5,147],[-5,103],[-11,0]],[[11916,32793],[99,34],[12,255],[22,552],[23,-135],[29,-222],[52,-243],[28,-182],[21,-191],[32,-217],[17,-20],[18,46]],[[12269,32470],[5,-73],[20,-42],[11,84],[15,-17],[3,-232],[4,-87],[-8,-135],[9,-58],[14,-368],[-2,-246],[5,-137],[-17,-61],[2,-154],[-22,16],[-15,-38],[-17,48],[-11,157],[-25,156],[-37,304],[-36,207],[-25,196],[-23,-232],[12,-67],[8,39],[18,-105],[-15,-74],[-3,-304],[8,-207],[-1,-116],[-12,-65],[1,-78],[-31,-289],[-12,7],[-9,90],[-20,34],[-6,126],[-30,329],[-20,140],[1,63],[-13,167],[11,101],[-9,85],[-15,-126],[-24,110],[-1,144],[-8,277],[9,79],[12,190],[-20,161],[-3,-173],[-15,103],[-4,228],[-12,166]],[[11902,32789],[11,4]],[[11913,32793],[-11,-4]],[[7593,34609],[8,152],[-4,81],[12,111],[12,-50],[0,-229],[-4,-119],[-15,-108],[-9,162]],[[7464,38175],[9,-12],[9,206],[17,-89],[-3,-124],[-15,-36],[-17,55]],[[7324,33415],[3,68],[28,30],[3,-152],[-12,-125],[-19,102],[-3,77]],[[7168,33929],[6,100],[17,95],[0,96],[12,133],[10,-7],[25,-272],[21,2],[11,107],[-29,-7],[-3,82],[-14,161],[2,209],[10,76],[33,-112],[14,29],[0,106],[-17,74],[-9,122],[15,222],[19,-91],[17,-19],[3,117],[-8,134],[13,42],[19,-66],[10,107],[-21,262],[14,4],[18,182],[1,92],[19,21],[6,95],[13,-68],[11,45],[-25,144],[-3,158],[7,241],[19,163],[7,-94],[12,-21],[14,179],[15,-31],[17,58],[-4,-207],[5,-44],[-12,-214],[-8,-252],[-20,-122],[-9,-212],[12,-135],[-7,-130],[2,-104],[21,-16],[12,47],[7,171],[-5,113],[10,94],[11,-55],[19,-212],[1,-145],[24,204],[11,-97],[-14,-401],[9,-71],[7,145],[13,-98],[10,272],[10,-55],[0,-364],[-10,-261],[-9,8],[-15,-269],[-14,18],[-2,94],[-16,0],[-7,142],[1,126],[-25,54],[0,-141],[6,-178],[-10,-73],[17,-139],[-22,-116],[-32,74],[-31,-44],[2,300],[-9,48],[-3,-319],[-14,-303],[-22,-55],[-13,-285],[-20,1],[-10,-119],[-44,89],[-23,154],[-31,131],[-16,29],[-19,-61],[-15,113]],[[6963,27089],[5,108],[19,66],[14,-5],[-2,-160],[-27,49],[-9,-58]],[[6905,26389],[14,218],[26,153],[7,-49],[28,62],[14,-298],[6,-34],[42,48],[-3,-154],[-19,-132],[-43,-21],[-15,45],[-20,-81],[-30,72],[-7,171]],[[6785,25839],[19,339],[10,132],[37,298],[24,76],[20,-75],[2,-162],[-19,-138],[-2,-62],[-24,-86],[-23,-139],[-25,-312],[-9,-17],[-10,146]],[[6785,30389],[4,91],[12,-40],[10,168],[-4,190],[14,129],[10,260],[28,164],[8,180],[21,16],[24,281],[22,22],[10,100],[35,-58],[19,51],[14,-57],[-1,-522],[16,-56],[2,-130],[13,37],[-1,154],[8,145],[12,58],[-21,230],[4,88],[34,2],[23,-47],[-4,140],[-34,134],[-18,47],[-16,-24],[-5,160],[3,91],[-1,283],[18,144],[3,127],[18,26],[16,120],[20,-67],[11,-178],[14,-56],[12,-285],[-6,-77],[0,-185],[8,-53],[9,321],[13,43],[-10,144],[2,144],[17,-54],[16,-105],[15,-40],[-9,239],[-17,34],[-17,103],[-23,245],[6,163],[15,38],[18,-107],[24,-191],[41,-151],[21,-121],[-32,420],[-19,90],[-10,173],[15,31],[14,-135],[13,-19],[10,-85],[17,62],[15,-72],[20,10],[36,-174],[-3,-103],[-13,-77],[-12,-242],[3,-154],[-3,-211],[17,-96],[-3,232],[2,212],[14,145],[11,-53],[8,-127],[7,255],[18,119],[8,140],[13,-104],[7,23],[29,330],[8,-61],[-4,-114],[27,-104],[-11,-159],[-24,97],[-2,-159],[14,-118],[-10,-49],[6,-105],[21,91],[6,-59],[-15,-142],[-26,-134],[-3,-115],[11,-101],[-9,-59],[2,-263],[20,148],[7,-48],[-14,-140],[-11,-279],[9,0],[17,173],[14,35],[19,-101],[20,37],[5,-156],[-28,-318],[-10,-53],[-9,-240],[-4,-231],[-32,106],[-9,120],[-15,-94],[-13,26],[-10,110],[-17,-50],[-15,189],[-18,-51],[-22,85],[-9,-159],[27,-37],[16,-68],[10,-179],[27,-80],[7,-110],[-1,-131],[-7,-56],[-1,-131],[-17,-196],[-4,110],[-10,50],[-18,-228],[-9,42],[-27,276],[-13,54],[-32,-118],[-12,18],[-2,-110],[15,-58],[23,68],[21,-206],[-11,-111],[-26,-122],[-24,7],[-1,-278],[13,104],[27,-49],[3,62],[17,33],[8,-109],[14,-79],[-12,-122],[-31,-12],[-28,-163],[-9,50],[-14,-105],[-3,-94],[5,-102],[-10,-182],[-20,-61],[-11,101],[7,154],[-22,103],[0,87],[12,95],[-5,111],[24,283],[0,166],[-31,-289],[-7,-141],[-12,-50],[-8,-254],[-22,139],[-26,-33],[2,-165],[19,12],[5,-84],[-9,-89],[19,-101],[-4,-150],[-12,-72],[-3,-107],[-16,-16],[-19,-208],[15,-69],[-7,-110],[-23,-103],[-13,33],[-2,-95],[-15,-148],[-2,-107],[-20,-120],[-12,0],[-5,99],[-27,-104],[1,208],[18,319],[16,55],[7,182],[10,88],[20,62],[8,86],[-5,158],[-15,-94],[-16,9],[2,186],[14,287],[12,170],[20,125],[-22,19],[-7,-102],[-19,-163],[-29,-470],[-11,-7],[-13,-242],[-13,-51],[-5,-173],[-20,-116],[-2,291],[-26,277],[-35,144],[3,408],[-4,527],[-17,366],[-8,72],[-30,35],[-7,72],[3,116],[-15,158]],[[6518,22815],[21,122],[12,264],[11,65],[10,-90],[-7,-212],[6,-306],[-6,-139],[-17,51],[-22,10],[0,142],[-8,93]],[[7197,37874],[3,0]],[[7215,37878],[-11,-84],[-13,49],[-8,-106],[-8,-387],[-10,-167],[-13,-16],[-9,-105],[-13,-29],[-10,-258],[-19,-96],[-30,-53],[-20,42],[-15,-23],[-1,-193],[-5,-116],[2,-142],[-6,-106],[-37,-46],[-4,-66],[7,-297],[19,-101],[-17,-184],[-13,17],[-20,-118],[-17,-21],[-34,-212],[5,-134],[20,55],[-3,105],[32,111],[7,-247],[-21,-65],[16,-112],[-5,-167],[-17,-64],[-13,-106],[15,-99],[-14,-70],[-19,141],[0,-166],[7,-176],[-8,-23],[-15,201],[-12,115],[0,124],[-9,26],[6,-408],[-5,-82],[-19,-9],[-9,-265],[-21,39],[-3,151],[-20,-57],[-4,-190],[-20,-66],[-6,89],[-16,41],[-17,-118],[-24,-92],[-2,-138],[-21,-45],[16,-200],[-6,-162],[-31,-106],[-12,-122],[-27,10],[1,-147],[-7,-42],[17,-204],[-2,-126],[-12,-4],[-13,-89],[-4,163],[-29,114],[-17,142],[-12,-70],[0,-137],[-6,-218],[16,-129],[-5,-96],[-27,-71],[-14,-217],[5,-112],[-3,-177],[-13,17],[-19,103],[-3,-73],[-20,-94],[-20,165],[-11,-13],[3,-476],[3,-172],[-20,20],[-10,150],[-14,68],[-8,-51],[-3,-131],[-29,-105],[-22,-258],[-15,-136],[-23,-95],[-2,-98],[9,-78],[45,170],[11,-152],[-7,-218],[-11,-16],[-7,-125],[6,-111],[14,-106]],[[6240,23879],[21,249],[10,-83],[2,-112],[-13,-41],[-1,-92],[-15,17],[-4,62]],[[6225,24528],[0,147],[15,-28],[-4,-197],[-11,78]],[[7285,57097],[235,0],[73,0],[0,358],[5,0],[238,985],[240,956],[186,717],[132,0],[141,0],[136,0],[0,717],[286,0]],[[8749,50643],[-200,0]],[[8279,50850],[-13,1],[-14,127],[-32,-34],[-31,-199],[-17,-251],[-18,-67],[-8,-213],[-2,-360],[-19,-149],[-25,80],[-36,30],[-23,-11],[-28,-57],[-23,-6],[-16,116],[-7,132],[-19,-83],[-10,78],[-10,-163],[-53,-254],[-14,-13],[-11,-84]],[[4577,61345],[19,93],[8,108],[18,56],[22,-63],[13,78],[15,-54],[10,-172],[-8,-119],[-16,-115],[-33,16],[-21,-33],[-27,205]],[[5096,58518],[-247,-1],[-72,0],[0,431],[-53,0],[0,430],[-53,0],[0,430],[-57,0]],[[4614,59808],[47,615],[12,221],[29,223],[-11,269],[14,11],[15,-100],[36,-47],[17,-158],[-19,-76],[-4,-174],[27,90],[21,-26],[13,40],[19,-57],[32,123],[31,-73],[17,17],[5,83],[17,-68],[17,72],[21,0],[47,158],[9,251],[20,135],[7,214],[13,-8],[16,159],[10,182],[20,231],[10,256],[-1,236],[-22,563],[-14,203],[-15,493],[0,588],[-14,212],[-64,599],[-2,49],[-42,175],[-18,23],[-22,-30],[16,174],[1,279],[22,127],[48,-171],[41,-15],[17,47],[0,179],[14,21],[19,192],[28,177],[3,499],[-24,322],[-4,143],[-29,107],[-25,173],[-30,283],[-4,-161],[-28,-218],[-16,-190],[-3,-157],[-42,-126],[-35,104],[-7,69],[-15,-80],[-31,-76],[-26,-198],[-5,-86],[-44,-38],[-18,-50],[-14,-128],[-4,-179],[-28,-108],[-8,-70],[-51,-263],[-19,-295],[3,-110],[-10,-202],[2,-118],[-30,-140],[-11,-144],[-9,138],[2,230],[-17,338],[3,143],[-18,102],[-6,114],[-21,47],[-7,165],[-28,128],[-1,107],[-20,34],[-33,-279],[21,-204],[23,-27],[13,-158],[13,50],[15,-36],[0,-149],[-17,-68],[-5,-274],[-19,-48],[-21,274],[0,74],[-37,235],[-36,156],[-23,76],[-40,14],[-16,42],[-22,-6],[-8,-68],[-20,-39],[-23,46],[-31,20],[-38,-19],[-25,-53],[-40,-155],[-82,-368],[-42,-20],[-7,-35],[-48,151],[-61,155],[-74,160],[-50,59],[-54,116],[-49,88],[-12,54],[-36,234],[-15,243],[-10,234],[1,302],[13,52],[6,259],[-13,218],[-24,195],[-42,213],[2,177],[-16,179],[-33,177],[-21,255],[29,-113],[34,-64],[38,78],[30,262],[-4,232],[26,152],[10,113],[-19,186],[-28,108],[-48,-34],[-38,77],[-26,110],[-35,96],[-45,53],[-55,31],[-18,61],[-38,196],[-3,62],[-25,166],[-34,124],[-5,74],[-39,89],[-23,94],[-13,246],[-1,106],[9,202],[28,178],[32,133],[90,327],[48,244],[74,450],[143,798],[54,264],[45,193],[20,35],[9,107],[59,295],[86,377],[64,247],[66,228],[108,318],[102,241]],[[2034,60876],[5,142],[0,319],[14,266],[12,147],[-5,119],[9,203],[-5,277],[17,16],[11,-86],[-3,-300],[4,-85],[25,-135],[50,-172],[42,-101],[49,-142],[38,-41],[44,268],[27,199],[29,-3],[2,78],[17,77],[16,-50],[36,1],[37,-342],[13,-14],[9,-144],[3,-219],[8,-107],[-5,-119],[8,-76],[18,-43],[28,-152],[59,-66],[23,-142],[6,-141],[17,-57],[49,-40],[13,-42],[50,-28],[9,19],[47,-60],[20,-101],[32,-47],[-8,-353],[-16,-226],[-27,-194],[-24,105],[-40,62],[-31,-22],[-44,-124],[-4,-107],[-16,-130],[-25,-138],[-11,-209],[13,-264],[-19,-29],[-12,-174],[-34,132],[6,103],[-23,455],[-12,128],[-26,197],[-12,9],[-8,119],[-27,82],[-22,-14],[-19,80],[-4,151],[-17,259],[-22,189],[-38,214],[-83,264],[-18,35],[-48,0],[-15,-100],[-36,-106],[2,-107],[-11,-111],[-10,-7],[-23,-136],[-35,148],[-8,-7],[-30,145],[-15,119],[-19,238],[-7,248]],[[3958,56757],[21,43],[7,-51],[7,-260],[-17,-39],[-17,130],[-1,177]],[[3933,56533],[5,128],[19,-201],[-19,-47],[-5,120]],[[3906,48134],[-15,136],[-3,172],[21,161],[27,-24],[20,78],[-1,213],[-17,-79],[-30,125],[-5,114],[-13,87],[4,120],[-19,37],[-17,151],[-16,-267],[-3,-219],[-7,-23],[-41,55],[-16,98],[-8,287],[3,145],[-7,159],[14,222],[-5,97],[-24,2],[-25,98],[-15,-18],[-11,95],[-12,306],[0,148],[42,185],[3,207],[-16,159],[-9,-2],[-26,122],[-16,-77],[-23,-46],[-7,-95],[-11,33],[-11,371],[4,217],[33,11],[41,117],[37,74],[-25,113],[-14,-6],[-25,103],[-13,229],[-13,152],[0,96],[49,70],[14,-33],[19,24],[7,-66],[12,134],[33,59],[-18,205],[-11,181],[-10,272],[-1,266],[8,252],[5,32],[15,323],[8,29],[34,435],[23,242],[20,270],[9,14],[4,161],[16,243],[14,152],[28,238],[35,215],[34,31],[23,108],[-14,232],[-3,152],[-11,241],[4,148],[-4,202],[23,776],[22,322],[15,100],[26,-17],[8,118],[-15,373],[49,451],[25,133],[39,77],[36,20],[17,-51],[34,-163],[15,-44],[23,6],[0,-71],[38,-319],[18,8],[13,-173],[18,-80],[14,-136],[6,-137],[15,58],[52,50],[18,60],[20,234],[16,69],[18,150],[8,260],[14,57],[12,-29],[17,67],[22,234]],[[5518,18235],[10,44],[-2,113],[30,-19],[2,-87],[-10,-165],[-11,-68],[-10,23],[-9,159]],[[5479,18829],[12,196],[26,-7],[-8,-170],[13,-231],[-10,-25],[-17,-152],[-8,147],[15,119],[-23,123]],[[5445,17809],[10,41],[16,-179],[-3,-143],[-14,-17],[-9,298]],[[5430,19343],[12,17],[7,-87],[7,330],[-6,179],[23,-176],[3,-196],[-16,-284],[-5,-171],[-23,101],[6,188],[-8,99]],[[5384,17818],[22,9],[-7,-122],[-8,3],[-7,110]],[[5383,19093],[6,99],[11,-115],[-10,-46],[-7,62]],[[5303,20385],[15,47],[9,-94],[-3,-85],[-18,33],[-3,99]],[[5263,18250],[8,178],[15,42],[11,316],[15,145],[-25,55],[0,79],[13,103],[-17,70],[8,92],[20,-100],[-12,230],[15,-1],[6,-121],[14,-75],[-13,386],[6,93],[16,-138],[2,180],[12,2],[-5,145],[17,235],[8,-108],[-1,-187],[-13,-4],[2,-157],[-4,-268],[26,82],[-4,-160],[-11,-164],[-19,171],[-4,-144],[4,-135],[-21,-49],[6,-75],[-17,-213],[-16,-89],[-4,-192],[-18,-85],[2,-140],[-15,-142],[-7,143]],[[5238,20842],[7,95],[17,94],[17,-122],[13,43],[3,-228],[-3,-121],[-14,71],[-8,101],[-14,-87],[-11,-4],[-7,158]],[[5188,20318],[7,143],[23,-53],[14,99],[10,7],[7,-280],[-6,-215],[-14,14],[-3,123],[-23,10],[-15,152]],[[5094,20324],[18,296],[20,131],[22,-99],[-1,-209],[-12,-112],[8,-103],[20,153],[-6,83],[14,205],[13,-65],[1,-101],[-14,-130],[-4,-126],[3,-150],[11,-89],[12,-314],[-2,-141],[-26,-98],[-24,125],[-3,111],[-20,5],[-8,-173],[-18,285],[4,195],[-6,71],[6,139],[-8,111]],[[5074,23184],[19,60],[10,123],[6,-86],[-35,-97]],[[4933,19728],[12,114],[15,-99],[5,-151],[-5,-76],[-19,109],[-8,103]],[[4886,19086],[10,147],[8,-93],[-10,-122],[-8,68]],[[4862,19768],[11,173],[14,-18],[20,93],[-7,-271],[-7,39],[-12,-91],[-19,75]],[[4805,19440],[3,86],[18,104],[18,-62],[12,-138],[23,-83],[1,-96],[-20,-117],[-15,-127],[-9,99],[0,123],[10,142],[-7,161],[-8,-258],[-26,166]],[[4656,18377],[15,67],[5,113],[11,92],[18,-35],[7,-102],[1,-337],[-23,-299],[-28,247],[-6,254]],[[4643,15816],[11,4],[9,-68],[-5,-147],[-15,211]],[[4539,15873],[6,76],[0,189],[10,67],[37,-161],[29,-154],[2,-160],[-8,-45],[-18,34],[-5,-51],[-18,87],[-12,-86],[-10,47],[-13,157]],[[4451,20798],[9,96],[7,-65],[-7,-135],[-9,104]],[[5643,28027],[-15,-97],[6,-148],[9,-77]],[[5457,21901],[-10,-55],[-7,-190],[-18,-82],[-12,-12],[7,189],[26,130],[-18,114],[7,279],[-8,128],[15,316],[-4,123],[-24,112],[-26,28],[-7,-125],[-4,-213],[-28,40],[-18,-25],[-7,-153],[10,-124],[-4,-86],[-31,-69],[4,-196],[-25,-48],[-6,56],[-12,-138],[-20,41],[-17,88],[-6,-122],[13,-59],[0,-110],[-22,-390],[-1,-167],[-9,-87],[-10,18],[-5,217],[-15,273],[-16,-167],[-14,66],[-11,-32],[-3,-112],[29,-50],[4,-75],[-4,-195],[-7,-34],[-30,-8],[-12,78],[4,163],[-8,94],[-13,10],[-13,-91],[-14,-334],[-35,-224],[-17,-58],[-16,-136],[-21,20],[-12,117],[-26,-130],[-14,17],[9,492],[-2,152],[15,180],[17,319],[-7,179],[-18,32],[-25,-25],[-20,-104],[-10,-243],[-13,-189],[3,-73],[-4,-390],[3,-115],[-37,-552],[-11,-110],[-4,-234],[-15,-56],[-13,115],[-14,4],[8,-282],[10,-105],[5,-163],[-4,-97],[-17,-74],[-9,-97],[-24,204],[8,60],[0,116],[-10,39],[-21,-193],[8,-297],[-8,-143],[-8,-51],[-15,100],[-22,14],[-9,-29],[-22,157],[-8,240],[15,46],[9,-93],[10,48],[-13,180],[-10,39],[-5,129],[-3,322],[-21,105],[5,143],[-20,21],[-6,-34],[-13,-223],[-4,-131],[9,-156],[12,9],[17,-277],[-11,-131],[7,-138],[1,-156],[8,-181],[0,-221],[-14,84],[-17,31],[-10,-75],[-1,-151],[-17,-87],[-15,-31],[-13,26],[-11,185],[-13,150],[6,120],[-17,274],[-17,132],[-21,-65],[-11,18],[-10,-281],[1,-64],[19,-71],[27,-215],[5,-132],[-8,-92],[-38,-281],[-6,-137],[-22,-60],[-5,-105],[-11,13],[-9,232],[18,89],[2,161],[-8,91],[2,141],[13,58],[3,234],[-1,191],[-11,248],[34,296],[15,72],[18,28],[14,-65],[11,51],[34,4],[6,308],[-17,40],[16,154],[8,24],[7,127],[18,-16],[15,221],[11,80],[18,-102],[11,53],[10,155],[-5,188],[3,156],[-23,-31],[21,215],[37,466],[32,476],[15,137],[19,100],[27,285],[15,35],[17,107],[35,360],[32,90],[32,141],[85,229],[-2,-128],[15,-30],[11,42],[39,-86],[7,89],[15,41],[26,148],[4,-93],[-9,-139],[-15,-31],[-19,-158],[3,-200],[13,-41],[1,-204],[14,-106],[29,-374],[6,113],[21,-87],[9,-182],[5,208],[-18,175],[-12,58],[2,94],[-4,246],[3,132],[17,-94],[12,-24],[44,33],[9,-160],[-3,-182],[21,61],[4,-124],[17,-9],[9,78],[-1,136],[20,53],[-9,116],[-11,-23],[-27,190],[-8,91],[-16,45],[-11,145],[-2,145],[-17,46],[24,382],[13,302],[1,80],[18,537],[9,174],[34,291],[9,151],[13,118],[25,104],[33,278],[35,370],[40,187],[35,178],[19,131],[25,213],[30,125],[69,458],[25,250],[14,109]],[[3957,16630],[5,104],[12,38],[22,156],[11,8],[15,91],[20,383],[7,221],[16,354],[2,188],[16,136],[17,78],[26,-177],[19,58],[20,119],[19,179],[14,-40],[12,41],[22,153],[18,186],[12,-8],[20,87],[32,-58],[35,52],[2,-170],[12,-96],[17,-226],[9,-281],[-2,-255],[8,-131],[1,-156],[12,-170],[27,16],[13,96],[10,-50],[13,-169],[4,-336],[-17,62],[10,91],[-24,30],[-7,-33],[-19,44],[-9,96],[-3,137],[-17,-25],[-8,-114],[4,-140],[-3,-167],[-23,-27],[-5,-100],[-15,-24],[-4,-76],[-28,79],[-34,40],[-40,-21],[-38,-56],[-32,-127],[-32,-255],[-6,-111],[3,-189],[-12,-157],[-21,-155],[-42,-89],[-13,-67],[-16,57],[-9,-31],[-15,39],[-15,87],[-15,375],[-9,134],[-4,272]],[[3881,14263],[7,76],[11,-14],[4,86],[17,-8],[29,-55],[12,92],[4,-121],[-11,-194],[-8,22],[-15,-59],[-12,15],[-14,85],[-7,-29],[-17,104]],[[3808,14130],[23,33],[9,48],[29,3],[-5,-138],[-10,-80],[-5,112],[-41,22]],[[3782,13969],[13,113],[11,-138],[-19,-65],[-5,90]],[[3751,14979],[3,110],[11,49],[1,107],[15,-90],[18,94],[-1,-165],[-11,-48],[0,-90],[16,-142],[32,-62],[-9,-87],[-18,0],[-3,-97],[-18,-80],[5,-75],[-10,-100],[-11,36],[-3,143],[7,96],[-10,168],[14,136],[-8,96],[-8,-79],[-12,80]],[[3632,14372],[8,269],[16,70],[13,151],[30,-40],[-2,-168],[13,-91],[6,81],[18,-83],[2,-80],[-15,-97],[16,-63],[20,80],[-4,-184],[-10,-16],[-16,-112],[-22,60],[0,-113],[-22,54],[-33,-107],[-1,145],[-11,110],[-6,134]],[[3608,13696],[10,63],[16,-50],[9,-95],[-11,-67],[-23,15],[-1,134]],[[13419,20546],[10,82],[5,-207],[-9,-124],[-6,249]],[[13346,19099],[10,189],[10,-129],[-5,-77],[-15,17]],[[13276,18405],[8,167],[14,-25],[23,156],[9,-20],[17,62],[-3,-137],[6,-134],[-4,-75],[15,-94],[-18,-188],[-2,-82],[-16,52],[-6,-75],[-13,68],[-3,100],[-12,71],[-15,154]],[[13215,22985],[13,242],[8,35],[14,-187],[0,-111],[-35,21]],[[13177,21338],[12,75],[16,14],[-2,-140],[-22,-114],[-4,165]],[[13390,25711],[85,-194],[44,-497],[24,-96],[20,-22],[11,-504],[22,-65],[28,-159]],[[13624,24174],[-10,-84],[-2,-116],[19,-287],[-11,-66],[-9,59],[-25,-199],[-1,-68],[15,-194],[13,-85],[-3,-99],[17,-251],[24,-244]],[[13651,22540],[1,-260],[10,-160],[-4,-506],[10,-412],[14,-230],[5,-565],[13,-187],[0,-91],[-36,-444],[-21,-503],[-2,-141],[-24,-442],[-20,-274],[-32,-349],[-30,-280],[-17,-46],[-8,-98],[8,-118],[-7,-76],[-18,63],[-9,191],[4,160],[-8,15],[-14,-181],[-12,-51],[-21,184],[-4,142],[-2,363],[-6,94],[8,130],[-19,259],[7,339],[22,81],[24,159],[9,-214],[21,103],[-21,45],[-6,208],[-16,-94],[-7,-108],[-27,-95],[-22,191],[-5,344],[29,278],[17,258],[12,-34],[3,100],[-3,238],[2,111],[-8,85],[-4,222],[13,283],[2,196],[-11,714],[3,88],[-20,399],[-10,107],[-25,442],[-24,259],[-10,208],[32,234],[-9,91],[-27,-245],[-23,-71],[-9,-112],[25,14],[5,-105],[19,-202],[26,-389],[8,-238],[-2,-50],[22,-335],[1,-125],[6,-147],[2,-156],[-12,-265],[-1,-515],[5,-336],[-18,24],[2,-139],[-7,-225],[-3,-327],[-20,-182],[-7,-132],[-12,-36],[-18,92],[-12,157],[20,235],[12,356],[-1,162],[-6,21],[-20,-73],[2,-113],[9,-131],[-13,-274],[-15,-87],[-14,14],[-16,76],[-5,88],[-1,155],[-6,37],[-8,-197],[-17,99],[-12,119],[-14,32],[20,-251],[-9,-43],[-12,-304],[-16,-21],[11,-129],[-15,-323],[-8,120],[-14,392],[-1,191],[-7,239],[4,166],[-7,110],[10,85],[3,160],[21,-202],[6,50],[-11,145],[-15,127],[0,97],[15,61],[16,192],[13,336],[9,90],[-16,48],[-7,105],[6,259],[-9,203],[2,85],[16,131],[14,-39],[11,88],[9,-31],[3,150],[-26,-108],[-12,77],[-8,-44],[-3,230],[49,-7],[-6,160],[-11,164],[-5,197],[-18,-106],[-22,-199],[-11,24],[-33,-95],[7,-96],[14,-1],[20,-101],[1,-150],[-9,-130],[-7,-246],[-12,19],[13,-264],[-8,-68],[-12,-198],[-12,-118],[-1,-213],[-11,-245],[-19,175],[-21,76],[-18,189],[-4,228]],[[13624,24174],[40,131],[28,-570],[-4,-477],[4,-24],[-22,-425],[-12,-79],[-7,-190]],[[13234,18960],[16,207],[-6,68],[4,119],[15,-28],[3,135],[-11,98],[-10,354],[11,148],[11,9],[23,-261],[14,-39],[9,-231],[4,-221],[-6,-151],[6,-83],[-2,-153],[-9,-145],[-29,1],[-4,161],[-20,-147],[-8,-103],[-10,86],[-1,176]],[[12905,18337],[30,91],[10,-149],[9,-7],[8,-144],[-4,-310],[8,-201],[-7,-132],[-12,83],[-8,244],[-9,119],[-14,87],[-11,319]],[[12888,18603],[10,86],[9,-61],[-11,-181],[-8,156]],[[12834,24157],[21,148],[8,-202],[-1,-102],[-26,52],[-2,104]],[[12767,20806],[7,133],[12,24],[6,-99],[-5,-120],[-15,-29],[-5,91]],[[12730,21372],[11,181],[13,30],[23,-129],[2,-118],[-7,-218],[-11,-62],[-4,-97],[-13,153],[-3,124],[-11,136]],[[12684,20966],[23,216],[3,174],[26,-189],[3,-149],[-8,-126],[-29,-37],[-4,78],[-14,33]],[[12675,21836],[7,-68],[10,73],[-9,93],[13,193],[10,-80],[-1,-117],[-21,-308],[-9,214]],[[12665,20254],[19,281],[-13,42],[5,101],[24,104],[40,57],[1,-193],[-21,-99],[-23,-256],[-10,-312],[-16,122],[-6,153]],[[12630,23467],[7,78],[13,267],[12,129],[0,83],[11,89],[23,-52],[21,13],[-4,89],[-18,17],[-16,89],[4,165],[12,-98],[11,70],[-2,142],[-10,32],[-13,201],[1,138],[-8,172],[-2,148],[11,237],[40,-91],[17,-59],[22,42],[9,-67],[16,56],[22,-29],[16,-266],[0,-128],[12,-17],[10,-349],[-11,-285],[-11,-203],[14,-174],[14,69],[23,21],[2,-183],[24,50],[6,-102],[23,-146],[5,-122],[28,-251],[41,-622],[-6,-120],[13,-198],[-4,-89],[5,-154],[14,-1],[10,-134],[8,-338],[14,-169],[22,-134],[13,-194],[-7,-124],[-15,170],[-33,190],[-21,84],[-11,80],[-7,125],[-20,-5],[9,-146],[-14,-163],[-11,-189],[14,-20],[2,152],[12,39],[9,-48],[19,56],[5,-200],[7,27],[16,-63],[10,-119],[-38,-113],[15,-67],[27,48],[10,-176],[22,-177],[2,-131],[14,-266],[-11,-128],[-22,14],[-12,-81],[-3,-119],[21,103],[24,-126],[16,374],[15,-72],[5,-409],[-16,-183],[11,-153],[-16,-130],[-10,-21],[-5,-96],[5,-86],[-15,-108],[-25,-96],[24,-65],[8,100],[9,4],[19,114],[7,-99],[6,-259],[-3,-200],[1,-346],[5,-300],[-9,-38],[-6,-120],[4,-136],[-6,-102],[-28,-98],[-14,6],[-26,181],[-5,-81],[-11,35],[-1,125],[-12,19],[0,111],[-27,121],[6,173],[22,-54],[5,113],[-2,108],[-15,55],[-5,113],[-28,-3],[-5,105],[-21,268],[8,339],[6,24],[6,261],[-8,146],[-10,-187],[-5,111],[9,218],[-4,211],[-13,-278],[-12,-68],[-4,-168],[9,-232],[-4,-137],[-19,-112],[-36,197],[9,290],[-15,150],[5,161],[-14,87],[2,174],[-13,19],[-8,-55],[-9,86],[3,84],[-18,117],[2,-267],[10,-218],[-9,-48],[22,-152],[1,-187],[-15,-26],[13,-174],[17,-144],[0,-206],[13,-147],[-2,-120],[46,-501],[9,-251],[-3,-174],[12,-25],[-10,-178],[-19,-43],[-17,40],[-9,202],[3,80],[-9,134],[-11,31],[-16,200],[-9,149],[-3,155],[-9,168],[-11,11],[-9,86],[-5,237],[0,196],[-13,101],[4,91],[-11,118],[3,170],[7,74],[-10,217],[6,320],[18,42],[-15,100],[-8,-30],[-6,-233],[-24,-77],[-12,116],[-9,-99],[-12,85],[-2,111],[4,201],[-3,155],[38,125],[10,-257],[14,-15],[1,100],[-10,99],[2,136],[11,127],[10,-2],[9,-86],[9,175],[10,-2],[3,107],[-11,67],[-1,124],[-17,118],[14,68],[-7,190],[-9,88],[10,103],[-12,69],[-30,-68],[1,77],[-32,185],[-3,166],[10,100],[-8,174],[15,55],[0,158],[-16,-93],[-19,103],[0,-273],[-10,-62],[-15,57],[-17,121],[-16,273],[13,63],[-1,133],[21,70],[26,-122],[1,-115],[30,26],[13,58],[-3,118],[3,133],[-6,134],[-12,-30],[-3,90],[-16,60],[-1,123],[-11,93],[12,207],[-9,102],[-12,-165],[-15,-67],[-13,-234],[-16,-45],[-29,45],[-4,169]],[[12628,20935],[12,124],[3,154],[14,74],[-11,92],[6,100],[20,20],[11,-94],[12,-10],[-4,-194],[-10,-37],[-2,-158],[-8,-102],[-17,158],[-26,-127]],[[12594,23205],[0,75],[18,110],[7,-39],[4,-192],[-9,-239],[-16,119],[-4,166]],[[12476,23251],[9,87],[10,-50],[10,40],[10,-103],[22,86],[5,-119],[-26,-165],[-3,-62],[-22,-130],[-9,126],[8,81],[-14,209]],[[12742,26148],[0,-166],[-23,-60],[-3,-59],[-27,-5],[-16,54],[-4,440],[3,91],[-7,126],[10,67],[-7,88],[-12,-134],[-4,-119],[-13,14],[-3,91],[-16,20],[-6,-316],[-13,-124],[17,-90],[2,-148],[-15,-44],[8,-230],[-8,-128],[16,-84],[5,-133],[-13,-234],[-21,348],[-7,-150],[11,-64],[16,-396],[-21,-88],[6,-202],[-7,-160],[0,-204],[-16,-25],[-8,154],[6,234],[-10,261],[-10,71],[0,-259],[-5,-75],[-20,-59],[23,-80],[-2,-162],[6,-43],[-13,-143],[7,-82],[-8,-202],[-11,70],[-2,162],[-14,68],[7,172],[-14,74],[11,220],[-10,60],[0,234],[-5,214],[1,249],[-6,191],[9,80],[7,193],[-3,234],[9,100],[16,-197],[9,105],[-8,172],[-9,117],[-5,126],[-24,90],[-5,180],[8,125],[-6,140],[-9,-6],[-19,392],[3,164],[-9,363],[19,293],[17,75],[37,-300],[4,147],[-20,125],[-3,109],[19,10],[7,132],[25,-157],[11,-305],[2,-170],[17,-162],[5,-212],[-6,-71],[12,-154],[6,86],[3,301],[-7,107],[22,-11],[10,39],[-27,249],[-6,128],[5,162],[-7,181],[-24,234],[-14,99],[7,251],[37,140],[20,-73],[22,-29],[8,-74],[27,-26],[20,-118],[11,-1],[23,-135],[24,7]],[[12393,24958],[4,-267],[-4,-169]],[[6098,36690],[25,256],[25,197],[5,114],[0,193],[20,257],[1,152],[-5,167]],[[99918,3745],[16,11],[12,158],[22,30],[31,-259],[-11,-314],[-24,-168],[-9,-10],[-26,124],[-13,202],[2,226]],[[99679,2029],[6,101],[25,-124],[19,12],[28,-100],[4,-143],[23,-167],[21,-268],[18,-145],[14,-32],[11,-246],[9,-38],[34,-7],[21,-140],[-17,-83],[-9,61],[-30,-70],[-12,148],[-44,335],[-13,210],[-17,222],[-30,183],[-17,-34],[-22,106],[-20,153],[-2,66]],[[99629,3722],[9,46],[21,-67],[10,-142],[-14,-209],[-10,-18],[-10,159],[-6,231]],[[99571,2977],[19,-32],[19,-237],[-15,-9],[-23,278]],[[99531,3995],[7,92],[17,-92],[3,-147],[-16,-83],[-8,57],[-3,173]],[[99283,3316],[24,114],[15,216],[43,151],[2,226],[16,413],[11,76],[16,-122],[4,-102],[-12,-136],[-8,-241],[-18,-186],[2,-113],[19,-26],[-2,-128],[-13,-43],[-42,72],[-17,-131],[-6,-153],[2,-145],[-11,5],[-25,253]],[[98913,5673],[9,23],[16,-79],[-6,-116],[-9,-8],[-10,180]],[[98409,7461],[8,61],[14,-74],[-10,-99],[-12,112]],[[98211,5844],[7,131],[18,115],[8,-65],[15,40],[8,146],[8,-13],[11,150],[15,29],[25,-4],[-17,-172],[-5,-156],[6,-124],[4,-320],[-21,-1],[-12,109],[-5,112],[-22,-79],[-13,-2],[-19,90],[-11,14]],[[97962,8435],[46,368],[33,47],[101,-87],[14,-95],[15,-172],[11,24],[12,-86],[35,-405],[-2,-87],[-31,-23],[-20,163],[-7,-36],[-11,-267],[-13,-53],[-34,62],[-26,-175],[-26,137],[-13,171],[1,193],[-4,74],[-31,238],[-16,-20],[-20,-81],[-12,31],[-2,79]],[[3577,12711],[3,54],[25,59],[-1,92],[15,75],[6,-125],[1,-253],[-14,-194],[-30,44],[-5,248]],[[3147,10341],[28,184],[16,193],[28,-3],[27,39],[10,258],[20,-46],[11,-72],[4,180],[14,101],[24,-83],[12,26],[-1,207],[19,82],[-12,126],[-8,250],[4,107],[12,57],[11,-87],[17,24],[0,102],[-17,108],[-1,100],[10,120],[9,35],[30,7],[10,-218],[14,-138],[4,59],[-9,150],[10,45],[6,129],[-44,188],[-10,87],[-13,-109],[-18,158],[-5,161],[-17,46],[-1,148],[15,101],[8,226],[11,44],[8,132],[8,-16],[26,159],[14,-45],[24,171],[12,-76],[10,87],[12,-52],[6,-103],[0,-149],[-12,-163],[8,-152],[0,-117],[15,46],[8,98],[8,-59],[16,83],[9,211],[2,198],[15,41],[-6,-224],[11,-7],[15,175],[6,-50],[2,-241],[5,-202],[-13,-68],[-13,17],[-16,-149],[-7,-172],[-17,-94],[-13,5],[6,-146],[-21,-80],[7,-80],[20,-29],[6,137],[33,179],[8,-252],[13,-154],[-7,-101],[-39,-128],[-6,-112],[-29,-54],[-6,-336],[-14,-6],[-9,-344],[-23,108],[-10,227],[-6,-38],[14,-297],[1,-109],[-6,-104],[-9,63],[-6,-83],[-12,114],[-3,-158],[-16,56],[-7,112],[-7,-77],[-20,0],[-9,-134],[-15,18],[-8,-106],[-15,-107],[-21,-64],[-3,-176],[-18,7],[-23,-74],[-11,-212],[-18,-15],[-12,57],[-7,-170],[-22,80],[-24,42],[-2,77],[-15,93]],[[2795,7913],[14,72],[4,91],[17,85],[10,137],[-5,70],[4,114],[12,-37],[17,122],[-5,253],[20,120],[8,174],[1,130],[-10,73],[3,239],[7,124],[22,252],[8,0],[13,221],[22,-113],[23,116],[4,-97],[26,45],[1,158],[-8,110],[-17,36],[13,288],[-6,198],[17,245],[16,97],[15,182],[25,78],[16,79],[15,-19],[7,55],[13,-75],[1,-91],[14,-55],[32,-4],[2,-105],[-5,-120],[-14,-142],[3,-305],[-18,-155],[-20,-95],[-7,-77],[-30,-157],[-2,-64],[-42,-170],[-18,-186],[-8,-174],[-2,-126],[-22,-338],[-3,-106],[-18,-84],[-18,-48],[-13,-202],[-23,-122],[-14,-30],[-4,-133],[-21,-80],[-4,-64],[-31,-201],[-12,7],[-7,-151],[-18,-45]],[[2615,8708],[4,192],[18,73],[4,-146],[-8,-245],[-13,-23],[-5,149]],[[2608,26745],[56,-64],[25,22],[9,-59],[-9,-118],[-11,-31],[-11,-159],[-17,30],[-9,72],[-2,117],[-20,54],[-11,136]],[[2605,9080],[9,125],[5,-179],[-14,54]],[[2546,7960],[6,127],[11,23],[17,-59],[5,123],[35,79],[20,-104],[0,-243],[-11,-103],[-10,-20],[-31,156],[-18,-191],[-7,-9],[-14,112],[-3,109]],[[2515,8298],[9,114],[21,-36],[5,-58],[-2,-140],[-12,-76],[-12,47],[-9,149]],[[2498,7428],[3,288],[16,29],[17,-95],[-7,-240],[-13,-19],[-16,37]],[[2431,29464],[2,149],[31,136],[20,-42],[28,77],[-12,-316],[-22,-109],[-47,105]],[[2314,6619],[6,366],[19,68],[7,165],[10,-12],[8,104],[18,-51],[10,-79],[0,-165],[-13,-197],[-21,0],[-14,-86],[-17,-203],[-13,90]],[[2221,6623],[10,119],[5,-141],[-15,22]],[[2182,6227],[6,163],[12,73],[16,-178],[-13,-208],[-18,28],[-3,122]],[[1815,5177],[17,386],[23,109],[4,67],[19,35],[8,-121],[15,-6],[5,-57],[-3,-186],[-21,-120],[-14,-47],[-9,-87],[-21,-49],[-19,2],[-4,74]],[[1419,4479],[31,-18],[16,58],[-4,-134],[31,2],[5,97],[17,10],[32,93],[14,-158],[14,-84],[30,2],[9,-28],[23,54],[11,-72],[13,74],[13,-106],[8,67],[23,-14],[2,-114],[-22,8],[-14,-88],[-54,-39],[-8,-63],[-29,29],[-20,-101],[-6,98],[-24,71],[-26,-51],[-9,17],[-15,-56],[-11,66],[-17,7],[-13,255],[-9,-29],[-11,147]],[[1060,3947],[12,-19],[12,112],[11,-45],[8,105],[17,23],[10,-113],[12,105],[5,108],[12,-92],[17,172],[12,28],[12,-45],[26,20],[8,127],[12,-72],[22,79],[15,127],[-6,132],[15,-15],[15,145],[17,88],[15,-107],[13,137],[19,140],[-4,115],[-31,16],[-11,77],[-15,38],[2,121],[26,-43],[7,106],[-3,170],[12,20],[4,87],[15,27],[18,96],[10,-98],[12,-40],[5,-101],[13,-56],[0,-99],[6,-147],[-1,-108],[-13,-128],[-6,-196],[-35,34],[-5,-86],[13,-106],[2,-111],[18,-155],[-6,-123],[-10,56],[-21,-121],[-15,-25],[-2,92],[-14,36],[-18,-160],[0,-137],[-11,-118],[-6,125],[-9,51],[-30,-127],[-8,-89],[-18,46],[-6,-152],[-7,-6],[-15,121],[-10,-8],[-19,80],[-9,-61],[-11,19],[-16,-157],[-52,-2],[-17,59],[-10,-50],[-10,78]],[[912,3551],[21,77],[5,-169],[-11,-19],[-5,85],[-10,26]],[[888,3753],[14,54],[21,-23],[-13,-131],[-22,100]],[[845,3274],[14,75],[21,43],[-2,-110],[9,-84],[0,-132],[-42,208]],[[818,4136],[1,64],[18,198],[25,-45],[12,-271],[8,-111],[-19,-50],[8,-178],[-17,-58],[-1,87],[-26,61],[0,77],[-9,226]],[[812,2981],[9,96],[-2,165],[10,-7],[11,-121],[18,-13],[11,-46],[1,-89],[-15,-25],[-8,-110],[-18,-123],[1,131],[-13,61],[-5,81]],[[601,1989],[6,239],[19,95],[10,123],[-1,171],[-10,76],[-3,170],[14,103],[5,-99],[14,115],[10,179],[0,85],[-10,125],[-3,110],[10,176],[14,17],[15,-79],[22,241],[9,-41],[-2,-218],[4,-159],[-19,-79],[-2,-158],[23,-166],[13,76],[12,-59],[15,142],[16,-24],[9,55],[8,-66],[-3,-118],[6,-120],[1,-147],[-8,-71],[-7,-169],[-8,-44],[-14,47],[-1,261],[-7,-12],[0,-235],[-13,39],[-27,-262],[-25,-19],[-7,-69],[-11,20],[0,-276],[-9,69],[-14,-143],[-1,189],[-7,167],[-19,-209],[-10,-238],[-12,65],[-2,125]],[[402,2376],[18,143],[24,-74],[11,19],[19,167],[15,23],[29,93],[22,176],[3,566],[5,59],[26,-66],[9,-104],[-5,-123],[2,-123],[-18,-142],[-1,-125],[5,-105],[-3,-121],[1,-153],[-6,-117],[-17,-13],[-20,-122],[-6,31],[-18,239],[-22,-38],[-17,-133],[-29,33],[-9,-88],[1,-139],[-10,-3],[-1,138],[-8,102]],[[257,3223],[9,151],[19,53],[20,-32],[21,24],[21,-202],[-6,-94],[18,-63],[10,-76],[10,70],[15,-89],[12,90],[16,25],[3,-81],[-16,-92],[-9,7],[-20,-106],[-16,-310],[3,-188],[-10,-83],[-14,-24],[-3,-126],[8,-225],[-10,-25],[-8,252],[-19,23],[-3,97],[-12,-58],[-10,83],[12,130],[9,4],[24,88],[0,254],[-15,90],[-12,-51],[-12,189],[-30,177],[-5,118]],[[129,1856],[12,61],[21,-81],[-8,-82],[-21,39],[-4,63]],[[80,1724],[33,-98],[2,-65],[-24,-13],[-11,176]],[[77,2764],[3,168],[7,76],[11,0],[14,-124],[3,-137],[-10,-170],[-12,-6],[-16,193]],[[41,777],[9,76],[12,-84],[5,-111],[-2,-111],[-21,-113],[2,255],[-5,88]],[[0,205],[10,150],[9,-45],[3,-173],[-7,-137],[-14,32],[-1,173]],[[12808,34375],[28,-749],[58,-779],[31,-684],[28,-425],[1,-61]],[[12691,32496],[11,43],[-6,259],[2,229]],[[12683,32839],[-2,-250],[-18,5]],[[12613,30005],[6,197],[8,29],[10,-86],[-24,-140]],[[12518,33098],[7,-8],[8,-204],[16,-258],[-7,-47],[-16,224],[5,57],[-13,236]],[[12500,33410],[23,-83],[5,-153],[-15,-20],[-13,256]],[[12530,34408],[2,-148],[-9,-65],[3,-152],[24,-313],[0,-164],[31,-375],[-4,-90],[30,-432],[-1,-196],[3,-138],[0,-277],[23,-274],[2,-220],[-10,-39],[-5,216],[-15,216],[-17,162],[-14,352],[1,118],[-7,139],[-17,159],[-12,159],[-6,235],[2,138],[-18,280],[-26,92],[21,-234],[-8,-31],[-16,98],[5,-235],[9,-174],[-1,-132],[9,-81],[26,-451],[15,-317],[16,-221],[20,-175],[11,-154],[-3,-199],[5,-162],[11,-146],[-12,-202],[15,-215],[-3,-88],[7,-190],[-20,-159],[-8,-140],[-14,89],[-21,35],[-10,103],[-9,-47],[6,-179],[12,-128],[-1,-92],[-15,-84],[-2,-197],[-16,-158],[-12,40],[-13,-230],[-7,-59],[-18,18],[-4,-77],[10,-99],[-15,-126],[-16,-93],[3,-111],[-20,-17],[-18,110],[-8,309],[0,144],[10,106],[-12,152],[-2,217],[20,51],[-9,96],[14,231],[15,49],[-8,105],[-12,26],[3,169],[23,-23],[6,100],[-22,299],[-10,95],[-9,453],[-17,272],[-15,479],[-2,135],[7,215],[1,227],[-10,341],[-2,193],[-7,184],[2,113],[-10,151],[1,206],[8,82]],[[12362,34120],[-7,27],[-5,183],[-10,174],[-12,87],[-16,581],[2,113],[-6,175],[4,205],[21,-288],[22,-152],[0,-119],[14,-135],[3,-118],[9,-88]],[[12229,34475],[-2,20]],[[12096,35452],[21,90],[13,-41],[20,-162],[-4,-82],[-36,16],[-14,179]],[[11977,35024],[12,113],[22,76],[0,-230],[-11,-62],[-15,11],[-8,92]],[[11909,34972],[10,-35],[14,48],[10,-63],[-7,-142],[-14,29],[-13,163]],[[11916,32793],[-3,0]],[[11902,32789],[-19,196],[3,132],[-19,67],[-6,109],[4,275],[-4,235],[2,149],[9,159],[19,7],[5,108],[23,145],[18,-85],[-6,180],[-9,123],[1,144],[30,-173],[3,-150],[26,334],[28,-31],[6,-133],[34,280],[8,14],[12,156],[13,10],[13,-229],[15,-65],[10,33],[6,-103],[26,-117],[9,-81],[-8,-107],[1,-147],[-29,-353],[-12,32],[-3,-121],[15,-44],[-2,-175],[11,14],[9,224],[18,265],[13,67],[-3,160],[19,33],[32,-217],[28,-54],[17,24],[6,-134],[33,-77],[7,-46],[10,-306],[-7,-114],[5,-153],[-22,-169],[-11,26],[-43,245],[-1,-54],[18,-231],[26,-111],[4,-120],[20,-128],[-16,-138],[-28,-99]],[[11597,38141],[21,3],[51,461],[112,676],[10,99],[68,32],[26,469]],[[12163,36109],[4,-171],[-7,-68],[12,-216],[-10,-160],[-17,162],[-17,85],[-16,-139],[-29,-13],[-38,-80],[4,195],[0,241],[-12,-82],[-15,157],[19,174],[-11,117],[-2,152],[11,119],[15,35],[-11,141],[-12,334],[-14,87],[1,87],[-9,234],[-12,153],[2,93],[18,71],[-15,215],[3,205],[-27,254],[2,-174],[8,-116],[4,-284],[-14,-432],[1,-133],[-27,14],[-20,133],[-21,195],[-20,43],[-12,175],[-6,297],[-27,-14],[0,-150],[-35,213],[-34,152],[-7,117],[-13,78],[-7,128],[-15,155],[-11,-69],[15,-130],[9,-177],[10,-51],[8,-193],[-36,-99],[-9,-209],[-13,-132],[4,-64],[21,228],[5,124],[35,-84],[41,-48],[23,-168],[22,-15],[27,-231],[11,-127],[-3,-141],[19,-106],[11,-157],[-13,-166],[-17,-96],[-13,-213],[11,0],[6,129],[17,74],[19,194],[16,-177],[21,-358],[10,-39],[23,-602],[2,-198],[-4,-138],[-10,-114],[-14,6],[-35,-148],[-5,137],[6,114],[-9,57],[-20,-57],[5,-83],[-1,-229],[-21,62],[-17,-63],[-16,76],[-7,156],[-14,-57],[18,-283],[2,-180],[-15,-173],[-18,4],[-11,170],[-2,126],[-34,256],[-11,299],[-8,74],[-26,64],[-17,-58],[-5,-84],[-19,213],[-68,427],[-15,164],[-41,280],[-20,105],[-2,205],[-31,309],[-37,298],[-4,121]],[[12199,40332],[9,453],[-9,29],[-6,-426]],[[12100,42219],[67,338],[33,-300],[30,-196],[9,-176],[17,-184],[11,-13],[25,-295],[0,-442],[-13,-114],[-7,-120],[31,-201],[-11,-203]],[[9672,44332],[27,-63],[3,-91],[-7,-166],[-23,320]],[[9624,42527],[11,299],[34,339],[28,247],[0,58],[35,119],[-2,-99],[-52,-407],[-12,-163],[-20,-158],[-10,-153],[-12,-82]],[[9327,45365],[20,21],[10,-38],[13,-223],[-14,-68],[-10,32],[-17,189],[-2,87]],[[9232,45527],[16,58],[38,-102],[19,7],[-1,-146],[-22,-45],[-16,115],[-34,113]],[[9142,45864],[13,261],[40,26],[20,121],[28,73],[5,103],[29,27],[15,49],[8,-59],[-11,-123],[-62,-298],[-17,-116],[-40,-132],[-23,13],[-5,55]],[[9032,45455],[7,149],[25,354],[21,17],[7,-76],[20,-18],[14,77],[12,-74],[-4,-204],[16,-58],[48,84],[12,-102],[3,-236],[-31,-21],[-17,-127],[-24,15],[-41,-215],[-35,-290],[-12,7],[-13,206],[13,108],[34,167],[-9,84],[-14,12],[-11,-125],[-19,69],[-2,197]],[[9008,47621],[0,113],[9,133],[10,57],[13,-151],[-7,-184],[-18,-30],[-7,62]],[[8866,47912],[17,59],[10,103],[17,-58],[26,2],[-4,-127],[-13,-94],[-19,94],[-34,21]],[[8817,46811],[11,31],[15,136],[24,-173],[-13,-139],[-11,99],[-23,-8],[-3,54]],[[8817,44839],[19,152],[25,83],[1,-140],[-38,-246],[-7,151]],[[8698,42498],[8,48],[-4,205],[15,173],[22,10],[-9,173],[21,230],[15,-5],[5,68],[-5,143],[19,85],[17,189],[33,213],[17,228],[21,335],[-3,79],[28,76],[-5,233],[5,307],[16,113],[18,-35],[-14,-120],[38,23],[-3,-107],[-20,-155],[14,-56],[23,148],[10,-94],[-14,-211],[-65,-483],[-18,-244],[-26,-284],[-7,-205],[1,-149],[-32,-173],[2,-151],[12,-26],[1,-161],[-24,-156],[-25,55],[-12,-176],[-23,-67],[-25,-156],[-12,-31],[-15,111]],[[8687,44803],[8,55],[7,179],[33,43],[15,94],[-5,80],[-24,-134],[-13,5],[-3,107],[13,195],[10,340],[25,-1],[3,315],[21,0],[-7,172],[33,140],[-9,-274],[-15,-133],[4,-127],[-7,-81],[11,-113],[-22,-90],[4,-111],[13,30],[3,-116],[-14,-182],[1,-72],[-18,-187],[-5,-106],[13,-65],[-6,-193],[-6,-42],[-5,-200],[-23,175],[8,152],[-39,35],[-4,110]],[[8672,47155],[20,108],[13,-55],[16,-212],[-6,-106],[-37,79],[-6,186]],[[8662,43309],[14,201],[18,151],[3,101],[23,190],[10,-96],[-15,-322],[-14,-128],[-32,-155],[-7,58]],[[8635,45113],[2,78],[26,239],[19,-29],[-9,-279],[-1,-171],[-15,-35],[-14,36],[-8,161]],[[8636,43549],[6,29],[4,236],[11,201],[10,95],[36,101],[6,-137],[-27,-216],[-22,-148],[-16,-222],[-8,61]],[[8608,43254],[10,1],[3,164],[17,29],[7,-57],[30,360],[5,-53],[-12,-191],[-16,-171],[-15,-86],[-22,-31],[-7,35]],[[8495,46866],[15,158],[9,203],[18,149],[18,-5],[13,59],[8,-228],[-9,-65],[3,-179],[11,31],[14,162],[8,170],[9,27],[25,-27],[12,-101],[4,-377],[-13,-187],[-30,-175],[-26,-280],[-20,69],[-11,116],[-21,-26],[-30,-250],[-7,-85]],[[8495,47003],[0,-65]],[[8493,45827],[8,17],[20,240],[8,13],[24,172],[40,-306],[16,31],[0,141],[12,119],[10,-4],[6,202],[18,68],[6,-137],[23,-245],[5,-95],[-14,-190],[21,-121],[-27,-227],[-15,-83],[-23,-185],[-15,22],[4,-190],[-26,-217],[-20,123],[-1,-118],[16,-217],[12,158],[13,-71],[12,-162],[11,168],[17,-110],[-14,-261],[13,-118],[2,268],[12,-17],[-12,-387],[-24,-416],[-16,-66],[-24,65],[17,88],[7,169],[-19,79],[-2,119],[3,192],[-16,42],[-11,-314],[6,-66],[-12,-299],[2,-223],[-7,-176],[-12,27],[-20,383],[-1,-306],[-4,-99],[-16,-140],[-15,2]],[[9822,43491],[-18,58],[-8,76],[-23,35],[-15,-25],[-17,36],[-9,88],[49,17],[-7,141],[-41,272],[-23,76],[-4,107],[-46,9],[-15,90],[-9,-51],[-17,92],[-33,107],[-47,40],[12,126],[34,67],[-10,101],[-28,50],[-21,-12],[-3,104],[18,264],[5,151],[22,344],[-23,-30],[-9,-151],[-26,-63],[-19,-175],[-8,-202],[0,-163],[-30,-13],[-41,221],[-22,174],[-18,84],[4,97],[-14,40],[-14,107],[-27,61],[-51,-70],[-24,107],[13,138],[33,140],[15,229],[8,62],[12,256],[13,89],[-1,75],[-39,-185],[-23,-84],[2,172],[-23,15],[-3,-121],[-18,-43],[-1,129],[11,249],[-51,-300],[-31,-29],[6,153],[13,143],[37,253],[6,94],[-10,88],[-15,-202],[-9,-22],[-19,82],[-1,-126],[-19,-29],[-8,156],[-17,-146],[-3,-110],[-27,-65],[-9,48],[-26,-43],[-12,60],[1,92],[-10,106],[19,28],[7,108],[25,-22],[16,76],[34,80],[23,151],[4,117],[27,33],[-15,138],[-13,24],[-7,-126],[-19,-166],[-19,-48],[-34,-4],[-8,137],[-24,191],[-10,-87],[-17,242],[0,95],[22,53],[-17,138],[27,578],[52,-8],[17,45],[11,-37],[19,29],[2,92],[-10,97],[-29,-13],[-4,50],[-23,-51],[-32,-17],[-10,-64],[-14,-257],[-21,-54],[-22,-256],[-3,-94],[-18,-164],[-16,-28],[-20,47],[-2,134],[17,200],[4,110],[-20,416],[17,148],[-23,34],[-12,-71],[11,-613],[-18,-206],[2,-182],[-10,-42],[-12,102],[0,159],[-17,-52],[9,-224],[-19,-57],[-13,-161],[-24,54],[2,233],[-16,47],[-13,155],[7,70],[-2,305],[10,33],[-4,151],[-12,-12],[-14,-314],[5,-61],[-11,-262],[9,-110],[-6,-120],[6,-174],[-2,-163],[-18,-58],[-4,186],[-17,87],[6,198],[-7,20],[-12,-321],[12,-150],[-8,-159],[-30,80],[-11,-80],[-32,-141],[-31,74],[-2,105],[6,213],[9,152],[-2,100],[25,256],[19,259],[2,141],[13,276],[34,380],[37,210],[-23,116],[-3,160],[-18,-200],[-10,-193],[-11,-96],[-36,-440],[0,-163],[-19,-215],[-13,134],[-2,153],[-9,156],[-10,-68],[-28,-21],[-19,-205],[-5,-145],[33,215],[25,78],[-4,-403],[-16,-170],[-17,3],[3,-175],[7,-31],[-12,-236],[1,-158],[-21,121],[-6,-68],[20,-147],[-16,-62],[-11,126],[-21,7],[-12,-51],[-16,27],[-18,-126],[1,-110],[26,141],[10,-41],[23,34],[-4,-113],[-18,4],[-25,-156],[-10,-133]]],"bbox":[-179.148196,51.228771,179.773922,71.364706],"transform":{"scale":[0.0035892570725707257,0.0002013613636136361],"translate":[-179.148196,51.228771]},"objects":{"in":{"type":"GeometryCollection","geometries":[{"arcs":[[0,1,2]],"type":"Polygon","properties":{"geoid":"02090","name":"Fairbanks North Star"},"id":"02090"},{"arcs":[[[3]],[[4]],[[5]],[[6,7,8,9]],[[10]],[[11]],[[12]],[[13]]],"type":"MultiPolygon","properties":{"geoid":"02275","name":"Wrangell"},"id":"02275"},{"arcs":[[[14]],[[15]],[[16]],[[17]],[[18]],[[19,20,21,22,23,24,25,26,27]],[[28]],[[29]],[[32]],[[33,34,35,36,37]]],"type":"MultiPolygon","properties":{"geoid":"02122","name":"Kenai Peninsula"},"id":"02122"},{"arcs":[[38,39,40,41,42]],"type":"Polygon","properties":{"geoid":"02066","name":"Copper River"},"id":"02066"},{"arcs":[[43,44,45]],"type":"Polygon","properties":{"geoid":"02185","name":"North Slope"},"id":"02185"},{"arcs":[[[46,47,48,49]],[[50]],[[51,52,53,54,55,56]]],"type":"MultiPolygon","properties":{"geoid":"02110","name":"Juneau"},"id":"02110"},{"arcs":[[[57]],[[58,59,60,-34,61,62,63,64,65]],[[66]],[[67]],[[68]]],"type":"MultiPolygon","properties":{"geoid":"02050","name":"Bethel"},"id":"02050"},{"arcs":[[[71]],[[72,73,-52,74]],[[75,76,77,78]]],"type":"MultiPolygon","properties":{"geoid":"02100","name":"Haines"},"id":"02100"},{"arcs":[[[79]],[[80]],[[83]],[[84]],[[85]],[[86]],[[87,88,89,90,-62,-38,91,92,93]]],"type":"MultiPolygon","properties":{"geoid":"02164","name":"Lake and Peninsula"},"id":"02164"},{"arcs":[[[94,95,-20,96]],[[97]]],"type":"MultiPolygon","properties":{"geoid":"02020","name":"Anchorage"},"id":"02020"},{"arcs":[[-45,98,99,100]],"type":"Polygon","properties":{"geoid":"02188","name":"Northwest Arctic"},"id":"02188"},{"arcs":[[[101,102]],[[103,104,-7,105]]],"type":"MultiPolygon","properties":{"geoid":"02195","name":"Petersburg"},"id":"02195"},{"arcs":[[-1,106,107,-40,108,109]],"type":"Polygon","properties":{"geoid":"02240","name":"Southeast Fairbanks"},"id":"02240"},{"arcs":[[110,-99,-44,111,-107,-3,112,113,-60,114]],"type":"Polygon","properties":{"geoid":"02290","name":"Yukon-Koyukuk"},"id":"02290"},{"arcs":[[[115]],[[-91,116,-63]],[[117]],[[118,-65]]],"type":"MultiPolygon","properties":{"geoid":"02070","name":"Dillingham"},"id":"02070"},{"arcs":[[[119]],[[-42,120,121,122,123]]],"type":"MultiPolygon","properties":{"geoid":"02282","name":"Yakutat"},"id":"02282"},{"arcs":[[[124]],[[125]],[[126,127]],[[128]],[[129,130]]],"type":"MultiPolygon","properties":{"geoid":"02220","name":"Sitka"},"id":"02220"},{"arcs":[[[133]],[[134]],[[135]],[[136]],[[137]],[[138]],[[139]],[[140]],[[141]],[[-37,142,-31,143,-92]],[[144]],[[145]]],"type":"MultiPolygon","properties":{"geoid":"02150","name":"Kodiak Island"},"id":"02150"},{"arcs":[[146,-109,-39,147,-95,148,-35,-61,-114]],"type":"Polygon","properties":{"geoid":"02170","name":"Matanuska-Susitna"},"id":"02170"},{"arcs":[[[149]],[[-100,-111,150,151]],[[152]]],"type":"MultiPolygon","properties":{"geoid":"02180","name":"Nome"},"id":"02180"},{"arcs":[[[153]],[[154]],[[-151,-115,-59,155]]],"type":"MultiPolygon","properties":{"geoid":"02158","name":"Kusilvak"},"id":"02158"},{"arcs":[[[156]],[[157]],[[158]],[[159]],[[160]],[[161]],[[162]],[[163]],[[164]],[[165]],[[166]],[[167]],[[168]],[[169]],[[170]],[[171]],[[172]],[[173]],[[174]],[[175]],[[-83,176,-94,177]],[[178]],[[179]],[[180]],[[181]],[[182]],[[183]],[[184]]],"type":"MultiPolygon","properties":{"geoid":"02013","name":"Aleutians East"},"id":"02013"},{"arcs":[[[185]],[[186]],[[187]],[[188]],[[189]],[[-9,190,191,192]]],"type":"MultiPolygon","properties":{"geoid":"02130","name":"Ketchikan Gateway"},"id":"02130"},{"arcs":[[[193,-192]],[[194]],[[195]],[[196]],[[197]],[[198]],[[199]],[[200]],[[201]],[[202]],[[203]],[[204]],[[205]],[[206]],[[-103,207]],[[208,-127]]],"type":"MultiPolygon","properties":{"geoid":"02198","name":"Prince of Wales-Hyder"},"id":"02198"},{"arcs":[[-89,209]],"type":"Polygon","properties":{"geoid":"02060","name":"Bristol Bay"},"id":"02060"},{"arcs":[[[210]],[[211]],[[212]],[[213]],[[214]],[[215]],[[216]],[[217]],[[218]],[[219]],[[220]],[[221]],[[222]],[[223]],[[224]],[[225]],[[226]],[[227]],[[228]],[[229]],[[230]],[[231]],[[232]],[[233]],[[234]],[[235]],[[236]],[[237]],[[238]],[[239]],[[240]],[[241]],[[242]],[[243]],[[244]],[[245]],[[246]],[[247]],[[248]]],"type":"MultiPolygon","properties":{"geoid":"02016","name":"Aleutians West"},"id":"02016"},{"arcs":[[[-54,249,-104,250]],[[251,-56]],[[252]],[[253]],[[254]],[[-48,255]],[[-50,256]],[[258]],[[259]],[[260]],[[-130,261,-132,262]],[[-122,263,-78,264]]],"type":"MultiPolygon","properties":{"geoid":"02105","name":"Hoonah-Angoon"},"id":"02105"},{"arcs":[[-73,265,-76,266]],"type":"Polygon","properties":{"geoid":"02230","name":"Skagway"},"id":"02230"},{"arcs":[[[267]],[[268]],[[269]],[[270]],[[271]],[[272]],[[273]],[[274]],[[275]],[[276]],[[277]],[[278]],[[279]],[[280]],[[281]],[[282]],[[283]],[[284,-25]],[[-27,286]],[[-148,-43,-124,287,-21,-96]]],"type":"MultiPolygon","properties":{"geoid":"02063","name":"Chugach"},"id":"02063"},{"arcs":[[-2,-110,-147,-113]],"type":"Polygon","properties":{"geoid":"02068","name":"Denali"},"id":"02068"}]}}}