{"type":"Topology","arcs":[[[9773,66749],[-1,-147],[-22,11],[-45,-62],[-2,-129],[-39,-171],[-26,86],[-19,-12],[-14,-76],[-21,49],[-22,-131],[-27,54],[-17,-43],[-27,-303],[-35,5],[-18,-87],[-29,-35],[1,-136],[-35,-165],[-34,16],[-4,67],[-30,100],[-17,-144],[-25,-8],[-31,-240],[-19,30],[-24,-22],[-20,-94],[-1,-262],[-15,-34],[-16,-137],[-40,27],[-47,-122],[-96,0]],[[8956,64634],[-211,0],[-68,443],[-12,-14]],[[8665,65063],[-17,92],[1,76],[-34,286],[4,67],[-17,213],[-37,196],[-6,216],[-35,210],[-12,-4],[-15,-153],[0,1379],[-3,0],[0,1718],[145,0],[162,0],[16,114],[28,88],[23,122],[28,7],[18,57],[69,-23],[31,55],[49,237],[19,13],[16,188],[-4,149],[11,107],[19,-80],[25,47],[29,125],[26,-242],[35,21],[3,-71],[-9,-172],[-12,-14],[-25,-206],[10,-119],[-6,-68],[12,-136],[37,-221],[20,49],[41,-162],[15,11],[12,-154],[-12,-188],[-18,-68],[-10,-110],[28,-40],[6,-178],[38,132],[22,20],[12,95],[13,-79],[35,-4],[18,138],[21,7],[28,192],[24,6],[52,-220],[7,61],[41,-189],[10,67],[12,-104],[33,127],[3,106],[39,54],[15,-45],[22,47],[24,2],[22,-139],[-8,-161],[-19,-48],[-27,-137],[-3,-98],[31,-171],[-7,-146],[-21,-109],[9,-62],[-14,-269],[8,-140],[-9,-83],[10,-120],[10,-14],[-22,-258],[15,-102],[-2,-104]],[[9773,66749],[88,-179],[30,109],[14,298],[28,180],[-11,64],[28,214],[-18,111],[7,360],[-8,124],[9,200],[17,-16],[12,89],[-2,109],[35,158],[16,177],[9,-48],[12,148],[23,133],[20,9],[16,63],[11,-38],[25,276],[12,187],[1,264],[-10,143],[21,100],[7,179],[17,94],[21,-88],[23,59],[38,276],[52,154],[37,-155],[37,26],[29,276],[16,100],[19,0],[-1,109],[18,30],[49,318],[-4,89],[14,167],[4,230],[32,271],[27,169],[4,104],[30,90]],[[10627,72482],[1,-2516],[0,-1722],[0,-4855],[0,-4532],[0,-1395],[0,-1436],[0,-1394],[-1,-1670]],[[10627,52962],[-231,0],[0,1057],[-51,3],[0,230],[11,0],[0,1719],[-42,0],[0,429],[-52,0],[0,430],[-59,-6],[-45,141],[-12,-14],[-6,-192],[-22,-222],[0,-121],[-27,55],[-11,-69],[-11,76],[-27,10],[-20,178],[12,54],[1,191],[10,22],[10,326],[-42,291],[12,28],[19,223],[8,179],[10,80],[-2,186],[10,130],[-27,61],[3,135],[-10,32],[-2,374],[-135,0],[-268,0],[0,71],[-160,0],[0,429],[-267,0],[-8,-166],[-14,-19],[-39,50],[-34,-57],[-12,-50]],[[9097,59236],[0,1531],[-141,0]],[[8956,60767],[0,1846],[0,2021]],[[13419,20534],[10,82],[5,-207],[-9,-124],[-6,249]],[[13346,19088],[9,190],[10,-129],[-5,-78],[-14,17]],[[13275,18395],[9,167],[14,-25],[23,156],[8,-21],[17,63],[-3,-137],[6,-134],[-3,-75],[15,-94],[-18,-187],[-2,-82],[-16,52],[-7,-75],[-12,68],[-3,99],[-28,225]],[[13216,22991],[6,143],[14,112],[15,-230],[-4,-62],[-31,37]],[[13177,21325],[11,75],[16,13],[-1,-139],[-22,-114],[-4,165]],[[13080,21862],[30,133],[1,182],[8,68],[14,-119],[13,68],[-6,124],[2,137],[11,224],[-21,279],[1,74],[14,73],[0,117],[18,62],[6,141],[-9,149],[8,219],[12,151],[28,55],[14,-54],[5,68],[-6,136],[9,44],[20,-188],[15,-63],[0,-88],[16,-61],[16,16],[14,-42],[-10,329],[-11,225],[13,51],[15,205],[24,127],[12,-110],[28,52],[26,272],[-7,246],[6,87],[-22,90],[-5,117],[8,112],[0,122]],[[13390,25692],[85,-194],[44,-496],[23,-96],[20,-22],[12,-504],[21,-64],[29,-159]],[[13624,24157],[-10,-84],[-3,-116],[20,-286],[-11,-66],[-9,59],[-25,-199],[-1,-68],[15,-194],[12,-85],[-2,-99],[16,-250],[25,-244]],[[13651,22525],[1,-260],[10,-159],[-5,-506],[11,-412],[13,-229],[6,-565],[12,-186],[1,-91],[-36,-443],[-22,-503],[-1,-141],[-24,-441],[-20,-273],[-32,-349],[-31,-280],[-16,-46],[-9,-98],[9,-117],[-7,-77],[-18,63],[-9,191],[3,160],[-8,15],[-13,-181],[-12,-51],[-22,184],[-3,141],[-3,363],[-5,94],[8,130],[-19,258],[7,339],[22,81],[23,159],[10,-214],[20,103],[-21,45],[-6,208],[-15,-94],[-7,-108],[-27,-95],[-22,191],[-6,343],[30,278],[17,258],[12,-34],[3,100],[-3,237],[2,112],[-8,84],[-5,222],[14,282],[2,197],[-11,713],[3,88],[-21,398],[-10,107],[-25,441],[-24,259],[-9,208],[31,233],[-8,92],[-28,-245],[-22,-72],[-9,-112],[24,14],[5,-104],[20,-202],[26,-389],[8,-237],[-2,-50],[22,-334],[0,-125],[7,-147],[2,-156],[-12,-265],[-2,-514],[6,-336],[-19,24],[3,-139],[-7,-224],[-4,-327],[-19,-182],[-7,-131],[-13,-36],[-17,91],[-12,157],[19,235],[13,355],[-1,162],[-7,22],[-20,-74],[2,-113],[10,-131],[-13,-273],[-16,-87],[-13,14],[-16,76],[-6,88],[0,155],[-6,36],[-8,-192],[-17,101],[-13,126],[-13,19],[19,-251],[-8,-43],[-12,-304],[-16,-21],[10,-129],[-15,-322],[-8,120],[-13,391],[-2,191],[-6,238],[4,167],[-7,109],[9,85],[3,157],[29,-291],[-1,182],[-26,239],[1,106],[13,45],[17,181],[12,346],[-13,243],[5,258],[-8,203],[2,85],[15,131],[14,-39],[11,88],[10,-31],[3,149],[-26,-107],[-13,77],[-8,-44],[-2,230],[48,-8],[-5,161],[-12,163],[-5,197],[-17,-106],[-22,-199],[-11,24],[-33,-95],[7,-96],[14,0],[20,-101],[0,-150],[-9,-130],[-7,-246],[-11,19],[13,-264],[-9,-67],[-11,-198],[-13,-118],[-1,-213],[-11,-244],[-18,174],[-21,76],[-18,189],[-4,228]],[[3934,47661],[6,203],[19,-74],[13,-120],[-30,-102],[-8,93]],[[3906,48087],[35,211],[18,-51],[39,144],[50,-17],[1,-134],[23,-55],[22,82],[11,-35],[6,109],[42,73],[6,98],[18,78],[2,259],[-18,37],[3,137],[-8,56],[8,151],[12,7],[10,-129],[13,82],[-1,82],[17,163],[27,88],[-1,186],[-15,68],[0,208],[-8,96],[6,242],[31,-15],[15,-64],[10,55],[36,-155],[20,16],[17,79],[-2,230],[17,39],[-5,118],[16,145],[20,60],[17,-92],[35,-33],[30,153],[41,28],[19,65],[26,218],[10,-29],[59,97],[11,-65],[-2,-195],[21,-24],[20,95],[29,-42],[59,-163],[35,29],[53,234],[27,16],[42,177],[48,95],[42,57],[11,79],[16,189],[21,159],[49,262],[50,108],[38,198],[31,94],[41,-44],[4,124],[-58,79],[-20,90],[-9,115],[-9,265]],[[5186,53170],[273,0],[80,0],[0,430],[205,0],[0,430],[250,0],[159,0],[0,-430],[276,0],[57,0],[266,0],[273,0],[47,0],[0,430],[103,0],[0,430],[90,0],[0,430],[19,0]],[[7284,54890],[0,-2235],[0,-2063]],[[7284,50592],[-135,0],[0,-1289],[13,0],[0,-1290]],[[7162,48013],[-228,0],[-69,0],[-276,0],[-140,0]],[[6449,48013],[-271,0],[-54,0],[0,430],[-99,0],[0,-430],[-50,0],[0,-430],[-49,0],[0,430],[-297,0],[0,-430],[-20,0],[0,-430],[-49,0],[0,-430],[-49,0],[0,-859],[-19,0],[0,-430],[-48,0],[0,-860],[-49,0],[0,-430],[-17,0],[0,-860],[-48,0],[0,-859],[-65,0],[0,-860],[-47,0],[0,-860],[-16,0],[0,-430],[-47,0],[0,-430],[-47,0],[0,-860],[-14,0],[0,-430],[-47,0],[-1,-796]],[[5046,37759],[-8,-65]],[[5038,37694],[-84,1],[0,-429],[10,-1]],[[4964,37265],[-12,-181],[3,-202],[-46,-166],[-9,-132],[-20,-14],[-12,-98],[-4,-95],[-20,-49],[-4,255],[-13,134],[-45,15],[-26,-53],[-21,87],[-3,79],[13,70],[26,9],[7,53],[30,-133],[14,190],[-7,69],[17,151],[8,149],[6,195],[-8,382],[-2,439],[-15,283],[6,107],[-16,87],[-28,397],[-21,579],[17,365],[11,69],[0,132],[21,84],[4,133],[13,41],[4,140],[26,98],[3,96],[-20,304],[-12,141],[-15,251],[-4,316],[-13,177],[-11,303],[-26,299],[-14,318],[2,135],[-19,190],[-11,200],[-4,155],[-9,11],[-4,126],[-13,121],[-15,280],[-21,26],[-14,-227],[2,-289],[4,-200],[-18,-239],[-24,-39],[-25,88],[-13,-208],[-12,-78],[-21,-54],[-56,-308],[-30,-107],[-70,-156],[-73,-66],[-33,3],[-39,60],[-24,66],[-24,108],[-8,97],[-16,408],[13,105],[16,20],[-1,93],[-23,202],[-50,235],[-30,441],[1,79],[-20,128],[-23,197],[-7,196],[-47,71],[-29,145],[-21,169],[-32,346],[9,104],[13,22],[14,107],[10,139],[-2,153],[-25,23],[-37,-235],[-21,-19],[-30,89],[-11,221],[10,109],[24,-15],[12,73],[6,139],[11,-4],[11,164],[15,24],[10,167],[10,-9],[16,197],[-11,94],[-7,208],[10,1],[31,161],[6,122],[-19,146],[-7,144],[11,135],[-10,90],[-20,-184],[-28,52]],[[3256,44568],[14,-61],[12,94],[20,73],[57,-42],[14,-51],[27,39],[1,-90],[25,-4],[13,206],[-2,186],[20,149],[22,27],[19,-48],[6,70],[-3,149],[23,163],[24,-76],[9,-82],[22,129],[29,62],[35,-259],[-2,-81],[21,-47],[21,30],[12,117],[56,-255],[2,-119],[-14,-105],[10,-111],[2,-129],[-12,-181],[18,-228],[-2,-100],[-11,-135],[7,-171],[14,-82],[-5,-150],[19,-141],[5,-162],[-5,-89],[-38,-92],[-12,64],[-19,-51],[-12,-95],[-21,17],[-26,-97],[-19,-146],[-10,-27],[18,-239],[-2,-66],[-28,-52],[-8,156],[-21,187],[-39,176],[-20,-52],[-30,20],[-18,157],[-22,57],[-8,93],[-33,243],[-40,165],[-16,-20],[-17,111],[-21,226],[-18,20],[-11,327],[-19,304],[-13,119]],[[1695,46011],[6,225],[19,182],[6,107],[11,-6],[-5,-213],[14,-296],[29,-250],[46,-271],[22,-71],[42,-19],[35,-281],[0,-125],[-11,-10],[-9,160],[-23,42],[-26,-6],[-27,-89],[-8,89],[-28,132],[-11,145],[-35,297],[-11,128],[-14,24],[-22,106]],[[1679,46799],[8,173],[7,-2],[2,-249],[-17,78]],[[10961,41469],[16,187],[4,-235],[-20,48]],[[10360,46107],[48,0],[0,-430],[161,0],[0,-216],[59,0]],[[10628,45461],[0,-423],[64,-229],[70,-200],[17,437],[133,-625],[80,760],[172,86],[1,-164],[-35,-1147],[40,-463],[71,-349],[26,-90],[11,-480],[11,-204],[110,-997],[174,-1605],[19,-687],[11,-595],[-7,-379]],[[11596,38107],[-117,-498]],[[11479,37609],[6,163],[-5,194],[-36,391],[-47,388],[-27,146],[-76,277],[-20,135],[-34,272],[-23,159],[-44,215],[-77,329],[-78,464],[-19,151],[-48,285],[1,153],[16,-81],[30,341],[0,-206],[11,76],[14,295],[27,317],[-17,159],[-15,299],[2,81],[-9,142],[0,280],[21,126],[17,334],[-18,186],[-16,-201],[-2,-229],[-28,-132],[-16,-242],[-1,-218],[-9,-56],[-39,-132],[-63,-261],[-13,-135],[-25,-80],[-101,105],[-59,140],[-26,137],[-130,573],[24,237],[21,33],[-1,140],[9,151],[-9,178],[5,223],[-24,85],[-5,71],[3,181],[-10,43],[-8,-114],[-16,77],[-9,102],[-9,-76],[7,-130],[15,-94],[6,-192],[10,-22],[13,-158],[-9,-130],[-28,-82],[-12,-107],[-14,-36],[-39,0],[-40,186],[-31,97],[-30,39],[-55,147],[-38,33],[-29,104],[-45,46],[-31,10],[-28,-25],[-61,-123],[-109,-95],[-29,-36],[-20,-57],[-55,-206]],[[9822,43449],[0,189],[46,580],[149,1888],[90,1],[253,0]],[[3837,83370],[244,0],[0,859],[268,0],[227,0],[0,430],[195,0],[0,-430],[130,0],[0,430],[129,0],[0,-429],[260,0],[0,429],[130,0],[0,-429],[270,0],[170,0],[267,0],[0,-429],[256,0],[0,-430],[256,0],[0,-173]],[[6639,83198],[0,-685],[-14,0],[0,-430],[63,0],[0,-429],[63,0],[0,-430],[63,0],[0,-429],[-17,0],[0,-1288],[125,0],[0,-430],[43,0],[0,-1718],[-17,0],[0,-429],[-182,0],[0,-859],[-181,0],[0,-430],[-12,0],[0,-859],[-119,0],[0,430],[-60,0],[0,430],[-119,-1],[0,-859],[-119,0],[0,859],[-238,0],[0,-1718],[-297,0],[0,-859],[-176,0],[0,-859],[3,0],[0,-1289]],[[5448,70916],[-58,0],[0,-429],[-232,0],[-71,0],[-267,0],[-271,0],[-261,-1],[0,860],[-58,-1],[0,860],[-78,0],[0,1718],[-21,0],[0,1718],[-21,0],[0,522]],[[4110,76163],[66,42],[76,14],[33,-26],[37,-107],[-2,-56],[-38,88],[14,-298],[-11,-296],[-23,-182],[-7,-147],[2,-233],[-4,-82],[13,-100],[2,-124],[-28,-297],[-40,-58],[-4,-75],[31,-93],[22,80],[14,-325],[20,-213],[39,-117],[27,63],[11,71],[35,-11],[31,-79],[28,-38],[46,88],[12,70],[22,-42],[33,58],[34,-271],[20,16],[30,80],[21,-150],[42,103],[23,136],[8,-51],[25,-15],[39,-218],[5,-87],[-8,-183],[28,10],[6,77],[-15,93],[10,164],[16,100],[13,219],[19,398],[19,320],[17,92],[39,-10],[9,-190],[36,-52],[27,107],[1,-243],[20,21],[18,186],[-14,77],[-17,205],[-4,122],[-15,154],[-27,64],[-37,133],[-15,6],[-35,103],[-42,-2],[-41,-181],[-20,-49],[12,473],[0,200],[-5,152],[-26,263],[-33,191],[-5,169],[-14,193],[-24,151],[-28,62],[-40,39],[-5,229],[-28,334],[4,256],[25,43],[3,136],[27,-78],[27,101],[21,-361],[39,-395],[20,-30],[-3,-230],[-13,-148],[2,-279],[30,-295],[9,-166],[37,-258],[32,-135],[28,-179],[18,13],[53,178],[22,203],[21,58],[7,-207],[17,2],[17,-121],[13,-180],[33,-149],[22,-179],[29,19],[13,-57],[26,16],[15,83],[60,17],[11,42],[7,568],[-10,215],[-30,312],[-20,71],[-18,-21],[-17,-189],[-39,82],[-17,207],[-26,101],[-25,-18],[-15,-67],[-45,-25],[-26,-302],[3,-166],[-19,-89],[-27,2],[-22,97],[-20,39],[2,164],[-13,3],[-29,164],[-37,330],[11,154],[-29,10],[11,216],[-6,92],[4,152],[16,110],[0,242],[23,162],[1,124],[27,52],[15,-65],[20,16],[2,118],[-17,134],[-15,-18],[-8,110],[-20,76],[-12,-50],[-25,173],[-41,-42],[-43,-94],[-35,-134],[-35,-10],[-16,-38],[-13,137],[-30,12],[-9,-41],[-16,179],[-12,54],[-50,-57],[-21,-82],[-93,180],[-43,104],[-56,83],[-23,144],[3,268],[-6,323],[-29,782],[-42,674],[-23,270],[-25,179],[-97,456],[-94,658],[-63,396],[-19,95],[-19,162],[-39,228]],[[7285,57038],[235,0],[73,0],[0,359],[5,0],[237,983],[240,955],[187,716],[132,0],[141,0],[136,0],[0,716],[285,0]],[[9097,59236],[0,-1047],[13,0],[0,-500],[3,0],[0,-1719],[4,0],[0,-1289],[-155,0],[0,-430],[5,0],[0,-1719],[5,0],[0,-1719],[-73,0],[0,-221],[-150,1]],[[8749,50593],[-200,-1]],[[8549,50592],[-200,0],[0,144],[-17,0],[0,143],[-20,0]],[[8312,50879],[-25,166],[-21,-77],[-46,-70],[-32,-204],[-17,-250],[-18,-67],[-8,-212],[-1,-360],[-19,-149],[-25,80],[-37,30],[-22,-11],[-29,-57],[-22,-6],[-16,115],[-7,133],[-19,-83],[-10,78],[-10,-163],[-54,-254],[-13,-13],[-12,-83]],[[7849,49422],[0,311],[-100,0],[0,859],[-220,0],[-245,0]],[[7284,54890],[1,2148]],[[8549,50592],[0,-1289],[-3,0],[0,-1576],[-74,0],[-2,-143],[0,-430]],[[8470,47154],[-81,0],[1,560]],[[8390,47714],[7,44],[-24,289],[-29,156],[-46,-91],[-13,128],[-24,154],[-32,12],[-8,67],[-29,98],[-10,86],[-20,254],[-23,119],[-10,106],[-27,92],[11,237],[28,39],[13,260],[19,278],[26,107],[4,224],[22,42],[14,85],[38,166],[16,128],[18,2],[1,83]],[[8041,49108],[12,52],[5,152],[16,-69],[-20,-155],[-13,20]],[[10627,52962],[0,-1457],[1,-1861],[0,-2093],[0,-2090]],[[10360,46107],[0,425],[-251,-61],[-2,961],[-106,-129],[-44,-12],[0,446],[-85,-1],[-1,930],[-198,-1],[0,433],[3,432],[-117,-6],[-155,0],[-226,0],[0,433],[-174,-2],[-104,-4],[-1,213],[-150,0],[0,429]],[[7592,34579],[8,152],[-3,81],[11,110],[12,-50],[1,-228],[-4,-119],[-16,-108],[-9,162]],[[7463,38140],[9,-11],[9,205],[17,-89],[-3,-124],[-14,-36],[-18,55]],[[7419,33204],[21,195],[11,-162],[22,-69],[-11,-147],[-11,13],[-25,177],[-7,-7]],[[7323,33386],[4,68],[27,30],[3,-152],[-11,-125],[-19,102],[-4,77]],[[7168,33900],[6,99],[17,96],[-1,96],[12,132],[10,-7],[25,-271],[22,2],[11,106],[-30,-7],[-2,83],[-15,160],[3,209],[10,76],[32,-112],[14,29],[1,106],[-17,74],[-10,121],[16,222],[18,-91],[17,-19],[4,117],[-8,134],[12,46],[20,-137],[10,174],[-22,261],[14,4],[18,182],[2,92],[18,21],[7,95],[30,-118],[7,42],[-38,196],[-3,159],[7,241],[18,162],[8,-94],[12,-20],[14,178],[15,-31],[16,58],[-3,-207],[5,-44],[-13,-213],[-8,-252],[-19,-122],[-9,-212],[12,-134],[-7,-131],[2,-103],[21,-17],[11,48],[8,171],[-5,112],[9,94],[12,-55],[19,-211],[0,-145],[24,203],[11,-96],[-13,-400],[8,-72],[7,145],[14,-98],[10,272],[9,-55],[0,-364],[-10,-260],[-9,8],[-14,-269],[-15,18],[-1,94],[-17,0],[-6,142],[1,126],[-25,54],[-1,-141],[7,-178],[-10,-73],[17,-139],[-23,-116],[-32,74],[-31,-44],[3,300],[-9,47],[-3,-318],[-15,-303],[-21,-54],[-13,-285],[-20,1],[-11,-118],[-44,88],[-23,154],[-31,131],[-15,29],[-19,-61],[-15,113]],[[6962,27068],[6,108],[18,66],[14,-5],[-1,-160],[-27,50],[-10,-59]],[[6905,26370],[14,217],[25,153],[8,-50],[27,63],[15,-298],[6,-34],[42,48],[-4,-154],[-18,-131],[-44,-21],[-15,45],[-19,-82],[-30,72],[-7,172]],[[6785,25820],[18,339],[11,131],[37,298],[23,76],[20,-75],[3,-162],[-20,-138],[-1,-62],[-24,-86],[-23,-138],[-26,-312],[-8,-17],[-10,146]],[[6784,30364],[5,91],[12,-40],[10,167],[-4,191],[14,129],[9,259],[28,164],[9,180],[21,15],[24,281],[21,22],[10,100],[36,-57],[19,50],[14,-57],[-2,-522],[17,-55],[1,-130],[14,37],[-2,154],[20,203],[-20,229],[4,88],[34,2],[22,-47],[-3,140],[-34,134],[-19,47],[-16,-24],[-3,533],[18,144],[3,127],[19,26],[15,120],[21,-67],[11,-178],[14,-56],[11,-285],[-5,-77],[-1,-184],[8,-53],[10,320],[12,43],[-9,144],[2,144],[17,-54],[15,-105],[16,-40],[-9,239],[-18,34],[-16,103],[-23,244],[5,164],[16,37],[11,-95],[21,-90],[9,-113],[40,-147],[5,-71],[16,19],[-28,284],[-2,64],[-19,90],[-10,172],[15,31],[14,-135],[13,-19],[10,-84],[17,61],[15,-71],[19,9],[23,-92],[15,-153],[-18,-99],[0,-79],[-14,-222],[5,-108],[-6,-104],[4,-125],[15,-48],[0,419],[17,157],[16,-182],[8,244],[18,118],[1,119],[23,-96],[10,55],[13,-78],[3,-121],[15,-74],[-11,-107],[7,-84],[20,88],[-5,-169],[-23,-96],[-11,-126],[5,-261],[0,-212],[20,147],[7,-48],[-13,-140],[-12,-279],[9,0],[18,173],[14,35],[19,-101],[20,38],[5,-156],[-29,-318],[-10,-53],[-8,-239],[-4,-231],[-33,105],[-8,120],[-15,-94],[-14,26],[-9,110],[-18,-50],[-14,189],[-18,-50],[-23,84],[-8,-159],[27,-37],[15,-67],[11,-179],[27,-80],[7,-111],[-1,-130],[-8,-56],[0,-130],[-18,-196],[-4,110],[-9,49],[-19,-227],[-20,120],[-4,152],[-24,99],[-32,-117],[1,-163],[23,62],[19,-180],[-9,-118],[-26,-122],[-24,7],[-2,-278],[14,105],[26,-50],[4,62],[16,33],[8,-109],[15,-78],[-13,-122],[-30,-13],[-28,-162],[-9,50],[-14,-105],[-4,-94],[6,-102],[-11,-182],[-19,-60],[-11,100],[6,154],[-21,103],[-1,87],[13,95],[-6,111],[25,282],[0,166],[-31,-288],[-8,-142],[-11,-50],[-9,-253],[-22,139],[-25,-34],[2,-164],[19,12],[4,-84],[-9,-89],[19,-100],[-4,-151],[-11,-71],[-3,-107],[-16,-16],[-19,-208],[15,-69],[-7,-110],[-38,-165],[-15,-147],[-2,-107],[-21,-121],[-11,0],[-6,99],[-26,-103],[1,207],[17,319],[16,55],[8,182],[10,88],[20,62],[7,86],[-4,158],[-15,-94],[-16,8],[1,186],[15,287],[12,170],[20,124],[-23,20],[-6,-102],[-19,-163],[-29,-469],[-11,-7],[-13,-243],[-13,-50],[-5,-173],[-21,-115],[-1,290],[-27,277],[-34,143],[3,407],[-4,528],[-18,365],[-8,72],[-29,34],[-7,73],[2,116],[-15,157]],[[6518,22799],[20,123],[13,263],[10,65],[11,-90],[-7,-212],[6,-305],[-7,-139],[-16,51],[-23,10],[1,142],[-8,92]],[[6919,36836],[138,0],[0,430],[50,0],[0,573],[90,0]],[[7197,37839],[3,0]],[[7200,37839],[14,1]],[[7214,37840],[-10,-80],[-13,49],[-9,-158],[-7,-334],[-14,-199],[-10,16],[-8,-105],[-13,-29],[-10,-258],[-20,-96],[-30,-50],[-19,39],[-15,-23],[-1,-193],[-10,-366],[-37,-41],[-4,-53],[6,-336],[13,-29],[3,-129],[-13,-97],[-16,-31],[-21,42],[-13,-137],[-28,-193],[6,-140],[14,41],[-1,115],[16,-12],[6,135],[21,-215],[-28,-119],[15,-111],[-4,-162],[-16,-69],[-14,77],[0,-193],[15,-140],[-15,-19],[-16,154],[-3,-377],[-14,201],[-12,114],[-9,-23],[5,-233],[-8,-10],[-35,152],[18,-278],[-8,-221],[-20,39],[-3,153],[-20,-58],[-4,-190],[-20,-63],[-6,87],[-24,20],[-12,-98],[-19,-53],[-7,-197],[-18,-26],[15,-241],[-6,-117],[-19,-89],[-14,76],[-4,-168],[-17,-75],[-15,37],[-1,-221],[11,-174],[-1,-125],[-22,-65],[-10,157],[-22,59],[-19,173],[-16,-91],[2,-114],[-6,-244],[15,-109],[-4,-89],[-28,-69],[-12,-67],[3,-268],[-2,-173],[-14,16],[-18,104],[-4,-74],[-20,-93],[-20,165],[-10,-13],[2,-475],[3,-173],[-19,20],[-10,150],[-14,68],[-11,-181],[-29,-105],[-22,-258],[-16,-136],[-22,-95],[-3,-97],[9,-79],[45,170],[11,-152],[-6,-217],[-11,-17],[-7,-125],[6,-110],[13,-106]],[[6356,29520],[-116,0],[0,359],[22,0],[0,287],[14,0],[0,215],[22,0],[-3,143],[15,0],[0,358],[15,0],[0,215],[15,0],[7,72],[0,143],[45,0],[0,-71],[22,0],[0,143],[15,72],[0,143],[15,0],[15,72],[0,-215],[30,286],[-15,72],[0,215],[37,0],[6,143],[0,215],[15,1],[0,286],[45,0],[0,144],[22,0],[0,215],[30,0],[0,793],[15,0],[0,287],[-15,0],[0,430],[30,0],[0,215],[46,0],[0,143],[15,0],[0,143],[38,0],[0,72],[38,0],[0,143],[45,0],[0,144],[31,0],[0,143],[9,143],[23,0],[0,215],[15,0],[0,932]],[[6240,23862],[20,249],[11,-83],[1,-112],[-12,-41],[-1,-92],[-16,17],[-3,62]],[[6224,24510],[0,148],[16,-29],[-4,-196],[-12,77]],[[5095,58457],[0,1289],[54,1],[0,429],[-7,0],[0,859],[54,0],[0,430],[107,0],[0,430],[50,0],[0,429],[55,0],[0,1289],[-59,0],[0,1719],[-4,0],[0,1718],[52,0],[0,859],[57,0],[0,859],[-3,1],[0,859],[57,0],[0,859],[-2,429],[-58,0]],[[6639,83198],[83,0],[234,0],[216,0],[245,0],[267,0],[257,0],[179,0],[189,0],[269,0],[237,0],[264,0],[156,0],[0,2480],[259,0],[281,0],[278,0],[283,-1],[291,-7]],[[10627,85670],[0,-1522],[0,-1301],[0,-1914],[0,-5104],[0,-2716],[0,-631]],[[8665,65063],[-202,0],[-101,0],[0,72],[-149,0],[-296,0],[-154,-1790],[-35,0],[-30,115],[8,119],[-21,52],[0,72],[-64,0],[-19,-251],[9,-108],[-63,0],[0,-859],[-49,0],[1,-859],[-180,0],[0,-859],[17,0],[0,-645],[54,0],[0,-215],[53,0],[0,-600],[-126,-1794],[-33,-475]],[[5186,53170],[-107,0],[0,1289],[-37,0],[0,1719],[15,0],[0,1719],[15,0],[0,498],[23,62]],[[5518,18225],[10,44],[-2,113],[29,-19],[3,-87],[-10,-164],[-11,-69],[-10,24],[-9,158]],[[5479,18819],[11,196],[26,-8],[-8,-169],[14,-232],[-11,-24],[-17,-152],[-7,147],[15,119],[-23,123]],[[5444,17800],[11,40],[15,-178],[-2,-142],[-14,-18],[-10,298]],[[5430,19332],[12,17],[6,-87],[7,330],[-5,178],[23,-176],[2,-195],[-15,-284],[-6,-171],[-23,101],[7,188],[-8,99]],[[5384,17809],[22,9],[-8,-122],[-14,113]],[[5382,19082],[7,99],[11,-115],[-11,-46],[-7,62]],[[5303,20373],[14,47],[10,-95],[-3,-85],[-19,33],[-2,100]],[[5263,18240],[8,178],[15,42],[11,316],[15,144],[-25,56],[-1,79],[13,102],[-17,70],[9,92],[20,-100],[-12,230],[14,-1],[7,-121],[14,-75],[-13,385],[6,94],[16,-138],[1,179],[13,2],[-5,145],[17,235],[7,-108],[-1,-187],[-13,-4],[2,-157],[-3,-267],[26,81],[-4,-159],[-11,-164],[-19,171],[-4,-144],[3,-135],[-20,-49],[5,-74],[-17,-214],[-15,-88],[-4,-192],[-18,-85],[1,-140],[-14,-141],[-7,142]],[[5238,20830],[6,94],[18,94],[16,-122],[13,43],[4,-228],[-3,-120],[-14,70],[-8,102],[-14,-87],[-11,-5],[-7,159]],[[5187,20306],[7,143],[23,-53],[15,99],[10,6],[7,-279],[-7,-215],[-14,14],[-2,123],[-23,10],[-16,152]],[[5093,20312],[18,295],[20,131],[23,-98],[-1,-210],[-12,-111],[8,-103],[19,152],[-5,84],[14,204],[12,-65],[1,-101],[-13,-129],[-4,-127],[3,-149],[11,-89],[11,-313],[-2,-141],[-25,-98],[-25,125],[-2,111],[-20,4],[-8,-172],[-18,285],[4,195],[-7,70],[6,138],[-8,112]],[[4932,19716],[13,114],[15,-99],[5,-151],[-5,-75],[-19,109],[-9,102]],[[4886,19076],[10,147],[7,-94],[-9,-122],[-8,69]],[[4862,19757],[11,172],[13,-18],[21,93],[-8,-270],[-7,38],[-11,-90],[-19,75]],[[4805,19429],[3,86],[18,104],[17,-62],[13,-138],[22,-83],[1,-96],[-20,-117],[-14,-126],[-10,98],[1,123],[10,142],[-8,161],[-7,-258],[-26,166]],[[4656,18367],[15,67],[4,113],[12,91],[17,-34],[7,-102],[1,-336],[-23,-299],[-27,247],[-6,253]],[[4643,15803],[20,-47],[-6,-153],[-14,200]],[[4538,15863],[7,79],[0,189],[9,67],[37,-161],[30,-154],[-3,-193],[-45,58],[-15,-89],[-20,204]],[[4450,20785],[9,96],[7,-64],[-6,-136],[-10,104]],[[5643,28044],[0,-39]],[[5643,28005],[-15,-96],[5,-148],[10,-78]],[[5643,27683],[0,-263],[-44,0],[0,-430],[-63,0],[0,-430],[-87,0],[0,-430],[-87,0],[0,-860],[26,0],[0,-1721],[-17,0],[0,-430],[86,0],[0,-1233]],[[5457,21886],[-11,-54],[-6,-189],[-19,-83],[-12,-11],[8,188],[25,130],[-17,114],[6,278],[-7,129],[15,315],[-5,122],[-23,112],[-27,28],[-6,-124],[-5,-214],[-28,40],[-18,-24],[-6,-153],[10,-124],[-5,-86],[-31,-69],[4,-196],[-24,-47],[-6,56],[-12,-138],[-21,40],[-17,89],[-5,-122],[12,-59],[1,-110],[-22,-390],[-2,-167],[-9,-86],[-9,17],[-5,217],[-16,277],[-16,-171],[-13,67],[-12,-32],[-3,-112],[30,-50],[4,-76],[-4,-194],[-7,-34],[-31,-8],[-11,78],[3,163],[-8,94],[-12,9],[-13,-90],[-14,-334],[-35,-224],[-17,-58],[-17,-135],[-20,19],[-12,117],[-27,-129],[-14,16],[9,492],[-2,152],[16,180],[17,319],[-7,178],[-19,32],[-24,-25],[-20,-105],[-10,-242],[-14,-189],[3,-72],[-3,-390],[3,-115],[-38,-551],[-10,-110],[-5,-234],[-15,-55],[-13,114],[-14,5],[8,-282],[11,-106],[4,-162],[-4,-97],[-16,-74],[-9,-96],[-24,203],[8,60],[-1,116],[-10,39],[-20,-193],[8,-297],[-8,-143],[-9,-51],[-14,101],[-22,13],[-9,-29],[-23,157],[-7,240],[15,46],[9,-93],[10,48],[-14,180],[-9,39],[-5,129],[-4,321],[-21,105],[6,144],[-27,-14],[-12,-223],[-4,-131],[8,-156],[13,10],[16,-277],[-10,-131],[6,-137],[2,-156],[8,-181],[-1,-221],[-14,84],[-17,30],[-10,-74],[0,-151],[-17,-87],[-15,-31],[-13,26],[-11,185],[-13,150],[6,120],[-17,273],[-17,132],[-21,-65],[-12,18],[-10,-281],[1,-63],[19,-71],[28,-215],[5,-132],[-9,-92],[-37,-280],[-6,-137],[-23,-61],[-5,-104],[-11,13],[-8,231],[17,89],[3,161],[-9,91],[3,141],[12,58],[4,234],[-2,190],[-10,248],[34,296],[15,72],[18,28],[13,-65],[12,50],[33,5],[6,307],[-16,40],[31,305],[17,-16],[16,221],[11,79],[18,-101],[11,53],[11,153],[-6,202],[4,162],[-24,-50],[21,215],[36,465],[32,475],[16,138],[18,99],[27,285],[16,35],[17,106],[34,360],[33,90],[32,141],[84,229],[-1,-129],[15,-29],[10,42],[40,-86],[7,89],[15,40],[25,148],[5,-92],[-9,-139],[-15,-31],[-19,-158],[2,-200],[14,-41],[1,-204],[14,-106],[29,-373],[6,108],[20,-72],[10,-191],[5,207],[-18,175],[-13,58],[3,94],[-4,245],[3,133],[16,-94],[13,-24],[44,33],[9,-161],[-3,-181],[20,61],[5,-124],[17,-9],[8,78],[-1,135],[21,53],[-10,117],[-10,-24],[-27,190],[-8,91],[-16,45],[-11,145],[-3,145],[-16,45],[23,382],[14,302],[0,80],[19,536],[9,174],[34,290],[9,151],[13,118],[25,104],[32,278],[36,369],[74,365],[20,130],[25,213],[30,125],[69,458],[25,249],[14,109]],[[3957,16622],[4,105],[13,37],[22,156],[10,8],[15,91],[20,383],[8,220],[16,354],[1,187],[16,137],[18,78],[26,-178],[19,58],[19,119],[20,179],[14,-40],[12,41],[22,153],[17,185],[13,-7],[20,86],[32,-57],[34,51],[2,-170],[13,-95],[17,-226],[9,-281],[-3,-254],[9,-131],[0,-156],[13,-169],[26,15],[14,96],[10,-50],[12,-169],[5,-336],[-17,63],[10,90],[-24,30],[-8,-32],[-18,44],[-9,95],[-3,137],[-18,-24],[-8,-115],[5,-139],[-3,-168],[-23,-26],[-6,-100],[-14,-24],[-4,-76],[-28,79],[-34,40],[-41,-21],[-37,-56],[-33,-126],[-32,-255],[-6,-111],[3,-189],[-11,-157],[-21,-155],[-42,-88],[-13,-67],[-16,57],[-10,-32],[-15,39],[-14,87],[-15,374],[-9,135],[-4,271]],[[3880,14258],[7,77],[12,-15],[3,86],[18,-8],[29,-55],[11,92],[4,-121],[-10,-193],[-8,21],[-15,-58],[-12,15],[-15,85],[-6,-30],[-18,104]],[[3807,14125],[23,33],[10,49],[29,2],[-5,-138],[-11,-79],[-5,112],[-41,21]],[[3781,13965],[14,112],[10,-137],[-18,-65],[-6,90]],[[3750,14973],[3,111],[12,48],[1,107],[15,-90],[18,94],[-2,-165],[-10,-138],[16,-141],[32,-63],[-10,-86],[-17,0],[-3,-97],[-18,-80],[5,-75],[-11,-99],[-10,36],[-3,142],[7,96],[-11,167],[15,137],[-9,96],[-7,-80],[-13,80]],[[3632,14367],[8,269],[16,70],[13,150],[30,-39],[-2,-168],[13,-91],[5,81],[18,-83],[3,-80],[-15,-97],[15,-62],[21,79],[-5,-184],[-9,-16],[-16,-112],[-22,60],[-1,-112],[-22,54],[-33,-107],[0,145],[-12,110],[-5,133]],[[3608,13692],[9,63],[17,-50],[4,-139],[-16,-36],[-13,28],[-1,134]],[[12229,34445],[-2,20]],[[12227,34465],[2,-20]],[[12201,38636],[7,-33],[9,-225],[-9,-129],[-7,387]],[[12199,40295],[92,-1],[0,-18]],[[12291,40276],[20,-324],[72,-159],[6,-281],[32,-303],[23,2],[10,-210],[18,-250],[-7,-296],[24,-77]],[[12489,38378],[-4,-7],[-169,19],[-4,29],[-61,10]],[[12251,38429],[-8,278],[-1,232],[-7,219],[-12,226],[-5,175],[-22,330],[3,406]],[[12100,42179],[92,-1828]],[[12192,40351],[-5,-358],[-11,-57],[5,-136],[-4,-104],[19,-96],[12,-278],[-5,-54],[14,-242],[-20,92],[-1,118],[-8,226],[-14,182],[-25,149],[-1,-132],[21,-238],[0,-148],[8,-153],[18,-106],[-6,-270],[-1,-320],[8,-247],[13,-41],[-4,-127],[16,-351],[11,-182],[1,-275],[13,-168],[14,-357],[-14,-127],[20,-515],[-4,-34],[12,-244],[5,-312],[6,-121],[1,-222],[-14,-45],[-2,-145],[12,-328],[-10,-13],[-18,63],[-17,135],[-13,-23],[-12,70],[-15,301],[-8,92],[-15,632],[-12,235]],[[12162,36077],[16,72],[23,-115],[10,66],[-12,239],[-15,190],[3,147],[-24,179],[-11,2],[-6,207],[-57,234],[12,252],[0,136],[37,186],[14,134],[-21,76],[-1,95],[12,96],[0,106],[-36,340],[-8,186],[6,188],[-21,158],[-10,-15],[-24,210],[-19,4],[-43,138],[-3,-95],[-36,192],[-28,29],[-27,155],[-8,-25]],[[11885,39844],[5,123],[-2,457],[0,445],[29,-81],[19,74],[19,297],[-1,174],[-31,200],[44,200],[67,110],[66,336]],[[12157,29779],[11,101],[23,-28],[-9,-248],[-8,-51],[-17,226]],[[12393,24940],[0,-436]],[[12393,24504],[-11,105],[0,159],[-19,-11],[-10,112],[-9,278],[-15,90],[-2,155],[-12,147],[2,155],[-10,97],[-5,168],[-9,124],[-10,413],[8,120],[22,105],[-9,93],[-14,-53],[-17,-124],[-9,91],[-7,159],[5,189],[-11,-17],[-10,-95],[-10,205],[-13,-36],[-7,249],[12,64],[-11,119],[-10,-167],[-11,269],[-7,35],[10,370],[5,40],[3,198],[-9,94],[2,178],[24,127],[0,161],[-21,94],[-10,198],[7,202],[-14,112],[14,152],[1,157],[8,79],[-44,33],[-15,-89],[-7,178],[3,83],[-29,242],[-3,172],[16,5],[21,-54],[8,58],[-30,122],[12,76],[15,177],[-4,273],[13,71],[15,189],[19,4],[16,-95],[9,-142],[-1,-130],[20,26],[9,-47],[7,-125],[28,-161],[17,-42],[5,54],[20,15],[23,-124],[-3,-56],[10,-249],[-2,-102],[-14,-11],[-11,120],[-14,-73],[2,-282],[12,1],[6,96],[11,-209],[-5,-169],[13,-146],[4,-253],[16,-635],[0,-259],[12,-269],[-1,-310],[8,-83],[5,-334],[7,-138],[4,-442],[-4,-440],[-11,-33],[8,-313],[-1,-247],[4,-254],[-5,-157],[3,-202],[-11,-120],[3,-124]],[[12056,29758],[12,134],[-4,87],[5,189],[-6,150],[18,-18],[5,70],[26,-158],[22,-214],[7,-130],[-15,-160],[6,-95],[15,-40],[4,194],[22,-234],[-16,-201],[-14,-26],[-2,-221],[-10,-110],[-9,-226],[-22,-94],[-38,-52],[3,461],[12,113],[10,26],[4,252],[-24,53],[5,147],[-5,102],[-11,1]],[[11915,32765],[99,34],[13,255],[21,551],[24,-135],[28,-222],[52,-243],[29,-180],[21,-192],[31,-217],[18,-20],[18,46]],[[12269,32442],[4,-73],[20,-41],[12,84],[14,-18],[8,-318],[-8,-135],[9,-58],[13,-367],[-2,-246],[6,-137],[-17,-61],[1,-154],[-21,17],[-16,-39],[-17,48],[-11,157],[-24,156],[-38,303],[-35,208],[-25,195],[-23,-232],[12,-66],[8,38],[18,-104],[-16,-75],[-3,-303],[9,-207],[-1,-116],[-11,-143],[-32,-288],[-11,7],[-9,89],[-20,35],[-6,126],[-30,329],[-20,139],[1,63],[-13,167],[11,101],[-9,85],[-16,-126],[-24,109],[0,144],[-8,277],[9,79],[12,190],[-20,160],[-3,-172],[-15,103],[-4,227],[-13,166]],[[11902,32761],[11,4]],[[11913,32765],[-11,-4]],[[12766,28685],[37,9],[33,-103],[12,-191],[10,-61],[12,-316],[2,-244],[9,-111],[25,-54],[16,-187],[8,-214],[13,-127],[20,-92],[-2,-111],[8,-146],[15,-58],[1,-104],[-23,-161],[-8,8],[-23,-226],[-23,-63],[-16,69],[-7,-39],[-40,99],[-2,61],[-26,-15],[5,-262],[-22,-147],[-14,144],[-13,16],[-7,-64],[-9,109],[-18,35]],[[12739,26139],[5,112],[-10,84],[-2,236],[6,175],[-4,95],[-12,69],[-8,167],[2,135],[-17,174],[22,38],[-2,309],[2,243],[33,197],[27,78],[3,58],[-18,376]],[[12691,32469],[12,1],[10,198],[18,8],[8,-122],[20,-85],[16,98],[4,-124],[15,24],[12,-157],[14,5],[8,-71],[10,77],[6,-110],[19,6],[8,120],[22,-163],[8,-247],[-11,-112],[-2,-133],[21,-185],[18,34],[7,-35],[19,34],[1,121]],[[12954,31651],[27,-550],[53,-766],[32,-649],[-33,-594],[90,-230],[-20,-768]],[[13103,28094],[-12,65],[-16,-58],[-7,-166],[-10,-61],[-7,-236],[-18,-102],[-20,-36],[-9,-196],[-24,-77]],[[12980,27227],[8,164],[-32,163],[-15,134],[-25,173],[-8,237],[-19,150],[-6,172],[-13,186],[17,-2],[11,57],[12,-168],[6,24],[-5,222],[-8,204],[-16,-183],[-12,105],[-24,56],[-16,129],[-30,34],[-6,133],[3,105],[-18,-11],[-3,-100],[-12,-46],[-14,110],[-27,108],[-11,114],[1,261],[-10,173],[13,111],[3,124],[14,-109],[18,-8],[32,46],[16,87],[-26,114],[-20,-7],[-27,108],[-7,128],[15,167],[-12,41],[-16,266],[2,337],[8,37],[3,165],[-24,-112],[-15,80],[-13,182],[-3,216],[7,83],[-2,165],[26,31],[14,-167],[12,-17],[24,-100],[14,-108],[31,-166],[32,-270],[-23,329],[-25,235],[-14,8],[-15,143],[-11,152],[-21,104],[-7,91],[-20,52]],[[4577,61281],[19,93],[7,108],[18,56],[23,-63],[12,78],[15,-54],[10,-172],[-7,-118],[-16,-116],[-34,16],[-20,-32],[-27,204]],[[5095,58457],[-246,0],[-72,0],[0,430],[-53,0],[0,430],[-53,0],[0,429],[-57,0]],[[4614,59746],[46,615],[13,220],[28,223],[-11,268],[14,11],[16,-100],[35,-46],[17,-158],[-18,-76],[-4,-173],[26,89],[22,-26],[13,40],[18,-57],[33,123],[31,-73],[17,17],[5,83],[16,-68],[18,72],[20,0],[48,157],[9,252],[19,134],[8,214],[13,-8],[15,158],[11,183],[19,230],[11,256],[-1,235],[-22,563],[-14,203],[-16,492],[0,587],[-14,212],[-63,598],[-2,50],[-42,174],[-19,23],[-5,144],[1,278],[21,127],[49,-170],[41,-16],[17,47],[0,180],[14,20],[18,193],[28,176],[3,498],[-23,322],[-5,142],[-28,108],[-26,172],[-30,283],[-4,-160],[-27,-218],[-16,-190],[-3,-157],[-42,-126],[-35,104],[-8,69],[-15,-80],[-39,-106],[-18,-151],[-5,-103],[-43,-37],[-18,-51],[-14,-127],[-5,-179],[-28,-108],[-8,-70],[-50,-263],[-20,-295],[3,-109],[-10,-201],[2,-119],[-30,-139],[-10,-144],[-9,137],[2,230],[-18,338],[3,143],[-18,102],[-5,113],[-22,48],[-6,164],[-31,171],[4,141],[-30,9],[-2,-128],[-30,-199],[28,-207],[22,-28],[13,-157],[14,50],[15,-36],[0,-149],[-18,-68],[-5,-274],[-18,-47],[-21,273],[-1,74],[-36,234],[-36,156],[-24,77],[-39,13],[-16,42],[-22,-6],[-28,-106],[-23,46],[-32,19],[-38,-19],[-24,-53],[-41,-155],[-82,-367],[-42,-21],[-6,-34],[-48,151],[-61,155],[-75,159],[-50,60],[-102,203],[-49,288],[-14,243],[-10,233],[0,301],[14,52],[6,259],[-13,218],[-25,195],[-41,212],[1,178],[-15,179],[-33,176],[-22,254],[29,-113],[34,-63],[39,78],[30,262],[-4,231],[26,152],[10,113],[-19,186],[-29,107],[-47,-34],[-38,78],[-26,109],[-36,96],[-44,53],[-55,31],[-18,61],[-38,196],[-3,61],[-26,166],[-34,124],[-5,74],[-38,89],[-24,94],[-14,352],[9,201],[29,177],[32,134],[89,327],[49,244],[74,448],[142,798],[55,263],[45,193],[20,34],[9,108],[59,295],[86,376],[64,246],[65,229],[108,317],[103,241]],[[2034,60813],[5,141],[0,319],[14,266],[11,146],[-5,120],[9,202],[-4,277],[16,16],[12,-86],[-3,-299],[4,-85],[24,-135],[50,-172],[43,-101],[48,-142],[39,-41],[44,268],[26,199],[29,-3],[3,78],[17,76],[16,-50],[36,1],[37,-341],[12,-14],[10,-144],[2,-218],[8,-107],[-5,-119],[8,-76],[18,-43],[29,-152],[59,-66],[22,-142],[7,-140],[16,-57],[49,-41],[14,-41],[50,-29],[9,19],[47,-59],[19,-101],[32,-47],[-7,-353],[-17,-226],[-26,-193],[-24,105],[-40,61],[-31,-21],[-45,-124],[-4,-107],[-16,-130],[-24,-137],[-12,-210],[14,-263],[-19,-29],[-12,-174],[-34,132],[5,103],[-23,454],[-11,129],[-26,196],[-12,9],[-9,119],[-26,82],[-23,-14],[-19,80],[-3,151],[-18,258],[-21,189],[-39,214],[-82,264],[-19,34],[-47,0],[-16,-100],[-35,-105],[2,-107],[-45,-254],[-34,148],[-9,-7],[-30,145],[-14,118],[-20,238],[-6,248]],[[5212,37015],[5,206],[10,-129],[-15,-77]],[[6449,48013],[0,-1750],[0,-2992],[0,-1276],[-46,0],[0,-430],[-95,0],[0,-430],[-47,0],[0,-430],[-27,0],[0,-430],[-93,0],[0,-430],[-47,0],[0,-860],[22,0],[0,-1165]],[[6116,37820],[-5,-36],[-32,-52],[-28,-200],[-29,-101],[-6,-80],[-43,-132],[-43,-261],[-60,-257],[-17,-52],[-21,4],[-16,87],[-17,148],[-4,291],[-9,152],[-17,114],[-24,63],[-10,81],[1,135],[14,154],[7,678],[36,184],[-1,105],[-19,45],[-8,-141],[-22,-74],[0,-136],[-21,-279],[-2,-131],[-10,-88],[-23,-113],[-12,35],[1,-165],[-6,-183],[6,-185],[-8,-181],[-26,-100],[8,-100],[10,-356],[16,-359],[5,-213],[15,-66],[-11,-210],[-13,-178],[-15,-91],[-17,-24],[-44,161],[-6,227],[-5,9],[-24,413],[-43,797],[-19,271],[-25,245],[-38,122],[14,239],[-8,181],[-10,29],[-26,-57],[4,-61],[-11,-208],[5,-140],[-17,-5],[5,-182],[-18,-65],[-12,-95],[-25,303],[2,145],[-6,78],[-23,-10],[-1,-81],[-21,35],[4,96],[-12,125],[-14,46],[-7,128],[-12,70],[17,116],[-8,210],[-22,221],[-8,-95],[-35,-201],[-48,-365],[-18,-164],[-21,-264],[-14,149],[-23,-36],[-21,-180]],[[5033,36531],[1,221],[6,311],[39,234],[13,-3],[36,264],[10,-39],[-18,-320],[-8,-227],[-14,-248],[-10,-250],[-22,-143],[-22,35],[-11,165]],[[5038,37694],[-19,-127],[-44,-144],[-11,-158]],[[9671,44290],[27,-63],[4,-91],[-7,-165],[-24,319]],[[9623,42487],[12,299],[33,338],[28,246],[0,58],[35,120],[-2,-99],[-52,-406],[-11,-164],[-20,-157],[-11,-153],[-12,-82]],[[9232,45484],[16,57],[37,-102],[20,7],[-2,-145],[-21,-45],[-17,115],[-33,113]],[[9141,45819],[13,262],[41,26],[20,120],[27,73],[6,103],[28,26],[16,50],[8,-59],[-11,-123],[-62,-298],[-18,-116],[-39,-131],[-24,13],[-5,54]],[[9031,45411],[7,149],[26,353],[21,18],[7,-76],[19,-18],[15,76],[12,-73],[-5,-205],[17,-57],[48,84],[11,-102],[3,-236],[-30,-21],[-17,-127],[-25,16],[-40,-215],[-35,-290],[-12,7],[-13,206],[12,108],[35,167],[-10,83],[-13,12],[-11,-125],[-19,69],[-3,197]],[[9007,47575],[0,112],[20,190],[13,-151],[-8,-184],[-18,-29],[-7,62]],[[8866,47875],[17,34],[15,108],[20,-109],[-4,-162],[-27,100],[-21,29]],[[8816,46765],[11,31],[15,137],[25,-173],[-13,-139],[-12,98],[-22,-8],[-4,54]],[[8816,44796],[20,151],[25,83],[1,-139],[-38,-246],[-8,151]],[[8697,42458],[8,48],[-3,205],[14,172],[23,11],[-10,172],[21,229],[16,-4],[4,68],[-5,143],[20,84],[17,189],[33,213],[17,227],[20,336],[-2,78],[27,76],[-4,233],[5,302],[16,115],[15,44],[7,-199],[16,-81],[-20,-155],[14,-56],[24,147],[10,-94],[-14,-210],[-65,-483],[-18,-243],[-26,-284],[-7,-205],[1,-148],[-33,-173],[3,-151],[12,-26],[0,-161],[-24,-155],[-24,55],[-13,-176],[-22,-67],[-26,-156],[-12,-31],[-15,111]],[[8686,44760],[9,55],[6,178],[33,43],[15,94],[-5,80],[-23,-134],[-13,6],[-4,107],[13,195],[11,338],[25,0],[3,315],[14,-61],[13,151],[5,-127],[-13,-238],[11,-143],[-21,-87],[4,-112],[13,31],[2,-117],[-13,-181],[1,-72],[-18,-187],[-5,-106],[13,-65],[-6,-192],[-6,-43],[-5,-199],[-24,175],[9,151],[-40,36],[-4,109]],[[8672,47109],[19,108],[14,-55],[16,-212],[-6,-105],[-37,78],[-6,186]],[[8662,43268],[14,201],[18,150],[2,101],[23,190],[10,-95],[-14,-322],[-14,-129],[-32,-154],[-7,58]],[[8635,45070],[1,78],[26,238],[19,-29],[-8,-278],[-2,-172],[-15,-34],[-14,36],[-7,161]],[[8635,43508],[7,29],[3,236],[11,200],[10,95],[37,100],[6,-137],[-27,-215],[-23,-147],[-15,-222],[-9,61]],[[8608,43213],[10,1],[10,192],[21,-23],[26,327],[4,-54],[-27,-361],[-19,-93],[-25,11]],[[8495,46821],[15,157],[9,203],[18,149],[18,-5],[12,58],[8,-227],[-8,-65],[3,-179],[10,31],[14,162],[9,170],[9,27],[25,-28],[12,-100],[4,-376],[-12,-114],[-22,-47],[6,-91],[-15,-110],[-26,-280],[-20,70],[-11,115],[-22,-26],[-30,-250],[-6,-85]],[[8495,45980],[0,841]],[[8495,46957],[0,-64]],[[8495,46893],[0,64]],[[8491,43128],[23,86],[0,613],[7,318],[0,1432],[-28,1],[0,205]],[[8493,45783],[7,17],[21,239],[7,13],[25,172],[40,-305],[16,31],[0,141],[12,118],[10,-4],[6,202],[18,66],[6,-135],[23,-245],[4,-94],[-13,-191],[21,-120],[-27,-227],[-16,-82],[-22,-186],[-15,22],[4,-189],[-26,-217],[-21,123],[-1,-119],[17,-215],[12,157],[12,-71],[13,-162],[10,168],[18,-109],[-15,-261],[14,-118],[2,267],[12,-17],[-13,-386],[-24,-416],[-15,-65],[-25,65],[17,87],[8,170],[-19,78],[-3,119],[4,192],[-16,41],[-11,-313],[6,-66],[-12,-299],[2,-222],[-8,-176],[-12,26],[-19,383],[-1,-305],[-5,-99],[-15,-140],[-15,2]],[[9822,43449],[-19,58],[-7,76],[-23,35],[-16,-25],[-16,36],[-9,89],[49,16],[-7,141],[-41,272],[-23,76],[-5,106],[-46,9],[-14,90],[-10,-51],[-16,92],[-34,107],[-46,40],[12,126],[33,67],[-10,100],[-27,51],[-22,-13],[-2,105],[18,264],[5,150],[21,343],[-22,-29],[-9,-151],[-27,-63],[-18,-174],[-8,-202],[0,-163],[-31,-13],[-40,220],[-23,174],[-17,84],[4,97],[-14,40],[-14,106],[-28,61],[-51,-70],[-24,108],[14,138],[33,139],[15,229],[8,62],[12,255],[13,90],[-1,74],[-39,-184],[-23,-84],[1,172],[-23,15],[-3,-121],[-17,-43],[-1,128],[11,250],[-51,-301],[-31,-28],[6,152],[12,143],[38,253],[5,93],[-9,89],[-15,-202],[-10,-22],[-18,82],[-2,-126],[-18,-29],[-9,156],[-16,-146],[-4,-110],[-26,-64],[-9,47],[-27,-43],[-11,60],[1,92],[-11,106],[19,28],[7,108],[25,-22],[16,76],[35,80],[23,151],[4,116],[27,34],[-16,137],[-12,24],[-8,-125],[-18,-166],[-20,-49],[-33,-3],[-8,136],[-25,191],[-10,-87],[-16,242],[-1,95],[22,53],[-17,138],[28,577],[52,-8],[15,42],[13,-34],[28,20],[-16,203],[-30,-18],[-5,50],[-22,-51],[-32,-18],[-10,-63],[-14,-257],[-27,-84],[-18,-251],[-7,-137],[-25,-151],[-20,57],[19,218],[-10,428],[-14,231],[17,148],[-22,34],[-12,-71],[10,-612],[-17,-206],[2,-182],[-11,-42],[-11,102],[0,158],[-17,-51],[8,-225],[-18,-56],[-13,-161],[-25,54],[2,233],[-15,47],[-14,154],[7,70],[-1,305],[10,33],[-5,151],[-11,-12],[-14,-314],[4,-60],[-11,-262],[9,-110],[-6,-120],[7,-174],[-3,-163],[-18,-58],[-3,186],[-17,87],[6,198],[-8,20],[-12,-321],[12,-150],[-8,-153],[-29,80],[-12,-83],[-32,-143],[-30,74],[-2,104],[6,213],[9,152],[-2,100],[25,256],[19,259],[1,140],[14,276],[34,380],[37,209],[-23,116],[-3,159],[-18,-199],[-10,-193],[-12,-96],[-36,-440],[0,-162],[-18,-214],[-14,133],[-1,153],[-9,155],[-10,-67],[-28,-22],[-20,-204],[-4,-144],[32,214],[25,78],[-3,-403],[-16,-169],[-17,3],[2,-175],[8,-31],[-13,-236],[1,-157],[-20,120],[-6,-68],[18,-140],[-14,-67],[-11,125],[-21,7],[-12,-52],[-17,27],[-17,-126],[0,-110],[26,142],[10,-41],[23,34],[-3,-113],[-18,4],[-25,-156],[-10,-133]],[[8495,47113],[-25,41]],[[13624,24157],[40,130],[28,-569],[-4,-476],[4,-23],[-22,-425],[-12,-80],[-7,-189]],[[13234,18949],[15,207],[-6,68],[4,119],[16,-28],[2,135],[-10,98],[-11,354],[12,147],[10,9],[24,-260],[14,-40],[9,-230],[3,-221],[-6,-151],[6,-83],[-1,-152],[-10,-146],[-28,2],[-4,161],[-21,-148],[-7,-102],[-10,86],[-1,175]],[[12904,18327],[30,91],[11,-149],[8,-7],[9,-144],[-4,-310],[8,-200],[-7,-132],[-12,84],[-8,243],[-10,119],[-13,87],[-12,318]],[[12834,24108],[7,121],[14,37],[7,-180],[-1,-114],[-18,27],[-9,109]],[[12767,20793],[7,132],[12,25],[6,-99],[-6,-120],[-15,-28],[-4,90]],[[12730,21358],[8,114],[16,97],[22,-129],[3,-117],[-8,-218],[-11,-63],[-16,57],[-4,123],[-10,136]],[[12687,22117],[18,-76],[-5,-99],[-13,175]],[[12684,20953],[5,87],[18,105],[3,197],[18,-111],[8,-96],[1,-181],[-7,-75],[-28,-37],[-4,78],[-14,33]],[[12665,20242],[18,281],[-12,42],[4,100],[24,105],[41,56],[1,-192],[-21,-99],[-23,-257],[-10,-310],[-16,121],[-6,153]],[[12629,23451],[8,78],[13,266],[12,130],[-1,82],[12,89],[23,-52],[20,13],[-4,89],[-17,17],[-17,88],[5,165],[12,-97],[11,70],[-3,142],[-9,32],[-13,200],[1,138],[-8,172],[-2,147],[11,238],[39,-91],[17,-60],[22,43],[10,-67],[15,55],[22,-30],[16,-264],[1,-129],[11,-16],[10,-349],[-10,-285],[-11,-202],[13,-172],[15,65],[12,-37],[11,57],[1,-180],[24,50],[20,-208],[10,-39],[5,-122],[28,-251],[41,-621],[-7,-120],[14,-198],[-4,-88],[5,-154],[14,-2],[10,-134],[7,-337],[15,-169],[21,-134],[9,-106],[6,-181],[-9,-27],[-15,174],[-20,119],[-44,228],[-15,235],[-12,-37],[-7,-121],[14,-53],[-7,-147],[-16,-255],[14,-20],[2,151],[12,40],[9,-49],[19,57],[11,-173],[17,-64],[9,-118],[-37,-113],[15,-67],[27,48],[9,-176],[22,-176],[2,-131],[14,-266],[-11,-127],[-22,13],[-12,-80],[-2,-120],[21,104],[24,-127],[15,374],[16,-72],[4,-408],[-15,-183],[10,-153],[-15,-130],[-11,-21],[1,-182],[-15,-108],[-26,-95],[24,-66],[9,100],[9,5],[18,113],[8,-98],[6,-259],[-4,-200],[2,-345],[5,-300],[-9,-38],[-6,-120],[3,-136],[-5,-101],[-28,-99],[-14,7],[-27,180],[-4,-81],[-12,36],[0,124],[-12,19],[0,111],[-28,121],[6,173],[23,-54],[5,113],[-3,107],[-15,55],[-4,113],[-28,-2],[-5,104],[-21,268],[8,339],[6,24],[5,260],[-14,287],[-4,212],[-12,-278],[-19,-204],[9,-105],[2,-159],[-3,-136],[-19,-113],[-36,197],[9,290],[-15,150],[5,161],[-14,87],[2,174],[-13,18],[-8,-55],[-10,86],[4,84],[-18,117],[1,-267],[10,-217],[-8,-48],[22,-152],[0,-187],[-14,-26],[12,-174],[18,-144],[-1,-205],[13,-147],[-1,-120],[46,-500],[9,-251],[-3,-174],[12,-25],[-10,-177],[-19,-43],[-17,39],[-10,203],[4,79],[-9,134],[-11,31],[-17,200],[-8,148],[-3,155],[-9,168],[-12,12],[-8,85],[-6,237],[0,196],[-12,100],[4,92],[-12,117],[3,170],[8,74],[-10,217],[6,319],[18,42],[-16,100],[-7,-30],[-6,-233],[-24,-77],[-12,117],[-9,-100],[-12,86],[-2,110],[4,201],[-3,155],[37,124],[10,-256],[14,-15],[2,100],[-10,98],[1,136],[12,128],[22,22],[26,100],[-8,115],[3,92],[-23,140],[14,301],[-6,116],[-1,175],[-25,-90],[-15,-10],[-24,156],[-12,130],[0,113],[10,124],[11,260],[-11,119],[-16,-93],[-19,103],[-1,-273],[-10,-61],[-14,57],[-17,120],[-17,273],[13,196],[13,-41],[8,110],[26,-122],[0,-114],[31,26],[13,57],[-4,119],[3,132],[-5,134],[-31,120],[-2,123],[-10,92],[11,208],[-9,101],[-11,-164],[-15,-67],[-8,-177],[-22,-103],[-19,83],[-9,-40],[-5,172]],[[12628,20922],[12,124],[3,153],[13,75],[-11,92],[6,100],[20,20],[12,-95],[11,-10],[-3,-194],[-10,-36],[-2,-158],[-8,-102],[-17,158],[-26,-127]],[[12594,23189],[0,75],[18,110],[7,-39],[4,-192],[-9,-239],[-16,119],[-4,166]],[[12476,23235],[8,87],[11,-50],[10,40],[9,-102],[23,85],[5,-119],[-27,-165],[-2,-61],[-22,-131],[-9,126],[8,81],[-14,209]],[[12739,26139],[2,-110],[-30,-189],[-37,11],[-3,131],[-2,350],[3,91],[-8,126],[-13,-98],[-12,14],[-4,91],[-15,20],[-6,-316],[-14,-123],[17,-91],[3,-147],[-16,-44],[9,-230],[-9,-128],[16,-83],[5,-134],[-12,-233],[-22,348],[-6,-150],[10,-65],[16,-395],[-20,-87],[6,-203],[-7,-160],[-1,-204],[-15,-24],[-8,154],[6,234],[-10,260],[-11,71],[0,-259],[-5,-74],[-20,-59],[24,-80],[-3,-162],[7,-43],[-14,-143],[7,-82],[-7,-202],[-11,70],[-2,162],[-14,68],[7,172],[-14,74],[11,220],[-10,59],[0,234],[-5,213],[0,250],[-5,190],[9,80],[7,193],[-3,234],[9,100],[16,-197],[9,105],[-22,414],[-24,90],[-6,180],[8,125],[-5,139],[-9,-5],[-19,391],[3,164],[-9,362],[18,293],[18,75],[37,-299],[3,146],[-19,125],[-4,109],[19,10],[8,132],[25,-157],[10,-305],[2,-170],[18,-162],[4,-211],[-5,-71],[11,-154],[7,86],[2,300],[-7,108],[22,-11],[16,-80],[9,134],[-17,40],[-24,193],[-7,128],[6,161],[-7,182],[-24,232],[-14,107],[7,244],[37,139],[20,-72],[22,-29],[8,-74],[29,-35],[17,-114],[13,-5],[26,-136],[19,17]],[[12393,24940],[4,-267],[-4,-169]],[[99918,3753],[16,12],[12,157],[22,30],[31,-259],[-11,-313],[-24,-168],[-9,-10],[-26,124],[-13,202],[2,225]],[[99679,2039],[6,101],[25,-123],[19,11],[28,-100],[4,-142],[23,-167],[21,-268],[18,-144],[14,-32],[11,-246],[9,-38],[34,-7],[21,-140],[-17,-83],[-9,62],[-30,-70],[-12,147],[-44,335],[-13,210],[-17,222],[-30,182],[-17,-34],[-22,106],[-20,152],[-2,66]],[[99629,3730],[9,47],[21,-68],[10,-141],[-14,-209],[-10,-18],[-10,158],[-6,231]],[[99571,2986],[19,-32],[19,-236],[-15,-9],[-23,277]],[[99531,4004],[7,91],[17,-92],[3,-147],[-16,-82],[-8,56],[-3,174]],[[99283,3325],[24,114],[15,216],[43,150],[2,226],[16,412],[11,77],[16,-122],[4,-102],[-12,-136],[-8,-240],[-18,-186],[2,-113],[19,-26],[-2,-128],[-13,-43],[-42,71],[-17,-130],[-6,-153],[2,-145],[-11,6],[-25,252]],[[98913,5679],[9,23],[16,-79],[-6,-116],[-9,-8],[-10,180]],[[98409,7464],[8,62],[14,-74],[-10,-99],[-12,111]],[[98211,5850],[7,130],[18,115],[8,-65],[15,40],[8,147],[8,-14],[11,150],[15,29],[25,-4],[-17,-172],[-5,-156],[6,-123],[4,-320],[-21,-1],[-12,109],[-5,112],[-22,-79],[-13,-2],[-19,90],[-11,14]],[[97962,8437],[46,368],[33,47],[101,-87],[14,-95],[15,-172],[11,24],[12,-86],[35,-404],[-2,-87],[-31,-23],[-20,163],[-7,-36],[-11,-266],[-13,-54],[-34,62],[-26,-175],[-26,137],[-13,171],[1,193],[-4,74],[-31,238],[-16,-21],[-20,-80],[-12,31],[-2,78]],[[3576,12709],[3,53],[26,59],[-1,92],[15,75],[6,-125],[1,-253],[-15,-193],[-29,44],[-6,248]],[[3147,10341],[27,184],[16,193],[29,-3],[26,39],[10,257],[20,-46],[11,-72],[5,180],[13,101],[24,-83],[13,27],[-1,206],[19,82],[-13,126],[-7,249],[4,107],[12,58],[11,-88],[17,24],[-1,102],[-16,108],[-1,100],[9,119],[10,36],[29,6],[11,-219],[13,-138],[4,67],[-9,144],[11,45],[5,128],[-43,188],[-11,87],[-12,-109],[-18,158],[-6,161],[-16,46],[-1,147],[14,101],[8,226],[11,44],[8,133],[9,-16],[25,158],[14,-45],[25,171],[12,-76],[10,87],[11,-52],[7,-103],[0,-149],[-13,-162],[8,-152],[1,-117],[15,46],[7,98],[8,-59],[17,83],[9,211],[2,197],[15,41],[-7,-224],[12,-7],[15,175],[6,-50],[2,-240],[4,-202],[-13,-69],[-13,18],[-15,-149],[-8,-172],[-16,-94],[-13,5],[6,-146],[-22,-79],[8,-81],[20,-28],[6,136],[33,179],[8,-251],[12,-154],[-6,-101],[-39,-128],[-6,-112],[-29,-53],[-6,-337],[-14,-5],[-10,-344],[-22,108],[-10,227],[-7,-38],[15,-297],[1,-109],[-7,-104],[-8,63],[-7,-83],[-11,114],[-4,-157],[-15,56],[-7,111],[-8,-77],[-19,0],[-10,-133],[-15,18],[-7,-106],[-15,-108],[-21,-63],[-3,-176],[-18,7],[-23,-74],[-12,-212],[-18,-14],[-12,57],[-6,-170],[-22,79],[-24,42],[-2,77],[-15,93]],[[2795,7916],[13,72],[5,91],[17,85],[10,137],[-5,70],[3,114],[12,-37],[18,121],[-5,253],[20,120],[8,174],[1,130],[-10,72],[3,239],[6,124],[22,252],[8,0],[13,220],[22,-112],[24,115],[4,-96],[26,45],[0,158],[-8,109],[-16,36],[12,287],[-6,198],[18,245],[16,97],[14,182],[26,78],[15,78],[15,-19],[8,55],[12,-74],[2,-91],[14,-55],[32,-4],[2,-105],[-6,-120],[-14,-141],[4,-305],[-19,-155],[-20,-95],[-6,-77],[-31,-157],[-2,-64],[-42,-169],[-17,-187],[-9,-173],[-2,-125],[-22,-338],[-2,-106],[-18,-84],[-18,-48],[-14,-202],[-22,-122],[-14,-29],[-4,-134],[-21,-79],[-5,-64],[-31,-201],[-11,7],[-7,-151],[-18,-45]],[[2614,8710],[4,192],[19,73],[4,-145],[-9,-245],[-12,-23],[-6,148]],[[2608,26725],[56,-64],[24,22],[9,-60],[-9,-117],[-10,-31],[-12,-159],[-16,30],[-9,72],[-2,117],[-20,54],[-11,136]],[[2604,9082],[9,124],[6,-178],[-15,54]],[[2545,7963],[7,128],[11,22],[16,-59],[6,123],[34,79],[20,-104],[0,-243],[-11,-103],[-10,-20],[-30,156],[-18,-191],[-8,-8],[-13,112],[-4,108]],[[2515,8300],[9,115],[20,-36],[5,-58],[-2,-140],[-12,-76],[-12,47],[-8,148]],[[2497,7431],[4,289],[16,29],[17,-96],[-7,-239],[-13,-19],[-17,36]],[[2431,29441],[1,149],[32,135],[20,-42],[28,76],[-12,-315],[-23,-109],[-46,106]],[[2314,6624],[6,365],[18,69],[8,164],[9,-12],[8,104],[18,-50],[11,-80],[-1,-164],[-12,-197],[-21,-1],[-15,-86],[-16,-202],[-13,90]],[[2220,6628],[11,119],[5,-141],[-16,22]],[[2182,6232],[6,163],[12,73],[15,-178],[-13,-207],[-18,27],[-2,122]],[[1815,5183],[17,386],[22,109],[5,67],[19,35],[8,-121],[14,-6],[6,-57],[-3,-185],[-21,-121],[-15,-47],[-8,-86],[-22,-49],[-18,2],[-4,73]],[[1419,4486],[30,-18],[17,58],[-4,-134],[31,3],[5,96],[17,11],[32,93],[14,-159],[13,-83],[30,2],[10,-29],[22,55],[12,-72],[12,74],[14,-106],[8,67],[23,-14],[1,-114],[-21,8],[-15,-88],[-54,-39],[-8,-63],[-29,29],[-19,-100],[-7,97],[-23,71],[-26,-51],[-10,17],[-14,-56],[-12,66],[-16,7],[-14,255],[-8,-29],[-11,146]],[[1060,3955],[12,-19],[12,112],[11,-45],[8,105],[16,23],[10,-113],[12,106],[6,107],[11,-92],[18,172],[12,28],[12,-45],[26,19],[7,128],[13,-72],[21,79],[15,126],[-5,133],[14,-16],[16,145],[17,88],[15,-107],[13,137],[18,139],[-3,116],[-32,16],[-10,77],[-16,37],[2,121],[27,-43],[6,106],[-3,170],[13,20],[4,87],[14,27],[19,96],[10,-98],[12,-40],[5,-101],[13,-55],[-1,-100],[7,-147],[-2,-107],[-12,-128],[-7,-197],[-35,35],[-5,-86],[14,-106],[2,-110],[17,-156],[-6,-122],[-9,56],[-21,-122],[-15,-24],[-3,92],[-13,35],[-18,-159],[-1,-137],[-10,-117],[-15,175],[-31,-127],[-7,-88],[-18,45],[-7,-152],[-6,-6],[-16,121],[-10,-8],[-18,81],[-9,-62],[-12,19],[-16,-157],[-52,-2],[-17,60],[-10,-51],[-9,78]],[[911,3560],[22,77],[5,-169],[-11,-19],[-5,85],[-11,26]],[[888,3762],[13,53],[22,-22],[-13,-131],[-22,100]],[[844,3283],[14,75],[22,43],[-2,-110],[9,-84],[0,-131],[-43,207]],[[818,4144],[1,64],[18,198],[25,-45],[11,-271],[9,-111],[-19,-50],[7,-178],[-17,-57],[0,86],[-27,62],[1,77],[-9,225]],[[811,2990],[9,97],[-1,164],[10,-7],[10,-121],[30,-58],[0,-90],[-14,-25],[-9,-109],[-17,-123],[1,130],[-14,62],[-5,80]],[[600,2000],[7,238],[19,96],[10,122],[-1,171],[-10,76],[-3,170],[13,103],[6,-99],[14,115],[9,178],[0,85],[-13,235],[11,175],[14,18],[15,-80],[21,242],[10,-42],[-3,-218],[5,-158],[-20,-79],[-1,-158],[22,-166],[14,76],[11,-58],[15,141],[17,-24],[9,55],[7,-66],[-2,-117],[6,-121],[0,-147],[-8,-70],[-6,-169],[-8,-44],[-15,47],[-1,261],[-7,-12],[0,-235],[-13,38],[-26,-260],[-26,-20],[-6,-68],[-11,19],[-1,-275],[-9,69],[-14,-143],[-1,189],[-6,166],[-19,-209],[-11,-237],[-11,64],[-3,126]],[[402,2386],[18,143],[23,-74],[11,19],[20,167],[14,23],[30,93],[22,175],[3,566],[5,59],[25,-66],[10,-104],[-6,-123],[2,-123],[-18,-141],[-1,-125],[6,-105],[-2,-274],[-7,-117],[-16,-12],[-20,-123],[-6,32],[-18,238],[-23,-37],[-17,-134],[-28,33],[-10,-87],[2,-139],[-10,-4],[-1,138],[-8,102]],[[256,3232],[9,151],[19,53],[21,-32],[21,24],[20,-202],[-5,-94],[17,-62],[10,-77],[11,70],[14,-88],[12,90],[16,25],[4,-82],[-16,-92],[-10,8],[-20,-106],[-15,-310],[3,-188],[-10,-83],[-15,-24],[-2,-125],[7,-226],[-9,-24],[-9,251],[-19,24],[-2,96],[-12,-57],[-10,83],[11,129],[10,4],[24,88],[0,254],[-16,89],[-12,-50],[-11,188],[-31,178],[-5,117]],[[128,1867],[12,61],[21,-81],[-7,-82],[-22,39],[-4,63]],[[79,1735],[34,-98],[2,-64],[-24,-14],[-12,176]],[[77,2774],[3,168],[7,75],[11,1],[13,-124],[4,-137],[-10,-170],[-12,-6],[-16,193]],[[44,779],[3,77],[16,-102],[3,-178],[-12,-47],[-10,45],[5,116],[-5,89]],[[0,253],[9,117],[11,-91],[0,-118],[-7,-161],[-11,25],[-2,228]],[[7998,40399],[18,54],[-3,-199],[-15,145]],[[7905,40140],[10,216],[7,34],[4,243],[24,-120],[-2,-212],[-12,-87],[-5,-145],[-11,-79],[-15,150]],[[7695,39290],[21,-71],[-6,-95],[-14,84],[-1,82]],[[7640,39134],[6,70],[18,-98],[-6,-73],[-18,101]],[[7596,39332],[17,109],[9,-71],[-5,-141],[-21,103]],[[8495,47113],[0,-156]],[[8495,46893],[0,-72]],[[8495,45980],[-17,-182],[15,-15]],[[8491,43128],[-21,176],[-15,-20],[-6,-105],[-11,-36],[-16,232],[-11,10],[-10,-95],[-37,53],[1,87],[23,311],[-7,53],[-28,-133],[-4,-127],[-13,-178],[-4,-190],[-17,-52],[2,257],[-8,12],[-6,524],[-6,75],[-1,139],[-17,-28],[-4,-407],[15,-189],[-11,-83],[-15,-238],[-14,-41],[-9,-110],[-7,-275],[-9,-146],[-10,193],[-1,364],[-7,113],[-15,-35],[6,-227],[-9,-168],[3,-177],[-17,117],[-3,-92],[7,-138],[1,-205],[8,-45],[4,-444],[-11,67],[5,122],[-34,181],[-8,151],[-13,-3],[-13,114],[-16,-84],[26,-120],[14,-175],[-3,-237],[-31,-99],[-11,76],[-9,-475],[-22,-83],[-11,-127],[-6,-206],[-16,-13],[2,-249],[-27,-215],[-8,41],[5,133],[18,189],[-11,71],[15,154],[-9,43],[22,323],[-8,56],[15,182],[5,310],[8,147],[-4,96],[-21,-417],[-4,-144],[-17,-297],[-8,-40],[-6,-223],[-15,-270],[-10,29],[-1,147],[-12,174],[17,225],[-18,11],[-6,-148],[-19,-39],[23,-238],[0,-233],[-7,-109],[-15,-36],[-10,80],[-12,-41],[-9,-242],[-21,-132],[-21,-225],[9,-178],[-14,-165],[-23,24],[7,94],[-13,178],[-16,-193],[0,-124],[-18,-135],[-28,121],[-11,-86],[-20,173],[-16,43],[-19,-120],[-1,-166],[-19,45],[0,-156],[-11,-41],[-38,-18],[-2,193],[-29,51],[-16,91],[9,105],[-25,28],[-4,283],[8,160],[24,78],[-6,203],[5,105],[30,123],[14,-33],[5,148],[14,70],[23,-79],[19,72],[17,292],[15,4],[11,120],[25,142],[12,-20],[8,83],[-5,161],[27,166],[-2,116],[27,310],[13,78],[-5,103],[-28,-52],[-31,-257],[-39,-251],[-23,-67],[-19,-184],[-42,77],[-45,295],[-15,195],[-4,123],[11,206],[9,336],[11,147],[12,486],[28,425],[28,247],[26,337],[8,182],[4,235],[0,324],[23,149],[5,597],[3,180],[-19,192],[-7,327],[-12,223],[-1,109],[13,74],[26,79],[2,104],[12,38],[30,17],[24,64],[4,65],[51,373],[32,248],[10,117],[13,44],[65,352],[15,-69],[15,-288],[26,-321],[16,3],[13,-80],[19,-9],[21,72],[12,205],[14,136],[24,4],[28,-115],[6,-105],[23,58],[26,-87],[11,-79],[22,-38],[25,3],[26,-39],[25,-106],[13,-98]],[[7539,45227],[3,89],[18,45],[13,304],[-1,216],[12,192],[25,-145],[-17,-107],[2,-90],[-16,-88],[-10,-168],[7,-118],[-8,-58],[-28,-72]],[[7385,44336],[5,78],[15,-107],[-6,-226],[-14,255]],[[7200,37839],[14,1]],[[7124,40421],[4,79],[18,4],[22,108],[8,-16],[12,-183],[-5,-178],[-15,-53],[-26,-35],[-11,73],[2,112],[-9,89]],[[7849,49422],[-17,-96],[-10,-130],[-19,-390],[-7,-96],[-40,-75],[-9,-99],[-41,3],[-37,-268],[-6,-80],[-36,-323],[-8,-196],[26,-521],[-3,-109],[-25,99],[-11,95],[-13,-103],[-23,-71],[-16,-160],[-13,-189],[-6,-216],[-14,-71],[-32,-245],[-12,-147],[-6,-167],[0,-151],[7,-129],[18,-121],[-36,-205],[-6,-238],[-21,-114],[-19,-164],[-4,-89],[-17,-39],[-14,102],[-16,1],[-9,-86],[-37,86],[8,-116],[25,-120],[25,-194],[5,-169],[17,-98],[7,-116],[-8,-305],[-23,-264],[-7,-253],[-23,-85],[-5,-88],[-22,25],[-41,1],[-10,-53],[-35,-98],[1,-136],[13,-82],[16,124],[19,4],[8,-119],[-2,-140],[-13,-376],[-13,-114],[-15,-54],[-3,-82],[-18,-102],[-11,21],[-6,152],[-10,-31],[4,-161],[-10,-48],[-23,143],[9,68],[5,174],[-3,163],[-14,211],[-8,-53],[5,-234],[-6,-322],[-7,-73],[-21,-1],[-17,40],[-20,-25],[6,-92],[16,45],[17,-206],[-7,-174],[-38,-13],[-15,-133],[11,-94],[9,-206],[-7,-143],[-27,-86],[-22,-3],[-13,-166],[-21,-34],[-6,62],[-16,-114],[2,-112],[14,45],[8,-109],[-26,-141],[-6,-166],[-5,-343],[-5,-107],[-16,-47],[-9,-203],[24,-36],[1,-96],[-9,-196],[10,-166],[13,17],[15,202],[13,7],[46,-98],[18,121],[11,-64],[13,50],[26,-346],[24,-113],[10,80],[34,-367],[10,0],[4,-350]],[[6919,36836],[-92,0],[0,430],[-15,0],[0,1720],[-14,0],[-1,859],[94,1],[0,859],[81,0],[0,430],[47,0],[0,860],[48,0],[0,430],[35,0],[0,1720],[36,0],[0,1719],[36,0],[0,1719],[-12,0],[0,430]],[[6169,37992],[192,0],[0,-1335],[-156,0],[-107,0]],[[6098,36657],[25,256],[25,196],[4,114],[1,193],[19,257],[1,152],[-4,167]],[[6079,26349],[16,204],[29,22],[25,-17],[17,-159],[-29,20],[-9,-121],[-49,51]],[[5918,25397],[21,101],[9,-222],[-8,-62],[-22,183]],[[5643,28044],[0,-39]],[[5641,22817],[8,259],[20,73],[14,-86],[1,-126],[-28,30],[-5,-151],[-10,1]],[[5562,22897],[10,170],[14,-109],[1,-105],[-13,-31],[-12,75]],[[5511,22652],[15,110],[6,-83],[-5,-153],[-16,126]],[[5502,22283],[8,267],[10,-68],[-18,-199]],[[5643,27683],[21,-93],[47,70],[-1,206],[-12,217],[4,172],[-4,76],[2,174],[7,201],[34,553],[45,602],[20,214],[34,229],[28,106],[1,70],[26,208],[16,301],[17,98],[23,241],[24,114],[12,-225],[4,-151],[12,-4],[9,160],[-9,452],[-27,12],[-4,115],[2,361],[13,438],[6,485],[7,618],[7,436],[10,251],[33,30],[8,58],[4,139],[-15,10],[-26,319],[-3,309],[3,274],[15,431],[8,146],[21,88],[12,120],[21,343]],[[6169,37992],[9,141],[0,169],[7,174],[-19,-77],[-9,-127],[1,-137],[-11,-198],[-31,-117]],[[6356,29520],[-10,-172],[-22,-163],[2,-137],[-10,-26],[-11,-145],[-18,-20],[8,-220],[-3,-92],[-31,121],[-13,163],[-17,-61],[10,-138],[-11,-142],[-6,-321],[-12,107],[-11,192],[-12,-50],[-6,-209],[-20,-108],[-14,-277],[-17,-9],[-5,-88],[4,-128],[-8,-87],[-15,8],[-44,436],[-15,-17],[-10,-124],[2,-119],[12,-48],[5,-134],[-30,-40],[-7,-83],[-7,-209],[3,-124],[11,-71],[8,27],[9,-153],[-11,-117],[-32,14],[-19,-46],[-9,69],[-9,250],[-14,3],[-13,-90],[-26,-94],[-8,-142],[-19,-36],[-27,-245],[-1,-121],[45,180],[34,5],[3,-337],[-15,-124],[-21,72],[-19,111],[-20,12],[-8,-253],[-15,-28],[-40,133],[-23,-154],[-16,-271],[-12,-115],[10,-167],[20,-68],[19,-11],[14,-106],[23,-67],[-5,-106],[-26,-159],[4,-121],[10,-94],[24,214],[4,-95],[-7,-124],[-9,4],[-37,-214],[-7,120],[-17,-166],[12,-255],[-8,-27],[-9,-138],[13,-60],[-2,-196],[-22,16],[-5,-125],[-13,248],[-10,53],[3,491],[-16,-143],[-11,-28],[6,-232],[-2,-122],[7,-81],[-1,-143],[-14,-42],[-8,-142],[-7,36],[8,220],[-26,-76],[-9,120],[-19,-426],[-24,2],[-2,-187],[-7,12],[-11,152],[-17,-73],[-10,-94],[-10,45],[-21,-51],[-3,-111],[-16,58],[-15,-109],[0,-286],[-9,-23],[-8,122],[-2,271],[-6,133],[-11,-67],[-4,-104],[9,-120],[5,-397],[-17,-252],[6,-66],[-2,-249],[-5,-43]],[[12199,40295],[9,452],[-9,29],[-7,-425]],[[12100,42179],[66,338],[33,-300],[30,-195],[9,-176],[18,-184],[11,-13],[25,-295],[0,-441],[-14,-114],[-6,-120],[31,-201],[-12,-202]],[[12698,32999],[110,1346]],[[12808,34345],[28,-748],[57,-778],[32,-683],[27,-425],[2,-60]],[[12691,32469],[11,43],[-7,258],[3,229]],[[12682,32811],[-1,-250],[-18,6]],[[12663,32567],[19,244]],[[12613,29980],[5,198],[18,-57],[-23,-141]],[[12517,33069],[8,-8],[8,-203],[15,-257],[-6,-47],[-16,223],[4,57],[-13,235]],[[12499,33382],[23,-84],[5,-153],[-15,-20],[-13,257]],[[12364,34023],[20,-266],[7,-12],[12,156],[21,-21],[4,205],[19,-19],[15,102],[67,210]],[[12529,34378],[3,-148],[-10,-65],[3,-152],[25,-312],[0,-164],[31,-374],[-4,-90],[29,-432],[-1,-195],[4,-138],[-1,-277],[23,-274],[3,-219],[-10,-39],[-5,215],[-16,216],[-16,162],[-15,352],[2,118],[-7,139],[-17,158],[-12,159],[-7,234],[3,138],[-18,280],[-26,92],[21,-234],[-8,-31],[-16,98],[5,-235],[8,-173],[0,-132],[8,-81],[26,-451],[15,-316],[16,-221],[20,-175],[11,-154],[-3,-198],[5,-162],[12,-146],[-12,-202],[14,-214],[-2,-88],[7,-190],[-20,-159],[-8,-140],[-14,89],[-21,35],[-10,103],[-9,-47],[6,-179],[11,-128],[-1,-91],[-15,-85],[-2,-196],[-15,-158],[-13,40],[-12,-229],[-7,-60],[-18,19],[-5,-77],[10,-99],[-31,-219],[3,-111],[-20,-17],[-17,110],[-8,308],[0,144],[9,107],[-11,151],[-2,217],[20,51],[-10,95],[15,232],[14,48],[-7,105],[-12,26],[3,169],[23,-23],[5,99],[-21,299],[-11,95],[-8,453],[-17,271],[-15,479],[-2,134],[7,215],[1,227],[-11,341],[-4,401],[-14,321],[11,200]],[[12380,34735],[-17,-311],[-1,-334]],[[12362,34090],[-7,28],[-5,182],[-10,174],[-12,87],[-16,580],[2,113],[-6,175],[4,205],[11,-159],[8,-285],[15,101],[8,-96],[1,-119],[14,-136],[11,-205]],[[12229,34445],[-2,20]],[[12096,35430],[19,72],[12,-25],[23,-176],[-4,-71],[-27,-11],[-11,37],[-12,174]],[[11977,34993],[11,113],[22,76],[1,-230],[-12,-62],[-15,12],[-7,91]],[[11908,34941],[25,5],[10,-49],[-7,-148],[-14,30],[-14,162]],[[11915,32765],[-2,0]],[[11902,32761],[-19,196],[3,131],[-19,67],[-6,109],[4,276],[-4,234],[2,148],[8,160],[20,7],[5,108],[23,144],[17,-85],[-5,180],[-9,123],[0,144],[22,-107],[9,-83],[2,-137],[28,335],[27,-28],[6,-133],[33,279],[8,15],[13,155],[13,10],[12,-221],[58,-259],[9,-81],[-8,-107],[0,-147],[-28,-352],[-12,32],[-3,-121],[14,-45],[-2,-174],[11,14],[10,224],[17,265],[13,67],[-2,159],[18,33],[33,-216],[27,-55],[17,25],[7,-135],[32,-77],[7,-42],[11,-309],[-7,-113],[4,-154],[-21,-168],[-12,28],[-42,243],[-1,-55],[18,-231],[26,-110],[3,-120],[20,-128],[-15,-137],[-28,-100]],[[11596,38107],[22,2],[51,461],[111,675],[11,99],[68,32],[26,468]],[[12162,36077],[4,-171],[-6,-68],[12,-216],[-11,-159],[-17,162],[-17,84],[-17,-115],[-25,-25],[-16,-53],[-26,-23],[6,179],[0,241],[-12,-82],[-16,157],[19,174],[-11,117],[-1,152],[11,119],[14,35],[-11,140],[-11,334],[-14,86],[1,87],[-9,234],[-12,153],[2,93],[18,71],[-15,214],[2,205],[-26,254],[1,-174],[9,-115],[4,-284],[-15,-432],[1,-133],[-26,14],[-21,133],[-21,195],[-19,43],[-12,174],[-6,298],[-27,-15],[0,-150],[-35,213],[-34,152],[-7,117],[-13,78],[-24,313],[-10,-74],[6,-140],[28,-251],[9,-153],[-5,-113],[-24,31],[-8,-45],[-8,-199],[-11,-81],[4,-125],[23,337],[61,-123],[15,0],[23,-173],[14,23],[13,-61],[17,-174],[-22,-181],[14,-102],[24,-26],[16,-96],[11,-147],[-13,-169],[4,-155],[15,216],[14,-48],[20,-205],[-3,-103],[10,-153],[8,1],[5,-164],[10,-90],[0,-178],[8,-47],[4,-367],[6,-55],[-18,-176],[-16,-5],[-34,-152],[-7,53],[8,204],[-15,13],[-14,-59],[6,-135],[-9,-163],[-13,91],[-12,-63],[-22,75],[-5,134],[-15,-20],[7,-205],[12,-186],[-8,-220],[-26,-35],[-10,169],[-2,213],[-17,19],[-34,281],[6,167],[-9,75],[-26,63],[-16,-57],[-5,-84],[-19,213],[-68,426],[-16,164],[-41,279],[-19,106],[-2,204],[-31,309],[-38,297],[-4,121]],[[3837,83370],[-28,107],[-52,151],[-59,116],[-30,165],[-17,285],[-26,205],[-28,154],[-48,177],[-50,124],[-65,72],[22,78],[64,174],[39,133],[19,189],[0,253],[19,223],[12,1145],[-10,421],[49,-21],[107,-91],[29,-11],[77,47],[117,161],[44,48],[28,66],[35,0],[76,93],[38,164],[45,155],[24,190],[40,190],[35,263],[25,302],[32,260],[36,389],[21,488],[1,557],[-2,364],[3,164],[33,808],[13,164],[78,710],[34,422],[28,309],[39,347],[111,569],[16,102],[71,-116],[50,-55],[44,10],[65,155],[78,281],[65,309],[60,362],[33,221],[30,274],[15,79],[43,326],[26,148],[41,316],[29,110],[64,165],[33,-14],[3,-149],[-44,-64],[0,-116],[41,-105],[57,23],[12,159],[79,-56],[60,104],[14,-37],[19,101],[33,-9],[51,68],[73,221],[74,361],[61,413],[90,893],[42,372],[46,253],[21,73],[10,-282],[26,-26],[20,-142],[21,13],[60,-127],[-3,-83],[38,-177],[58,31],[49,-150],[0,-129],[15,-200],[-8,-176],[-47,-254],[-5,-132],[-82,-119],[7,-48],[21,-456],[13,-139],[48,26],[27,-52],[9,100],[24,60],[2,123],[-8,307],[12,9],[28,249],[31,103],[13,-179],[15,121],[-28,355],[29,153],[9,-164],[13,-16],[0,410],[44,-180],[44,-230],[37,-244],[16,-154],[-11,-87],[-3,-141],[4,-432],[5,-123],[27,-42],[40,34],[25,-71],[20,-237],[30,105],[21,142],[16,289],[52,61],[58,-25],[40,36],[42,137],[59,-38],[10,-79],[23,-24],[15,-194],[15,-15],[10,166],[55,-1],[51,-119],[48,-153],[9,-130],[-31,-103],[-21,-321],[-27,-120],[4,-272],[11,-127],[67,-125],[29,-2],[3,-99],[-40,90],[-55,-50],[-29,45],[-13,-87],[12,-124],[23,66],[59,-63],[28,58],[19,-31],[20,97],[70,-111],[-28,-281],[-23,-52],[-7,-141],[18,-79],[47,2],[38,40],[76,-191],[14,-141],[28,26],[28,249],[27,157],[26,-38],[19,57],[25,-77],[10,148],[40,27],[29,-116],[15,-251],[46,126],[24,-26],[18,87],[50,318],[24,-120],[18,91],[37,-45],[32,101],[13,-126],[24,52],[15,-64],[35,-27],[26,-95],[33,-217],[10,18],[33,-107],[20,49],[37,-75],[31,-191],[-3,-167],[22,-110],[14,0],[27,146],[7,-133],[14,-62],[21,242],[25,-168],[21,-20],[18,-188],[23,44],[-4,-153],[8,-139],[30,-61],[38,4],[42,-94],[28,46],[31,-207],[51,3],[39,138],[53,-34],[38,58],[64,-42],[18,-68],[27,-20],[20,-71],[36,-67],[22,150],[25,-178],[39,-209],[41,-122],[10,-122],[48,-107],[24,-109],[78,-141],[19,94],[31,-69],[24,-9],[16,63],[34,279],[45,24],[12,89],[31,93],[53,115],[12,100],[23,-63],[14,86],[63,97],[28,-96],[20,18],[28,123],[15,-83],[62,-258],[64,-187],[39,-172],[37,-203],[-4,-83],[36,-155],[22,-57],[45,-235],[51,-204],[59,-148],[47,-210],[35,-244],[7,-214],[17,-132],[32,-10],[14,261],[23,-46],[33,-135],[0,-1785],[0,-2005],[-1,-1904]],[[3957,56699],[22,43],[6,-51],[8,-259],[-18,-39],[-17,129],[-1,177]],[[3947,56219],[27,27],[3,-105],[-27,30],[-3,48]],[[3933,56502],[8,108],[13,-177],[-16,-70],[-5,139]],[[3906,48087],[-15,136],[-3,171],[21,161],[26,-24],[21,78],[-1,213],[-17,-79],[-30,125],[-5,114],[-13,87],[3,120],[-18,36],[-17,151],[-16,-266],[-3,-219],[-8,-23],[-40,55],[-16,98],[-8,286],[3,145],[-7,159],[13,222],[-5,96],[-23,2],[-26,99],[-14,-18],[-11,94],[-13,306],[1,147],[42,186],[2,206],[-15,159],[-10,-2],[-26,121],[-16,-76],[-22,-46],[-7,-95],[-11,33],[-11,371],[4,216],[33,12],[41,116],[37,75],[-25,112],[-14,-6],[-25,103],[-13,228],[-14,152],[1,97],[48,69],[15,-33],[18,24],[7,-65],[13,133],[33,59],[-19,205],[-10,180],[-10,272],[-1,266],[7,252],[5,32],[16,322],[8,29],[34,435],[22,242],[20,269],[9,14],[5,160],[16,243],[13,152],[40,312],[12,18],[20,-55],[23,27],[8,-181],[15,207],[-21,50],[1,106],[22,107],[-15,285],[-4,253],[-8,87],[4,148],[-4,201],[23,775],[22,322],[14,100],[27,-17],[8,118],[-15,373],[48,450],[25,132],[40,77],[36,20],[17,-50],[34,-164],[14,-43],[23,6],[0,-71],[38,-319],[19,8],[12,-173],[18,-79],[15,-137],[6,-137],[15,59],[52,50],[18,60],[19,233],[17,69],[18,150],[7,260],[15,57],[12,-29],[16,66],[23,234]],[[13119,23964],[13,90],[8,-251],[-11,-138],[-10,299]],[[13001,26506],[9,129],[12,-55],[-14,-109],[-7,35]],[[12979,25595],[7,171],[12,96],[25,-174],[-25,-249],[-15,38],[-4,118]],[[13103,28094],[-2,-82],[70,-336],[-8,-259],[11,-252],[7,-515],[71,65],[31,-295],[83,-512],[24,-216]],[[13080,21862],[-8,327],[-2,219],[12,-21],[2,316],[31,33],[-6,201],[13,159],[-6,205],[8,178],[21,44],[3,148],[-7,315],[2,311],[0,240],[23,46],[5,104],[13,-60],[15,68],[17,-90],[4,141],[-17,43],[-13,-37],[-19,67],[-19,-183],[-15,7],[-6,-59],[-3,-245],[-13,-85],[-14,248],[-16,-38],[23,-273],[-16,-100],[-20,-15],[20,-358],[-3,-85],[10,-149],[-1,-105],[-14,-48],[-5,145],[-10,-152],[-11,-18],[-11,-181],[3,-129],[-18,-60],[-8,167],[10,219],[-11,113],[-11,12],[1,326],[-9,-13],[-6,235],[-16,-36],[-10,106],[-8,-170],[-7,-56],[-18,374],[-5,179],[8,114],[-6,238],[12,127],[20,-6],[8,286],[12,207],[8,-9],[18,79],[16,-218],[-5,-351],[22,-228],[12,76],[-15,142],[-10,233],[7,291],[-7,161],[8,112],[-13,239],[-3,192],[39,-169],[6,-170],[-2,-88],[14,-152],[3,161],[-9,285],[-15,148],[-27,202],[-2,335],[8,226],[-23,-155],[-16,-30],[-24,126],[9,340],[-7,91]],[[12873,24320],[6,97],[12,-52],[0,-119],[-12,-19],[-6,93]],[[12856,24660],[11,4],[15,-128],[-11,-43],[-15,167]],[[12855,24793],[0,91],[21,-56],[-2,-130],[-19,95]],[[12837,25440],[7,81],[12,287],[14,117],[23,18],[12,-74],[22,81],[22,-79],[11,-119],[2,-147],[-15,-188],[7,-267],[-2,-93],[-19,-108],[-20,-33],[-21,-86],[-3,79],[-16,126],[-3,79],[-31,206],[-2,120]],[[12380,34735],[4,-338],[17,11],[28,96],[10,-51],[22,-12],[13,-95],[15,-33],[25,67],[15,-2]],[[12364,34023],[-2,67]],[[12321,35966],[22,-273],[8,-203],[-7,-25],[-23,501]],[[12489,38378],[-4,-200],[21,-309],[80,-465],[37,-188],[37,-581],[42,-442],[50,-459],[-24,-213],[33,-552],[21,-244],[26,-380]],[[12698,32999],[-16,-188]],[[12663,32567],[-8,63],[-16,369],[-19,271],[5,167],[20,140],[10,-231],[9,45],[-19,462],[-12,-63],[2,-173],[-25,-150],[-11,55],[-35,437],[-5,116],[1,193],[-6,257],[1,133],[8,60],[-1,183],[-6,85],[21,77],[11,112],[-11,128],[3,97],[-13,192],[-5,-341],[-20,-137],[-5,-118],[13,-183],[-8,-62],[-5,-157],[-10,38],[-26,-86],[-21,47],[-14,92],[-22,53],[-7,-66],[-23,68],[-22,244],[-6,108],[11,87],[2,290],[-24,-15],[-9,222],[-10,405],[-12,91],[-4,115],[-20,326],[-5,45],[-13,295],[20,21],[-7,106],[4,252],[-1,142],[-15,156],[-8,-256],[-14,9],[-4,132],[-16,199],[-4,130],[4,90],[-9,269],[-1,226]]],"bbox":[-179.146711,51.226112,179.773922,71.387313],"transform":{"scale":[0.003589242222422224,0.00020161402614026145],"translate":[-179.146711,51.226112]},"objects":{"in":{"type":"GeometryCollection","geometries":[{"arcs":[[0,1,2]],"type":"Polygon","properties":{"geoid":"02090","name":"Fairbanks North Star"},"id":"02090"},{"arcs":[[-1,3,4,5,6,7]],"type":"Polygon","properties":{"geoid":"02240","name":"Southeast Fairbanks"},"id":"02240"},{"arcs":[[[8]],[[9]],[[10]],[[11]],[[12]],[[13,14,15,16]]],"type":"MultiPolygon","properties":{"geoid":"02130","name":"Ketchikan Gateway"},"id":"02130"},{"arcs":[[[17]],[[18,19,20,21,22,23,24,25,26]],[[27]],[[28]],[[29]]],"type":"MultiPolygon","properties":{"geoid":"02050","name":"Bethel"},"id":"02050"},{"arcs":[[[30]],[[31,32,33,34,35]]],"type":"MultiPolygon","properties":{"geoid":"02282","name":"Yakutat"},"id":"02282"},{"arcs":[[36,37,38,39]],"type":"Polygon","properties":{"geoid":"02188","name":"Northwest Arctic"},"id":"02188"},{"arcs":[[40,-7,41,42,43,44,45,-21,46]],"type":"Polygon","properties":{"geoid":"02170","name":"Matanuska-Susitna"},"id":"02170"},{"arcs":[[[-44,47,48,49]],[[50]]],"type":"MultiPolygon","properties":{"geoid":"02020","name":"Anchorage"},"id":"02020"},{"arcs":[[-42,-6,51,-32,52]],"type":"Polygon","properties":{"geoid":"02066","name":"Copper River"},"id":"02066"},{"arcs":[[[53]],[[54]],[[55]],[[56]],[[57]],[[58]],[[59]],[[60]],[[61]],[[62]],[[63,64,65,66,67]],[[68]],[[69]]],"type":"MultiPolygon","properties":{"geoid":"02150","name":"Kodiak Island"},"id":"02150"},{"arcs":[[70,-38,71,72,-4,-3,73,-47,-20,74]],"type":"Polygon","properties":{"geoid":"02290","name":"Yukon-Koyukuk"},"id":"02290"},{"arcs":[[[75]],[[76]],[[77]],[[78]],[[79]],[[80]],[[81]],[[82]],[[83]],[[84]],[[85]],[[86]],[[87]],[[88]],[[89]],[[90]],[[91]],[[92]],[[93]],[[94,95,96,97]],[[98]],[[99]],[[100]],[[101]],[[102]],[[103]],[[104]]],"type":"MultiPolygon","properties":{"geoid":"02013","name":"Aleutians East"},"id":"02013"},{"arcs":[[[107]],[[108,109,110,111]],[[112,113,114,115]]],"type":"MultiPolygon","properties":{"geoid":"02100","name":"Haines"},"id":"02100"},{"arcs":[[[116]],[[117,118]],[[119]],[[120,121]]],"type":"MultiPolygon","properties":{"geoid":"02220","name":"Sitka"},"id":"02220"},{"arcs":[[[124,125]],[[126,127,128,129]]],"type":"MultiPolygon","properties":{"geoid":"02195","name":"Petersburg"},"id":"02195"},{"arcs":[[[130]],[[-39,-71,131,132]],[[133]]],"type":"MultiPolygon","properties":{"geoid":"02180","name":"Nome"},"id":"02180"},{"arcs":[[[134]],[[135,136,-24]],[[137]],[[138,-26]]],"type":"MultiPolygon","properties":{"geoid":"02070","name":"Dillingham"},"id":"02070"},{"arcs":[[[139]],[[140]],[[141]],[[142]],[[143]],[[144]],[[145]],[[146]],[[147]],[[148]],[[149]],[[150]],[[151]],[[152]],[[153]],[[154]],[[155,156]],[[159,160]],[[-43,-53,-36,161,162,-48]]],"type":"MultiPolygon","properties":{"geoid":"02063","name":"Chugach"},"id":"02063"},{"arcs":[[-2,-8,-41,-74]],"type":"Polygon","properties":{"geoid":"02068","name":"Denali"},"id":"02068"},{"arcs":[[[163,-16]],[[164]],[[165]],[[166]],[[167]],[[168]],[[169]],[[170]],[[171]],[[172]],[[173]],[[174]],[[175]],[[-126,176]],[[177,-118]]],"type":"MultiPolygon","properties":{"geoid":"02198","name":"Prince of Wales-Hyder"},"id":"02198"},{"arcs":[[[178]],[[179]],[[180]],[[181]],[[182]],[[183]],[[184]],[[185]],[[186]],[[187]],[[188]],[[189]],[[190]],[[191]],[[192]],[[193]],[[194]],[[195]],[[196]],[[197]],[[198]],[[199]],[[200]],[[201]],[[202]],[[203]],[[204]],[[205]],[[206]],[[207]],[[208]],[[209]],[[210]],[[211]],[[212]],[[213]],[[214]],[[215]],[[216]]],"type":"MultiPolygon","properties":{"geoid":"02016","name":"Aleutians West"},"id":"02016"},{"arcs":[[[217]],[[218]],[[219]],[[220]],[[221]],[[-49,-163,222,-159,223,-157,224,-160,225]],[[226]],[[227]],[[229]],[[-22,-46,230,-64,231]]],"type":"MultiPolygon","properties":{"geoid":"02122","name":"Kenai Peninsula"},"id":"02122"},{"arcs":[[232,233]],"type":"Polygon","properties":{"geoid":"02060","name":"Bristol Bay"},"id":"02060"},{"arcs":[[[234]],[[235]],[[237]],[[238]],[[239]],[[240]],[[241,-233,242,-136,-23,-232,-68,243,-97]]],"type":"MultiPolygon","properties":{"geoid":"02164","name":"Lake and Peninsula"},"id":"02164"},{"arcs":[[-109,244,-113,245]],"type":"Polygon","properties":{"geoid":"02230","name":"Skagway"},"id":"02230"},{"arcs":[[[246,247,-127,248]],[[249,250]],[[251]],[[252]],[[253]],[[254,255]],[[256,257]],[[259]],[[260]],[[261]],[[-121,262,-123,263]],[[-34,264,-115,265]]],"type":"MultiPolygon","properties":{"geoid":"02105","name":"Hoonah-Angoon"},"id":"02105"},{"arcs":[[-72,-37,266]],"type":"Polygon","properties":{"geoid":"02185","name":"North Slope"},"id":"02185"},{"arcs":[[[267]],[[268]],[[269]],[[-132,-75,-19,270]]],"type":"MultiPolygon","properties":{"geoid":"02158","name":"Kusilvak"},"id":"02158"},{"arcs":[[[271]],[[272]],[[273]],[[-129,274,-14,275]],[[276]],[[277]],[[278]],[[279]]],"type":"MultiPolygon","properties":{"geoid":"02275","name":"Wrangell"},"id":"02275"},{"arcs":[[[280,-255,281,-257]],[[282]],[[-111,283,-247,284,-251,285]]],"type":"MultiPolygon","properties":{"geoid":"02110","name":"Juneau"},"id":"02110"}]}}}