{"type":"Topology","arcs":[[[43859,20663],[272,492],[-52,1152],[372,544],[1042,781],[1047,-100],[994,1220],[190,538],[248,1660]],[[47972,26950],[-723,-126]],[[47249,26824],[-914,477],[-424,1518],[-214,1457],[184,864]],[[45881,31140],[22,-7]],[[45903,31133],[77,-23]],[[45980,31110],[231,-33]],[[46211,31077],[324,-45]],[[46535,31032],[1747,-166]],[[48282,30866],[239,-10]],[[48521,30856],[1497,-298]],[[50018,30558],[82,-33]],[[50100,30525],[1245,22]],[[51345,30547],[567,221]],[[51912,30768],[261,99]],[[52173,30867],[343,108]],[[52516,30975],[361,69]],[[52877,31044],[207,30]],[[53084,31074],[458,-8]],[[53542,31066],[266,-29]],[[53808,31037],[1241,-234]],[[55049,30803],[93,-16]],[[55142,30787],[519,-47]],[[55661,30740],[7,109]],[[55668,30849],[37,561]],[[55705,31410],[38,508]],[[55743,31918],[623,-34]],[[56366,31884],[980,-58]],[[57346,31826],[475,-32]],[[57821,31794],[82,-6]],[[57903,31788],[1841,-105]],[[59744,31683],[183,-12]],[[59927,31671],[100,-6]],[[60027,31665],[1447,-90]],[[61474,31575],[410,11]],[[61884,31586],[118,49]],[[62002,31635],[485,196]],[[62487,31831],[278,72]],[[62765,31903],[228,30]],[[62993,31933],[242,9]],[[63235,31942],[193,-10]],[[63428,31932],[242,-47]],[[63670,31885],[282,-82]],[[63952,31803],[693,-277]],[[64645,31526],[1343,-222],[-13,-208]],[[65975,31096],[-8,-362]],[[65967,30734],[360,-1333]],[[66327,29401],[157,-262]],[[66484,29139],[128,-181]],[[66612,28958],[931,-805],[1597,-616]],[[69140,27537],[347,-121]],[[69487,27416],[1065,-388],[637,-392],[600,-641]],[[71789,25995],[580,-810]],[[72369,25185],[256,-346]],[[72625,24839],[1248,-1214],[731,-521]],[[74604,23104],[-17,-238]],[[74587,22866],[13,-9]],[[74600,22857],[-75,-438],[-3560,320],[-197,-2878],[-1879,112],[-225,-620],[-1030,652],[-1238,487],[-1501,35],[-1008,320],[60,1071],[-142,1037],[-7098,428],[230,-4252],[-587,35],[-46,-728],[-2196,102],[83,1356],[-1924,108],[-76,-1355],[-442,563],[-1218,88],[-100,-551],[-2174,201],[-597,267],[-547,612],[-987,-598],[514,-767],[676,-330],[567,489],[2721,-119],[-217,-2880],[-514,-307],[-70,-1011],[447,-20],[-45,-645],[2034,-136],[-124,-2112],[100,-468],[-241,-672],[-206,-1354],[367,-20],[-67,-914],[370,-1211],[-628,39],[-565,640],[-245,-793],[708,-838],[2153,-131],[-70,-1127],[510,-557],[424,-966],[306,68],[-1017,1437],[52,841],[1722,-112],[75,1287],[1099,-66],[27,500],[-711,42],[-24,-435],[-1428,81],[49,720],[-423,30],[-157,727],[67,1189],[868,91],[88,1347],[2649,-136],[475,-291],[-127,-1800],[722,135],[1309,528],[974,1051],[1178,-305],[390,-1107],[-140,-2096],[129,-574],[-919,60],[43,-598],[1344,-247],[43,684],[2000,-174],[729,-530],[-311,-299],[-864,489],[-875,-844],[-59,-688],[-729,-1031],[-128,-744],[-618,1],[-916,900],[83,882],[-952,-100],[-452,-296],[-1250,-1204],[-179,-679],[448,-884],[-2723,182],[250,786],[844,7],[252,1402],[1595,-190],[707,680],[124,461],[-2127,109],[-990,-187],[-1285,-3256],[-899,280],[-418,-332],[-709,222],[-349,-423],[-2167,1147],[39,759],[-612,30],[-136,-407],[-596,134],[-328,380],[-1622,89],[724,-2249],[-4799,298],[118,-458],[-2732,-335],[-716,244],[-124,458],[564,378],[-686,356],[-23,2293],[3576,-302],[113,860],[2577,-98],[27,323],[889,-36],[297,2814],[-1849,94],[-482,920],[153,1217],[235,659],[-357,669],[-956,-602],[-707,-145],[-365,490],[-210,1719],[667,2100],[-805,355],[-562,498],[-34,952],[-382,911],[82,1580],[776,540],[470,698],[215,718]],[[51537,23690],[-68,-1091],[3654,-184],[-92,-1460],[-1030,230],[-199,-631],[1249,-69],[186,2987],[-3700,218]],[[62771,4061],[-513,-55],[-222,-745],[528,-817],[550,-26],[96,1210],[-439,433]],[[59942,5978],[22,318],[-892,159],[-722,-373],[1592,-104]],[[50462,17655],[-1321,176],[-27,-374],[1338,-82],[10,280]],[[64707,22803],[100,324],[1045,-70],[570,-248],[300,-762],[421,-34],[819,1043],[-952,-29],[-2283,138],[-20,-362]],[[52113,41858],[86,0]],[[52199,41858],[11,0]],[[52210,41858],[25,0]],[[52235,41858],[22,0]],[[52257,41858],[38,0]],[[52295,41858],[157,-5]],[[52452,41853],[265,-13]],[[52717,41840],[70,-5]],[[52787,41835],[67,-4]],[[52854,41831],[94,-6]],[[52948,41825],[12,-1]],[[52960,41824],[176,-16]],[[53136,41808],[2118,-197],[2212,-61],[2520,-191]],[[59986,41359],[75,-32]],[[60061,41327],[539,-517],[141,-722]],[[60741,40088],[115,-807]],[[60856,39281],[581,-959]],[[61437,38322],[-6,1]],[[61431,38323],[-2682,191],[-2574,100]],[[56175,38614],[-295,11]],[[55880,38625],[-134,238]],[[55746,38863],[49,764]],[[55795,39627],[42,620]],[[55837,40247],[146,-8]],[[55983,40239],[11,150],[-1923,118]],[[54071,40507],[-242,15]],[[53829,40522],[-286,16]],[[53543,40538],[-69,16]],[[53474,40554],[-254,125]],[[53220,40679],[-700,279]],[[52520,40958],[-268,98]],[[52252,41056],[-1419,184]],[[50833,41240],[-11,0]],[[50822,41240],[29,541]],[[50851,41781],[171,17]],[[51022,41798],[264,26]],[[51286,41824],[178,14]],[[51464,41838],[11,1]],[[51475,41839],[74,6]],[[51549,41845],[400,13]],[[51949,41858],[164,0]],[[43022,39150],[0,-1]],[[43022,39149],[-437,-111]],[[42585,39038],[-3,-1]],[[42582,39037],[166,-916]],[[42748,38121],[345,-57]],[[43093,38064],[64,-222]],[[43157,37842],[52,-178]],[[43209,37664],[249,-11]],[[43458,37653],[576,-25]],[[44034,37628],[1177,-51]],[[45211,37577],[2904,-64]],[[48115,37513],[9,0]],[[48124,37513],[-143,-1002],[-684,-1165],[-205,-1196],[-740,-2122],[-471,-888]],[[47249,26824],[723,126]],[[43859,20663],[-3394,2426],[-3287,2135],[-1708,922],[-5302,1363],[1987,3067]],[[32155,30576],[2811,4345]],[[34966,34921],[103,111]],[[35069,35032],[610,656]],[[35679,35688],[605,649]],[[36284,36337],[216,233]],[[36500,36570],[452,485]],[[36952,37055],[240,258]],[[37192,37313],[722,679]],[[37914,37992],[1809,1691]],[[39723,39683],[68,-314]],[[39791,39369],[2950,992]],[[42741,40361],[281,-1211]],[[47371,60377],[133,-8]],[[47504,60369],[1090,105]],[[48594,60474],[96,8]],[[48690,60482],[38,-627]],[[48728,59855],[374,-6598]],[[49102,53257],[-43,2]],[[49059,53259],[107,-1855]],[[49166,51404],[18,-323]],[[49184,51081],[-2520,126]],[[46664,51207],[-1907,89]],[[44757,51296],[-86,4]],[[44671,51300],[-2203,106]],[[42468,51406],[111,1152]],[[42579,52558],[-17,249]],[[42562,52807],[-11,88]],[[42551,52895],[-2,149]],[[42549,53044],[19,484]],[[42568,53528],[27,239]],[[42595,53767],[5,41]],[[42600,53808],[31,118]],[[42631,53926],[9,76]],[[42640,54002],[-54,672]],[[42586,54674],[1,21]],[[42587,54695],[-37,1]],[[42550,54696],[2,-14]],[[42552,54682],[-27,-5]],[[42525,54677],[-1,8]],[[42524,54685],[402,1015]],[[42926,55700],[7,68]],[[42933,55768],[0,24]],[[42933,55792],[2,21]],[[42935,55813],[75,759]],[[43010,56572],[844,1094]],[[43854,57666],[18,33]],[[43872,57699],[318,1091]],[[44190,58790],[1,10]],[[44191,58800],[250,1363]],[[44441,60163],[893,-14]],[[45334,60149],[1066,253]],[[46400,60402],[55,-49]],[[46455,60353],[916,24]],[[26714,28270],[-1076,-721],[-1730,-1417],[-1178,-1120],[-2054,-852],[-31,-760],[-1566,70],[-583,-700],[-801,-1437],[-1334,-416],[-817,-1085],[-441,-345],[-244,-692],[-1833,84],[-457,1286],[390,884],[-598,481],[-1068,2554],[307,619],[-318,559],[226,581],[-618,471],[-582,974],[347,653],[5,1624],[-393,281],[-404,-305],[-1214,919],[-229,1411],[-1397,605],[-420,646],[326,950],[97,884],[-117,1136],[235,680],[129,2343],[-515,1463],[-363,439],[-420,2488],[2928,198]],[[8903,43703],[4963,342]],[[13866,44045],[697,30]],[[14563,44075],[49,4]],[[14612,44079],[626,42]],[[15238,44121],[5531,408]],[[20769,44529],[69,-1778]],[[20838,42751],[9,-187]],[[20847,42564],[-68,-1673],[-421,-2072]],[[20358,38819],[-21,-96]],[[20337,38723],[-572,-2555],[-49,-1024],[384,-1363],[389,-627],[2675,-3124],[1396,-1106],[2154,-654]],[[55894,58801],[-505,-1908],[853,-64],[-476,-1968],[-918,57],[-653,-2666]],[[54195,52252],[-2949,199],[51,688]],[[51297,53139],[120,1493],[18,1754],[-293,882],[-1251,1033]],[[49891,58301],[-56,58]],[[49835,58359],[-590,805]],[[49245,59164],[6649,-363]],[[53220,40679],[254,-125]],[[53474,40554],[69,-16]],[[53829,40522],[242,-15]],[[55983,40239],[-146,8]],[[55795,39627],[-49,-764]],[[55880,38625],[295,-11]],[[61431,38323],[17,-1]],[[61448,38322],[500,-34]],[[61948,38288],[312,-33]],[[62260,38255],[47,-561]],[[62307,37694],[45,-64]],[[62352,37630],[46,-64]],[[62398,37566],[13,-19]],[[62411,37547],[92,-130]],[[62503,37417],[15,-22]],[[62518,37395],[361,-239]],[[62879,37156],[5,-1]],[[62884,37155],[484,-1504]],[[63368,35651],[5,-55]],[[63373,35596],[24,-742],[-458,-318],[169,-538]],[[63108,33998],[3,-10]],[[63111,33988],[637,-1421],[428,-428]],[[64176,32139],[7,-6]],[[64183,32133],[462,-607]],[[63952,31803],[-282,82]],[[63670,31885],[-242,47]],[[63235,31942],[-242,-9]],[[62993,31933],[-228,-30]],[[62765,31903],[-278,-72]],[[62487,31831],[-485,-196]],[[62002,31635],[-118,-49]],[[61884,31586],[-410,-11]],[[60027,31665],[-100,6]],[[59744,31683],[-1841,105]],[[57821,31794],[-475,32]],[[56366,31884],[-623,34]],[[55705,31410],[-37,-561]],[[55668,30849],[-7,-109]],[[55142,30787],[-93,16]],[[53808,31037],[-266,29]],[[53084,31074],[-207,-30]],[[52877,31044],[-361,-69]],[[52516,30975],[-343,-108]],[[51912,30768],[-567,-221]],[[50100,30525],[-82,33]],[[48521,30856],[-239,10]],[[46535,31032],[-324,45]],[[45980,31110],[-77,23]],[[48124,37513],[285,0]],[[48409,37513],[39,2]],[[48448,37515],[4,1]],[[48452,37516],[309,105]],[[48761,37621],[205,27]],[[48966,37648],[30,-220],[1196,-61]],[[50192,37367],[106,1492]],[[50298,38859],[177,1830],[358,551]],[[52252,41056],[268,-98]],[[52409,49077],[-874,40]],[[51535,49117],[-1132,26],[-463,-176],[-508,-674]],[[49432,48293],[31,102]],[[49463,48395],[15,68]],[[49478,48463],[3,442]],[[49481,48905],[-36,123]],[[49445,49028],[-217,641],[-44,1412]],[[49166,51404],[-107,1855]],[[49059,53259],[43,-2]],[[49102,53257],[2195,-118]],[[54195,52252],[-96,-369]],[[54099,51883],[-40,-119]],[[54059,51764],[0,-2]],[[54059,51762],[-139,-292]],[[53920,51470],[-25,-79]],[[53895,51391],[-20,-75]],[[53875,51316],[-46,-160]],[[53829,51156],[-72,-280]],[[53757,50876],[-248,-940]],[[53509,49936],[-75,-164]],[[53434,49772],[-356,-428],[-669,-267]],[[92485,28551],[-1225,797],[-413,505],[-1110,730],[-1849,191],[-1037,488]],[[86851,31262],[-918,534]],[[85933,31796],[-6121,3576],[-532,237],[-1042,59],[571,770]],[[78809,36438],[26,42]],[[78835,36480],[-17,463]],[[78818,36943],[457,789],[288,45]],[[79563,37777],[368,303]],[[79931,38080],[775,611],[328,576],[-72,786],[116,1074]],[[81078,41127],[196,259]],[[81274,41386],[122,438]],[[81396,41824],[-113,490],[499,575],[-251,1662],[-580,494],[-877,-140],[-388,571],[-1309,130],[61,808],[-1494,327],[-52,1394],[1645,232],[-123,491],[559,1200],[-650,940]],[[78323,50998],[1395,158]],[[79718,51156],[563,48]],[[80281,51204],[2020,188],[2997,845],[5679,1713],[213,3440],[2278,-220],[574,615],[1568,-53],[2100,269],[18,281],[2271,-133],[-69,-1951],[-319,-4990],[-7286,-1021],[488,-559],[-76,-1193],[-6501,368],[-124,-2168],[1074,-70],[-133,-2070],[2118,-140],[-100,-1703],[-473,-74],[-1677,110],[-839,-200],[369,-579],[-159,-2231],[155,-972],[-1204,86],[-28,-383],[1378,-130],[-127,-1520],[225,-836],[454,-233],[6988,-513],[443,-869],[724,250],[693,-640],[464,-1572],[-100,-2211],[-1603,103],[-60,-930],[-1072,61],[-80,-1036],[-1057,218]],[[33201,50339],[748,-1692],[798,-687],[2736,-796]],[[37483,47164],[1515,-650]],[[38998,46514],[1400,-857],[1711,-367]],[[42109,45290],[-1222,-558],[-443,147],[-908,1105],[-1013,276],[-784,-985],[573,-3517]],[[38312,41758],[-1247,1542],[-1645,1433],[-1326,870],[-1290,340],[-2597,1071],[-1280,305],[-3217,273],[-2387,413],[-2493,144]],[[20830,48149],[-2495,129]],[[18335,48278],[18,178]],[[18353,48456],[192,1888]],[[18545,50344],[15,119]],[[18560,50463],[242,728]],[[18802,51191],[168,494]],[[18970,51685],[186,941]],[[19156,52626],[53,612]],[[19209,53238],[13,277]],[[19222,53515],[-152,1188]],[[19070,54703],[-30,134]],[[19040,54837],[-143,887]],[[18897,55724],[78,995]],[[18975,56719],[72,921],[427,606],[709,48]],[[20183,58294],[530,-316]],[[20713,57978],[-240,2210]],[[20473,60188],[-664,4233],[5623,1066],[242,-14]],[[25674,65473],[993,75],[511,-2870],[-215,-2149],[368,-1350],[1050,-1907],[1079,-802],[1212,-1805],[706,-906],[791,-775],[513,-1026],[519,-1619]],[[39804,53578],[138,-3]],[[39942,53575],[-18,-297]],[[39924,53278],[-264,13]],[[39660,53291],[-2,-39]],[[39658,53252],[-2,-38]],[[39656,53214],[-293,-16]],[[39363,53198],[2,32]],[[39365,53230],[-88,5]],[[39277,53235],[-6,-107]],[[39271,53128],[-322,-354]],[[38949,52774],[-8,-148]],[[38941,52626],[1,-1]],[[38942,52625],[896,-46]],[[39838,52579],[82,-4]],[[39920,52575],[10,135]],[[39930,52710],[166,179]],[[40096,52889],[223,-87]],[[40319,52802],[132,-51]],[[40451,52751],[86,-34]],[[40537,52717],[-9,-163]],[[40528,52554],[77,-14]],[[40605,52540],[293,-20]],[[40898,52520],[388,-27]],[[41286,52493],[568,-39]],[[41854,52454],[541,136]],[[42395,52590],[184,-32]],[[42468,51406],[-339,-75]],[[42129,51331],[98,-156]],[[42227,51175],[24,-33]],[[42251,51142],[22,-18]],[[42273,51124],[248,-201]],[[42521,50923],[71,-66]],[[42592,50857],[71,-92]],[[42663,50765],[35,-58]],[[42698,50707],[35,-84]],[[42733,50623],[27,-73]],[[42760,50550],[6,-30]],[[42766,50520],[11,-164]],[[42777,50356],[-827,48]],[[41950,50404],[13,-122]],[[41963,50282],[-4930,253],[65,1070],[-269,15],[-79,-1069],[-978,43],[-348,312],[-231,929],[87,962],[1549,-75],[89,1857],[625,-147]],[[37543,54432],[476,-36]],[[38019,54396],[833,-46]],[[38852,54350],[514,-545]],[[39366,53805],[-12,-219]],[[39354,53586],[450,-8]],[[32155,30576],[-2031,-3123],[-3410,817]],[[20337,38723],[21,96]],[[20847,42564],[-9,187]],[[20769,44529],[61,3620]],[[38312,41758],[778,-1286],[645,-775]],[[39735,39697],[-12,-14]],[[37914,37992],[-722,-679]],[[36952,37055],[-452,-485]],[[36284,36337],[-605,-649]],[[35069,35032],[-103,-111]],[[59302,45727],[6,-703],[660,-768]],[[59968,44256],[439,-524],[434,-1046],[163,-2593]],[[61004,40093],[-1,-22]],[[61003,40071],[-262,17]],[[60061,41327],[-75,32]],[[53136,41808],[-176,16]],[[52948,41825],[-94,6]],[[52787,41835],[-70,5]],[[52717,41840],[-265,13]],[[52452,41853],[-157,5]],[[52295,41858],[-38,0]],[[52235,41858],[-25,0]],[[52199,41858],[-86,0]],[[52113,41858],[-164,0]],[[51549,41845],[-74,-6]],[[51464,41838],[-178,-14]],[[51022,41798],[729,564],[135,1091],[-218,2591],[-141,508]],[[51527,46552],[199,1263],[-191,1302]],[[52409,49077],[1983,-18],[1564,232]],[[55956,49291],[117,-28]],[[56073,49263],[371,-122]],[[56444,49141],[817,-59]],[[57261,49082],[395,43]],[[57656,49125],[759,85]],[[58415,49210],[126,14]],[[58541,49224],[40,6]],[[58581,49230],[74,8]],[[58655,49238],[1974,131],[809,206]],[[61438,49575],[7,-42]],[[61445,49533],[-1111,-1389],[89,-809],[-932,-1011],[-189,-597]],[[58655,49238],[-74,-8]],[[58541,49224],[-126,-14]],[[57656,49125],[-395,-43]],[[56444,49141],[-371,122]],[[56073,49263],[-117,28]],[[53434,49772],[75,164]],[[53757,50876],[72,280]],[[53875,51316],[20,75]],[[53920,51470],[139,292]],[[54059,51764],[40,119]],[[55894,58801],[1915,-104],[-22,-391],[4407,-253],[603,-466],[-7,-1089],[-415,-664],[203,-478],[-673,-185],[32,-770]],[[61937,54401],[26,-397]],[[61963,54004],[-8,-18]],[[61955,53986],[-31,-58]],[[61924,53928],[0,-1]],[[61924,53927],[-70,-129]],[[61854,53798],[-13,-28]],[[61841,53770],[252,-499],[-66,-1107]],[[62027,52164],[137,-586],[-203,-947],[-523,-1056]],[[49245,59164],[-473,34]],[[48772,59198],[-44,657]],[[48728,59855],[-38,627]],[[48690,60482],[-69,1143]],[[48621,61625],[-8,136]],[[48613,61761],[-6,93]],[[48607,61854],[-30,502]],[[48577,62356],[-132,1647]],[[48445,64003],[-37,665]],[[48408,64668],[-52,858]],[[48356,65526],[-49,904]],[[48307,66430],[-89,1562]],[[48218,67992],[-42,732]],[[48176,68724],[52,1]],[[48228,68725],[245,-5]],[[48473,68720],[4661,-266]],[[53134,68454],[24,-2]],[[53158,68452],[17,269]],[[53175,68721],[47,753]],[[53222,69474],[0,4]],[[53222,69478],[586,-31]],[[53808,69447],[832,-41]],[[54640,69406],[3842,-206]],[[58482,69200],[147,-7]],[[58629,69193],[81,-11]],[[58710,69182],[-283,-625],[-2533,-9756]],[[43458,37653],[-249,11]],[[43157,37842],[-64,222]],[[42748,38121],[-166,916]],[[42585,39038],[437,111]],[[43022,39150],[-281,1211]],[[39791,39369],[-56,328]],[[42109,45290],[51,-25]],[[42160,45265],[4,-52]],[[42164,45213],[191,-174]],[[42355,45039],[31,-26]],[[42386,45013],[17,-15]],[[42403,44998],[97,-79]],[[42500,44919],[55,-25]],[[42555,44894],[113,-164]],[[42668,44730],[58,-36]],[[42726,44694],[54,-48]],[[42780,44646],[92,-150]],[[42872,44496],[94,-93]],[[42966,44403],[91,-55]],[[43057,44348],[167,-69]],[[43224,44279],[51,-3]],[[43275,44276],[72,7]],[[43347,44283],[152,41]],[[43499,44324],[91,-367],[1126,110],[436,-296],[176,-760],[509,-822]],[[45837,42189],[43,-65]],[[45880,42124],[-881,-696]],[[44999,41428],[-27,-45]],[[44972,41383],[-125,-268]],[[44847,41115],[-54,-150]],[[44793,40965],[-435,-230]],[[44358,40735],[-14,-6]],[[44344,40729],[-283,-77]],[[44061,40652],[-471,-31]],[[43590,40621],[-6,-1]],[[43584,40620],[-436,-119]],[[43148,40501],[15,-52]],[[43163,40449],[23,-20]],[[43186,40429],[161,33]],[[43347,40462],[110,28]],[[43457,40490],[109,21]],[[43566,40511],[144,-40]],[[43710,40471],[89,-48]],[[43799,40423],[22,-27]],[[43821,40396],[517,-1875]],[[44338,38521],[17,-66]],[[44355,38455],[146,-566]],[[44501,37889],[50,-268]],[[44551,37621],[-5,-16]],[[44546,37605],[-512,23]],[[44034,37628],[-576,25]],[[58710,69182],[391,636]],[[59101,69818],[112,210]],[[59213,70028],[1083,1861]],[[60296,71889],[5455,-322]],[[65751,71567],[2208,-123]],[[67959,71444],[1173,-53]],[[69132,71391],[729,-45]],[[69861,71346],[28,-27]],[[69889,71319],[203,-1056],[77,-1656],[-147,-2466]],[[70022,66141],[-10,-154]],[[70012,65987],[-10,-170]],[[70002,65817],[56,-1381],[-232,-1707],[-128,-2450],[137,-845],[-1319,-1706],[-510,-500],[-2757,-1967],[-1427,-1158]],[[63822,54103],[-991,-825],[-804,-1114]],[[61841,53770],[13,28]],[[61924,53927],[0,1]],[[61955,53986],[8,18]],[[41042,66379],[-418,1271],[-114,1192],[1120,2414],[137,653],[-175,623],[-576,614],[-286,1083]],[[40730,74229],[6,57]],[[40736,74286],[-135,417]],[[40601,74703],[-533,1178]],[[40068,75881],[-5,549]],[[40063,76430],[3557,-166],[34,738],[4061,-219]],[[47715,76783],[461,-8059]],[[48176,68724],[42,-732]],[[48218,67992],[89,-1562]],[[48307,66430],[49,-904]],[[48408,64668],[37,-665]],[[48577,62356],[30,-502]],[[48613,61761],[8,-136]],[[48621,61625],[69,-1143]],[[48594,60474],[-1090,-105]],[[47371,60377],[-916,-24]],[[46400,60402],[-1066,-253]],[[44441,60163],[-47,182]],[[44394,60345],[22,11]],[[44416,60356],[-398,817]],[[44018,61173],[-120,31]],[[43898,61204],[-504,137],[-738,557]],[[42656,61898],[-7,33]],[[42649,61931],[-178,1081]],[[42471,63012],[-5,60]],[[42466,63072],[14,51]],[[42480,63123],[13,78]],[[42493,63201],[-96,729]],[[42397,63930],[-118,340]],[[42279,64270],[-415,378],[-116,846]],[[41748,65494],[-59,69]],[[41689,65563],[-213,253]],[[41476,65816],[-80,93]],[[41396,65909],[-354,470]],[[75540,36794],[540,-4]],[[76080,36790],[1207,-10],[1522,-342]],[[85933,31796],[-277,-549],[379,-242],[-85,-1098],[759,722],[142,633]],[[92485,28551],[-95,-1173],[1341,-75],[-89,-1029],[-785,43],[-98,-1022],[1580,-86],[-781,-10554],[-4241,289],[7,92],[-4705,337],[-2517,1336],[-784,572],[-2587,2468],[-2106,1737],[65,819],[-1418,108],[-672,444]],[[74587,22866],[243,3544]],[[74830,26410],[710,10384]],[[69013,78489],[-5,-66]],[[69008,78423],[-117,-2605]],[[68891,75818],[1,-388]],[[68892,75430],[-1656,110],[-200,-571],[775,-326],[-36,837],[707,-39],[482,-573]],[[68964,74868],[30,-122]],[[68994,74746],[-13,0]],[[68981,74746],[880,-3400]],[[69861,71346],[-729,45]],[[69132,71391],[-1173,53]],[[67959,71444],[-2208,123]],[[65751,71567],[-5455,322]],[[60296,71889],[-1083,-1861]],[[59101,69818],[-391,-636]],[[58710,69182],[-81,11]],[[58482,69200],[-228,150],[-1537,81],[-339,659],[-1358,40],[-380,-724]],[[53808,69447],[-586,31]],[[53222,69474],[-47,-753]],[[53175,68721],[-17,-269]],[[53134,68454],[-555,54],[-234,530],[-1003,59],[-34,-513],[-1634,100],[23,418],[-722,43],[-502,-425]],[[48473,68720],[-245,5]],[[48176,68724],[-461,8059]],[[47715,76783],[-185,2018],[-275,1484],[1282,-73],[192,4104],[73,2454]],[[48802,86770],[3009,-98]],[[51811,86672],[937,-60]],[[52748,86612],[814,-122]],[[53562,86490],[2449,-587],[1448,249],[1849,505],[901,26],[316,-661],[773,-127],[85,-699],[-1182,7],[-742,624],[-62,-1075],[917,23],[3928,-960],[69,-699],[551,-366],[-1530,-90],[-32,-399],[1041,-954],[479,-133],[473,-1132],[923,-1495],[37,-416],[1526,439],[1234,-81]],[[45880,42124],[-43,65]],[[43499,44324],[-536,1693],[54,865]],[[43017,46882],[11,71]],[[43028,46953],[16,103]],[[43044,47056],[71,467]],[[43115,47523],[312,479],[610,-372]],[[44037,47630],[103,-152]],[[44140,47478],[146,-176]],[[44286,47302],[2055,-156],[596,185]],[[46937,47331],[161,87]],[[47098,47418],[148,75]],[[47246,47493],[988,415],[824,-196]],[[49058,47712],[825,-867],[884,-246]],[[50767,46599],[230,-30]],[[50997,46569],[530,-17]],[[50851,41781],[-29,-541]],[[50822,41240],[-1492,85]],[[49330,41325],[-144,0]],[[49186,41325],[-77,4]],[[49109,41329],[-101,13]],[[49008,41342],[-609,-14]],[[48399,41328],[-214,26]],[[48185,41354],[-15,68]],[[48170,41422],[-2144,86]],[[46026,41508],[-267,-55]],[[45759,41453],[-518,-194]],[[45241,41259],[-394,-144]],[[44972,41383],[27,45]],[[47246,47493],[-582,3714]],[[49445,49028],[36,-123]],[[49478,48463],[-15,-68]],[[49432,48293],[-374,-581]],[[48170,41422],[15,-68]],[[48399,41328],[40,-256]],[[48439,41072],[139,-911]],[[48578,40161],[98,-641]],[[48676,39520],[193,-1241]],[[48869,38279],[55,-358]],[[48924,37921],[42,-273]],[[48966,37648],[-205,-27]],[[48452,37516],[-4,-1]],[[48409,37513],[-294,0]],[[48115,37513],[-129,372]],[[47986,37885],[-1506,843]],[[46480,38728],[-1383,549],[-161,825],[47,826],[258,331]],[[45759,41453],[267,55]],[[50298,38859],[-106,-1492]],[[48924,37921],[-55,358]],[[48676,39520],[-98,641]],[[48439,41072],[-40,256]],[[49008,41342],[101,-13]],[[49186,41325],[144,0]],[[47098,47418],[-161,-87]],[[46937,47331],[-49,-3]],[[46888,47328],[-630,38]],[[46258,47366],[-711,42]],[[45547,47408],[-111,691]],[[45436,48099],[-213,-26]],[[45223,48073],[-158,-85]],[[45065,47988],[-159,328]],[[44906,48316],[7,147]],[[44913,48463],[-291,26]],[[44622,48489],[135,2807]],[[40595,89984],[182,-1133]],[[40777,88851],[-4,-30]],[[40773,88821],[-4,0]],[[40769,88821],[-823,27],[-131,-887],[-582,-515],[-124,-629],[449,-632],[-239,-549],[232,-1036],[-56,-1334],[-1379,-685],[-20,-551],[-376,-212],[-1014,339],[835,2430],[-3748,139],[-763,-39],[-435,-287],[-1263,34],[-130,-3119],[1305,-363]],[[32507,80952],[-2581,435]],[[29926,81387],[-798,183]],[[29128,81570],[-445,109]],[[28683,81679],[-41,17]],[[28642,81696],[-45,23]],[[28597,81719],[-157,104]],[[28440,81823],[-628,437]],[[27812,82260],[-539,372]],[[27273,82632],[-193,131]],[[27080,82763],[503,12096],[5828,-265],[433,-1044],[593,-3648],[3918,-137],[20,504],[2021,-85],[199,-200]],[[33577,80882],[-116,5]],[[33461,80887],[116,-5]],[[35922,80808],[-669,21]],[[35253,80829],[109,1343],[492,-156],[68,-1208]],[[39936,92234],[102,-774]],[[40038,91460],[-102,774]],[[40850,94293],[11,-31]],[[40861,94262],[-7,-111]],[[40854,94151],[-440,-997]],[[40414,93154],[-25,-124]],[[40389,93030],[-75,-200]],[[40314,92830],[-56,-120]],[[40258,92710],[-105,-160]],[[40153,92550],[112,587],[-1053,-146],[-715,128],[-116,-450],[-3227,114],[29,768],[-362,13],[40,964],[3691,-140],[-39,-898],[1144,-133],[-266,996],[1459,-60]],[[24382,72528],[-289,700]],[[24093,73228],[-118,437]],[[23975,73665],[-205,832]],[[23770,74497],[-327,1088]],[[23443,75585],[-81,177]],[[23362,75762],[-301,951]],[[23061,76713],[-44,172]],[[23017,76885],[-21,33]],[[22996,76918],[-6,79]],[[22990,76997],[-21,52]],[[22969,77049],[-104,471]],[[22865,77520],[-51,416]],[[22814,77936],[-221,819]],[[22593,78755],[-205,391]],[[22388,79146],[-269,1024],[566,601],[249,990]],[[22934,81761],[438,284],[528,-79],[3140,-157],[40,954]],[[27273,82632],[539,-372]],[[28440,81823],[157,-104]],[[28642,81696],[41,-17]],[[29128,81570],[798,-183]],[[32507,80952],[954,-65]],[[33577,80882],[1676,-53]],[[35922,80808],[-116,-913],[1064,-323],[1102,-931],[1982,-78],[1079,715],[220,-871],[-21,-744],[-650,-890],[-519,-343]],[[40068,75881],[-1126,233],[-563,-459],[-102,-501],[305,-577],[-756,-26],[-47,-1072],[339,-141],[1778,-42],[18,468],[-932,34],[232,939],[-57,497],[569,515],[547,-1934],[-297,-709],[1114,-159],[-203,452],[-157,830]],[[41042,66379],[-65,-2]],[[40977,66377],[-867,-103]],[[40110,66274],[-391,-194],[-1124,230]],[[38595,66310],[-578,31]],[[38017,66341],[-530,29]],[[37487,66370],[12,262],[-1034,105],[134,2285],[-2243,79],[32,654],[-480,15],[-4712,2294],[-118,701],[-727,31],[-608,469],[66,-1033],[-1161,119],[-391,663],[-1510,98],[-116,563],[-454,26],[-167,876],[-693,1790],[798,193],[89,1901],[-454,286],[-963,145],[468,-2502],[657,-1750],[470,-2112]],[[40736,74286],[-135,417]],[[53562,86490],[-814,122]],[[52748,86612],[-937,60]],[[48802,86770],[59,1095],[-1870,93],[51,-895],[-1961,114],[-839,619],[-667,-5],[-428,-504],[-2355,3],[-146,1053],[123,478]],[[40773,88821],[4,30]],[[40595,89984],[1911,-83],[757,387],[771,-36],[-87,524],[-825,562],[-3084,122]],[[39936,92234],[217,316]],[[40258,92710],[56,120]],[[40389,93030],[25,124]],[[40854,94151],[7,111]],[[40850,94293],[3227,-136],[-146,2733],[1406,-64],[47,1277],[995,-3],[297,-2330],[1095,-48],[199,641],[-1331,23],[-70,2241],[1979,-83],[532,1455],[2191,-38],[149,-776],[1898,-95],[34,763],[1057,-112],[433,-234],[-32,-1090],[3261,-356],[60,-391],[-3311,-3864],[-265,13],[-174,-2912],[-262,-8],[-112,-1093],[166,-434],[-557,-2098],[-54,-784]],[[45947,92541],[-271,-426],[-1011,-211],[42,-456],[538,-107],[680,834],[797,-62],[-45,1142],[-871,-186],[141,-528]],[[44317,90324],[335,-692],[914,-48],[138,708],[-629,31],[-530,955],[-471,-507],[243,-447]],[[67536,50114],[-6091,-581]],[[63822,54103],[903,251],[557,517],[735,276],[653,-37],[337,268],[-29,607],[861,595]],[[67839,56580],[-6,-102]],[[67833,56478],[-48,-723]],[[67785,55755],[-78,-1203]],[[67707,54552],[-35,-527]],[[67672,54025],[-220,-3361]],[[67452,50664],[84,-550]],[[75540,36794],[-534,-7805],[-1011,-17],[-257,-188],[-1011,65],[116,1346],[-1471,106],[4,-607],[-409,-121],[-94,-1181],[-2605,1655],[-117,-1905],[1824,-758],[1260,94],[411,332],[2260,-1433],[385,365],[539,-332]],[[74830,26410],[-226,-3306]],[[72625,24839],[-256,346]],[[72369,25185],[-580,810]],[[69487,27416],[-347,121]],[[66612,28958],[-128,181]],[[66484,29139],[-157,262]],[[65967,30734],[8,362]],[[64183,32133],[-7,6]],[[63111,33988],[-3,10]],[[63373,35596],[-5,55]],[[62884,37155],[-5,1]],[[62518,37395],[-15,22]],[[62411,37547],[-13,19]],[[62398,37566],[-46,64]],[[62352,37630],[-45,64]],[[62260,38255],[-312,33]],[[61448,38322],[-11,0]],[[61437,38322],[-581,959]],[[60741,40088],[262,-17]],[[61004,40093],[3913,-248],[565,8360],[-857,57],[-45,1556],[2956,296]],[[67536,50114],[905,82]],[[68441,50196],[-343,-427],[-373,-1291],[2001,-131],[58,-583],[-308,-4579],[145,-859],[-76,-944],[7713,-534],[-43,1201],[4125,-148],[56,-77]],[[81274,41386],[-196,-259]],[[79931,38080],[-368,-303]],[[78818,36943],[17,-463]],[[76080,36790],[-540,4]],[[11281,73203],[314,1824],[-491,-51],[-72,621],[752,73],[178,415],[1180,89],[35,-373],[1378,220],[431,-416],[143,-1215],[1109,117],[-430,1972],[-411,-52],[-126,1222],[1076,108],[489,507],[198,-870],[1002,101],[99,-644],[1881,341],[191,-820],[1873,333],[273,-2386],[926,193],[-587,1507],[-371,1531],[-379,2104],[154,869],[838,1238]],[[22388,79146],[205,-391]],[[22814,77936],[51,-416]],[[22969,77049],[21,-52]],[[22990,76997],[6,-79]],[[23017,76885],[44,-172]],[[23362,75762],[81,-177]],[[23770,74497],[205,-832]],[[24093,73228],[289,-700]],[[24382,72528],[1447,-1917],[222,-422],[354,-2437],[-20,-732],[253,-1474],[-964,-73]],[[25674,65473],[125,105],[41,3043],[-96,1087],[-975,1604],[-1159,1174],[-258,1653],[-657,6],[-674,-688],[426,-510],[715,-1560],[-996,-177],[580,-881],[-2461,-432],[-289,795],[592,253],[-283,437],[-1790,-754],[-928,4393],[-232,-395],[-1097,-236],[65,-283],[-1562,-178],[-95,407],[-957,-331],[-747,-73],[-83,817],[-510,-54],[126,-1325],[212,22],[200,-1746],[-158,-539],[-1181,-145],[-900,-298],[-536,419],[-424,-733],[-765,-32],[-441,438],[-1238,-131],[-92,851],[556,60],[174,397],[-552,280],[-931,-26],[-135,1199],[-490,-190],[-1376,-159],[-60,528],[-2322,-248],[557,-831],[-137,-478],[-2369,0],[282,269],[-369,536],[135,2482],[339,219],[1611,-33],[-97,938],[890,-18],[254,-2390],[1162,120],[-43,381],[838,86],[51,-398],[1076,255],[1804,189],[1500,341],[86,-765],[-388,-49],[968,-1125],[1095,157]],[[20713,57978],[-530,316]],[[18975,56719],[-78,-995]],[[19040,54837],[30,-134]],[[19222,53515],[-13,-277]],[[19209,53238],[-53,-612]],[[18970,51685],[-168,-494]],[[18560,50463],[-15,-119]],[[18353,48456],[-18,-178]],[[15238,44121],[-626,-42]],[[14563,44075],[-21,795],[-455,96],[-221,-921]],[[8903,43703],[-404,1690],[493,559],[1070,-80],[-37,1991],[-573,174],[-432,-236],[-578,269],[565,440],[2249,-125],[83,1277],[-1572,403],[609,526],[-35,1191],[-1127,69],[-115,-3082],[-1497,82],[-253,831],[-1179,66],[8,780],[1239,-224],[1440,-99],[16,208],[-1635,178],[-596,4466],[396,657],[1200,134],[-65,1175],[-401,690],[-1130,-140],[-346,125],[-137,1248],[1052,108],[135,-1062],[704,79],[-118,1066],[567,65],[-105,813],[3207,325],[93,-745],[-1551,-207],[-146,-2742],[780,-31],[-26,-521],[782,-30],[71,1448],[1328,-49],[-45,-981],[792,363],[-61,853],[793,104],[-64,480],[-1298,60],[-46,874],[-288,374],[-851,452],[327,309],[719,113],[-15,361],[1302,57],[111,-1016],[1467,161],[173,452],[1297,-404],[3333,-1940],[-204,1626],[99,427]],[[18275,50010],[-366,-1465],[298,-60],[68,1525]],[[80281,51204],[-563,-48]],[[78323,50998],[-1215,-23],[-8637,-743],[-30,-36]],[[68441,50196],[-905,-82]],[[67536,50114],[-84,550]],[[67672,54025],[35,527]],[[67707,54552],[78,1203]],[[67785,55755],[48,723]],[[67833,56478],[6,102]],[[67839,56580],[1386,867],[183,-326],[722,-11],[331,724],[1123,-547],[3971,-313],[1515,-604],[787,-795],[-63,-1477],[828,-339],[1021,16],[554,-155],[237,-482],[-153,-1934]],[[70012,65987],[10,154]],[[69889,71319],[-28,27]],[[68981,74746],[13,0]],[[68964,74868],[-72,562]],[[68891,75818],[117,2605]],[[69013,78489],[2534,-172],[-35,-541],[932,77],[-419,955],[-304,170],[43,657],[560,415],[299,743],[-55,863],[368,254],[1176,-64],[-51,-969],[2843,-172],[-56,-1013],[1411,-71],[106,1973],[-278,754],[-1299,68],[37,593],[1055,-51],[56,2602],[-666,344],[-8,952],[802,-35],[586,297],[28,1520],[-1564,95],[68,1053],[-771,75],[-562,-867],[555,-562],[-167,-486],[802,-60],[-113,-1910],[-789,51],[-89,-1386],[-990,110],[-790,-410],[-386,570],[190,683],[-536,38],[431,2932],[-53,938],[-390,939],[290,1415],[509,216],[-10,504],[2386,-148],[-187,-1491],[1406,-152],[26,513],[2160,-123],[-63,-1073],[-714,-304],[-306,-409],[-56,-799],[564,-469],[-65,-1047],[1420,-707],[139,1484],[460,-480],[559,418],[3551,-211],[-824,-187],[400,-540],[395,260],[-100,-1620],[876,-57],[112,1893],[757,-48],[565,-344],[551,-36],[334,495],[-261,-4238],[1349,-92],[-126,-2121],[-1169,-195],[17,-1671],[-1019,66],[-38,-949],[-429,-67],[60,1683],[-489,-144],[-1275,89],[-436,-457],[126,-657],[-1090,77],[48,911],[-884,49],[8,-706],[261,-329],[165,-950],[2012,185],[-52,-911],[649,-40],[88,-1176],[-1061,-92],[-515,904],[-772,46],[-22,-698],[402,-303],[426,-840],[-541,-752],[-44,-817],[440,-609],[-920,53],[105,-688],[-94,-1422],[-4689,222],[-5645,341],[-392,-907],[-61,-1080],[490,-400],[77,-572],[-1352,58],[-33,-409],[-932,72],[-390,312],[-109,-2382],[-540,29]],[[78931,86066],[-13,-569],[-687,-1325],[630,-388],[809,-12],[156,2757],[-1044,53],[149,-516]],[[42600,53808],[-5,-41]],[[42595,53767],[-27,-239]],[[42549,53044],[2,-149]],[[42551,52895],[11,-88]],[[42579,52558],[-184,32]],[[41854,52454],[-568,39]],[[41286,52493],[-388,27]],[[40898,52520],[-293,20]],[[40605,52540],[-77,14]],[[40528,52554],[9,163]],[[40537,52717],[-86,34]],[[40451,52751],[-132,51]],[[40319,52802],[-223,87]],[[39930,52710],[-10,-135]],[[39920,52575],[-82,4]],[[39838,52579],[-896,46]],[[38941,52626],[8,148]],[[39271,53128],[6,107]],[[39365,53230],[-2,-32]],[[39656,53214],[2,38]],[[39660,53291],[264,-13]],[[39942,53575],[-138,3]],[[39354,53586],[12,219]],[[39366,53805],[-539,48],[25,497]],[[38852,54350],[-833,46]],[[37543,54432],[-608,502],[316,6726],[981,-57],[-890,1256],[145,3511]],[[38017,66341],[578,-31]],[[40110,66274],[867,103]],[[41396,65909],[80,-93]],[[41689,65563],[59,-69]],[[42279,64270],[118,-340]],[[42493,63201],[-13,-78]],[[42466,63072],[5,-60]],[[42649,61931],[7,-33]],[[43898,61204],[120,-31]],[[44416,60356],[-22,-11]],[[44191,58800],[-1,-10]],[[43872,57699],[-18,-33]],[[42935,55813],[-2,-21]],[[42933,55768],[-7,-68]],[[42524,54685],[1,-8]],[[42552,54682],[-2,14]],[[42587,54695],[-1,-21]],[[42640,54002],[-9,-76]],[[45436,48099],[111,-691]],[[45547,47408],[711,-42]],[[46258,47366],[630,-38]],[[44286,47302],[-146,176]],[[44140,47478],[-103,152]],[[43115,47523],[-71,-467]],[[43028,46953],[-464,571],[-601,2758]],[[41950,50404],[827,-48]],[[42777,50356],[-11,164]],[[42766,50520],[-6,30]],[[42760,50550],[-27,73]],[[42733,50623],[-35,84]],[[42698,50707],[-35,58]],[[42663,50765],[-71,92]],[[42592,50857],[-71,66]],[[42521,50923],[-248,201]],[[42273,51124],[-22,18]],[[42251,51142],[-24,33]],[[42227,51175],[-98,156]],[[42468,51406],[2203,-106]],[[44671,51300],[86,-4]],[[44757,51296],[-135,-2807]],[[44622,48489],[291,-26]],[[44913,48463],[-7,-147]],[[44906,48316],[159,-328]],[[45065,47988],[158,85]],[[46480,38728],[1506,-843]],[[47986,37885],[129,-372]],[[45211,37577],[-665,28]],[[44551,37621],[-50,268]],[[44501,37889],[-146,566]],[[44355,38455],[-17,66]],[[44338,38521],[-517,1875]],[[43821,40396],[-22,27]],[[43799,40423],[-89,48]],[[43710,40471],[-144,40]],[[43566,40511],[-109,-21]],[[43457,40490],[-110,-28]],[[43347,40462],[-161,-33]],[[43186,40429],[-23,20]],[[43163,40449],[-15,52]],[[43584,40620],[6,1]],[[43590,40621],[471,31]],[[44061,40652],[283,77]],[[44344,40729],[14,6]],[[44358,40735],[435,230]],[[59302,45727],[1702,241],[-118,-1769],[-918,57]],[[43347,44283],[-72,-7]],[[43224,44279],[-167,69]],[[42966,44403],[-94,93]],[[42780,44646],[-54,48]],[[42726,44694],[-58,36]],[[42668,44730],[-113,164]],[[42500,44919],[-97,79]],[[42403,44998],[-17,15]],[[42386,45013],[-31,26]],[[42164,45213],[-4,52]],[[38998,46514],[-792,506],[43,680],[4768,-818]],[[33201,50339],[582,39],[374,-1285],[296,-493],[766,-374],[1706,-297],[-34,-510],[592,-255]],[[50997,46569],[-230,30]],[[51297,53139],[-2195,118]],[[49102,53257],[-330,5941]],[[48772,59198],[473,-34]],[[49835,58359],[56,-58]]],"transform":{"scale":[0.000004396662969502889,0.0000034840497597564375],"translate":[-83.21067921519536,39.80869959803397]},"objects":{"in":{"type":"GeometryCollection","geometries":[{"arcs":[[0,1,2,3,4,5,6,7,8,9,10,11,12,13,14,15,16,17,18,19,20,21,22,23,24,25,26,27,28,29,30,31,32,33,34,35,36,37,38,39,40,41,42,43,44,45,46,47,48,49,50,51,52,53,54,55,56],[57],[58],[59],[60],[61]],"type":"Polygon","properties":{"name":"Far South"}},{"arcs":[[62,63,64,65,66,67,68,69,70,71,72,73,74,75,76,77,78,79,80,81,82,83,84,85,86,87,88,89,90,91,92,93,94,95,96,97,98,99,100,101,102]],"type":"Polygon","properties":{"name":"Livingston Avenue Area"}},{"arcs":[[103,104,105,106,107,108,109,110,111,112,113,114,115,-3,116,-1,117,118,119,120,121,122,123,124,125,126,127,128,129]],"type":"Polygon","properties":{"name":"Southwest"}},{"arcs":[[130,131,132,133,134,135,136,137,138,139,140,141,142,143,144,145,146,147,148,149,150,151,152,153,154,155,156,157,158,159,160,161,162,163,164,165,166,167,168,169,170]],"type":"Polygon","properties":{"name":"University District"}},{"arcs":[[171,172,173,174,175,176,177,178,179,180,181]],"type":"Polygon","properties":{"name":"Westland"}},{"arcs":[[182,183,184,185,186,187]],"type":"Polygon","properties":{"name":"South Linden"}},{"arcs":[[188,189,-89,190,-87,191,-85,192,-83,193,-81,194,195,196,197,198,199,200,201,202,203,204,205,206,207,208,209,210,211,-43,212,213,-40,214,215,216,217,218,219,-33,220,-31,221,-29,222,-27,223,-25,224,225,-22,226,-20,227,-18,228,229,230,-14,231,-12,232,-10,233,-8,234,-6,235,-4,-116,236,237,238,239,240,241,242,243,-94,244,-92]],"type":"Polygon","properties":{"name":"South Side"}},{"arcs":[[245,246,247,248,249,250,251,-138,252,253,254,-184,255,256,257,258,259,260,261,262,263,264,265]],"type":"Polygon","properties":{"name":"Milo-Grogan"}},{"arcs":[[266,267,268,269,270,271,272,273,274,275,276,277,278,279]],"type":"Polygon","properties":{"name":"Far East"}},{"arcs":[[280,281,282,283,284,285,286,287,288,289,290,291,292,293,294,295,296,297,298,299,300,301,302]],"type":"Polygon","properties":{"name":"West Scioto"}},{"arcs":[[303,304,305,306,307,308,309,310,311,312,313,314,315,316,317,318,319,320,321,322,323,324,325,326,327,328,-143,329,330,331,332,333,334,335,336,337,338,339,340,341,342,343,344,345,346,347,348]],"type":"Polygon","properties":{"name":"Fifth by Northwest"}},{"arcs":[[-119,349,-182,350,-180,351,-178,352,-285,353,354,-127,355,-125,356,-123,357,-121,358]],"type":"Polygon","properties":{"name":"Greater Hilltop"}},{"arcs":[[359,360,361,362,-77,363,-75,364,-73,365,-71,366,367,368,369,-66,370,-64,371,372,-102,373,-100,374,-98,375,376,-246,377,378,379,380,381,382,383,384,385,386,387,388]],"type":"Polygon","properties":{"name":"Near East"}},{"arcs":[[-387,389,-385,390,-383,391,-381,392,393,-378,-266,394,-264,395,-262,396,-260,397,-258,398,-256,-183,399,400,401,402,403,404,405,406,407]],"type":"Polygon","properties":{"name":"North Central"}},{"arcs":[[-188,408,409,410,411,412,413,414,415,416,417,418,419,420,421,422,423,424,425,426,427,428,429,430,431,432,433]],"type":"Polygon","properties":{"name":"North Linden"}},{"arcs":[[434,-110,435,-108,436,-106,437,-104,438,-129,439,-354,-284,440,441,442,443,444,445,446,447,448,449,450,451,452,453,454,455,456,457,458,459,460,461,462,463,464,465,466,467,468,469,470,471,472,473,474,475,476,477,478,479,480,481,482,483]],"type":"Polygon","properties":{"name":"Franklinton"}},{"arcs":[[-434,484,485,486,487,488,489,490,491,492,493,494,495,496,-407,497,-405,498,-403,499,-401,-400]],"type":"Polygon","properties":{"name":"Northeast"}},{"arcs":[[500,501,502,503,504,505,506,507,508,509,-418,510,-416,511,-414,512,513,-133,514,-131,515,-170,516,-168,517,518,519,520,521,522,523,524,525,526,527,528,529,530,531,532,533]],"type":"Polygon","properties":{"name":"Clintonville"}},{"arcs":[[534,535,-269,536,-267,537,-56,538,539]],"type":"Polygon","properties":{"name":"South East"}},{"arcs":[[540,541,542,543,544,545,546,547,548,549,550,551,-486,552,553,-432,554,-430,555,-428,556,557,-425,558,559,-422,560,561,562,563,564,565]],"type":"Polygon","properties":{"name":"Northland"}},{"arcs":[[-460,566,-458,567,568,569,570,571,572,573,574,575,576,577,578,579,580,-376,-97,581,582,583,584,585,586,587,588,589,590,591,592,-462,593]],"type":"Polygon","properties":{"name":"Downtown"}},{"arcs":[[-578,594,-139,-252,595,-250,596,-248,597]],"type":"Polygon","properties":{"name":"Italian Village"}},{"arcs":[[598,-588,599,600,601,602,603,604,605,-240,606,-238,607,608,609,610,-592,611,-590]],"type":"Polygon","properties":{"name":"Brewery District"}},{"arcs":[[-95,-244,612,-242,-605,613,-603,614,-601,615,-587,616,-585,617,-583]],"type":"Polygon","properties":{"name":"German Village"}},{"arcs":[[-577,618,619,620,621,622,623,624,625,626,627,628,-140,-595]],"type":"Polygon","properties":{"name":"Victorian Village"}},{"arcs":[[[629,630,631,632,633,634,635,636,637,638,639,640,641,642]],[[645,646]],[[649,650,651,652,653,654,655,656]]],"type":"MultiPolygon","properties":{"name":"Far Northwest"}},{"arcs":[[657,658,659,660,661,662,663,664,665,666,667,668,669,670,671,672,-642,673,-640,674,-638,675,-636,676,-634,677,-644,678,-646,679,-505,680,-501,681,682,683,684,685,686]],"type":"Polygon","properties":{"name":"Northwest"}},{"arcs":[[688,689,-563,690,-632,691,-630,692,-648,693,-656,694,-654,695,-652,696,-650,697],[698],[699]],"type":"Polygon","properties":{"name":"Far North"}},{"arcs":[[700,-388,-408,-497,701,702,703,704,705,706,707]],"type":"Polygon","properties":{"name":"East Columbus"}},{"arcs":[[708,709,-54,710,711,-51,712,-49,713,714,-46,715,-44,-212,716,-210,717,-208,718,-206,719,-204,720,-202,721,722,723,-198,724,-196,725,726,-78,727,-362,728,729,730,-276,731,-274,732,-272,733,-270,-536,734]],"type":"Polygon","properties":{"name":"Mid East"}},{"arcs":[[735,-672,736,-670,737,-668,738,739,-665,740,-663,741,-661,742,-659,743,744,745]],"type":"Polygon","properties":{"name":"Hayden Run"}},{"arcs":[[-301,746,-299,747,-297,748,-295,749,750,-292,751,-290,752,-288,753,-286,-353,-177,754,-175,755,-173,756],[757]],"type":"Polygon","properties":{"name":"Far West"}},{"arcs":[[758,-278,759,760,761,-707,762,763,764,765,766]],"type":"Polygon","properties":{"name":"Airport"}},{"arcs":[[-495,767,-493,768,-547,769,-545,770,-543,771,-541,772],[773]],"type":"Polygon","properties":{"name":"Rocky Fork-Blacklick"}},{"arcs":[[774,775,-147,776,777,-144,778,-328,779,780,781,782,783,784,785,786,-319,787,788,789,-315,790,-313,791,-311,792,-309,793,-307,794,-305,795,-349,796,797,798,-345,799,-686,800,-684,801,-682,-534,802,-532,803,-530,804,-528,805,-526,806,-524,807,-522,808,-520,809,-518,-167,810,-165,811,-163,-162,812,-160,813,-158,814,-156,815,-154,816,-152,817,-150]],"type":"Polygon","properties":{"name":"Olentangy West"}},{"arcs":[[-624,818,819,820,-620,-575,821,822,-572,823,-570,824,-343,825,826,827,828,829,830,831,832,833,834,835,836,-330,837,838,839,840,841,842,843]],"type":"Polygon","properties":{"name":"Harrison West"}},{"arcs":[[844,845,-114,846,-482,847,848,849,850,851,852,853,854,855,856,857,858,-469,859,860,861,862,863,-463,-593,-611]],"type":"Polygon","properties":{"name":"Harmon Road Corridor"}},{"arcs":[[-360,864]],"type":"Polygon","properties":{"name":"Wolfe Park"}},{"arcs":[[[-568,-457,865,-455,866,-453,867,-451,868,869,870,-447,871,872,873,-443,874,-441,-283,875]],[[-281,876]]],"type":"MultiPolygon","properties":{"name":"Dublin Road Corridor"}},{"arcs":[[-581,877,-579,-598,-247,-377]],"type":"Polygon","properties":{"name":"Fort Hayes"}},{"arcs":[[878,879,880,-187,881,-185]],"type":"Polygon","properties":{"name":"State of Ohio"}}]}}}