{"type":"Topology","arcs":[[[7134,39089],[6,-21]],[[7140,39068],[-5,-21],[-1,42]],[[4348,46130],[34,0],[0,-222],[-34,0],[0,222]],[[3541,42802],[25,0],[0,-148],[-25,0],[0,148]],[[4416,46648],[13,0],[0,-148],[-13,0],[0,148]],[[5106,38697],[16,-74],[28,-185],[20,0],[0,-148],[16,0],[0,-148],[-24,0],[0,-148],[-16,0],[-8,148],[-8,74],[-16,74],[0,111],[-8,74],[0,222]],[[7325,94343],[36,0],[0,-222],[-36,0],[0,222]],[[3781,65918],[16,29],[4,-95],[-20,66]],[[3466,56223],[26,0],[1,-147],[-27,0],[0,147]],[[6366,57431],[18,0],[0,-174],[-18,1],[0,173]],[[9437,93788],[17,10],[0,-46],[-17,-14],[0,50]],[[2834,11103],[42,0],[7,34],[0,-154],[-6,-24],[-7,-144],[8,-157],[1,-120],[9,12],[2,-117],[9,59],[-5,93],[5,51],[-1,110],[6,71],[8,-46],[-10,-85],[8,-61],[11,92],[6,-6],[9,218],[2,204],[8,54],[3,-137],[0,-391],[-30,-444],[-44,0],[0,222],[-7,0],[0,222],[-34,0],[0,444]],[[4307,37511],[22,2],[0,-111],[-12,-2],[-10,111]],[[4882,55780],[18,0],[0,-148],[9,0],[0,-184],[-27,0],[0,332]],[[12521,18724],[8,110],[-8,161],[13,59],[13,-14],[15,188],[22,40],[21,-29],[11,-88],[-14,-168],[-6,-121],[-8,-20],[-13,-163],[-8,27],[-10,-50],[-15,27],[-13,-30],[-8,71]],[[3844,52345],[-18,7]],[[3826,52352],[13,64],[5,-71]],[[7580,54111],[6,43],[5,136],[-4,161],[11,174],[-5,202],[6,173],[13,105],[5,147],[7,42],[27,-174],[18,-374],[29,38],[26,-90],[-10,-87],[5,-102],[-7,-143],[-12,-81],[-6,-138],[-15,-44],[-23,-11],[-7,29],[-14,-66],[-15,17],[0,-103],[-34,28],[-6,118]],[[8298,67206],[0,49],[17,92],[7,-57],[11,44],[-2,83]],[[8331,67417],[24,50],[18,-39],[15,11],[14,126],[18,-21],[11,-69],[0,-108],[-11,-158],[15,-139]],[[8435,67070],[-4,-62],[-24,-95]],[[8407,66913],[-14,-20],[-12,28],[-15,-120]],[[8366,66801],[0,92],[-24,9],[-10,-78]],[[8332,66824],[-14,50],[-24,1],[-5,-37]],[[8289,66838],[24,217],[-15,151]],[[5689,35437],[11,41],[17,210],[16,110],[29,106],[3,81],[13,109],[13,33],[3,102],[28,0],[0,-813],[-21,-43],[-13,-184],[-7,-24],[0,-234],[-12,-52],[-22,109],[-6,107],[-14,-13],[-9,105],[-18,46],[-9,129]],[[5691,35362],[-2,75]],[[5267,54521],[18,275],[16,27],[-3,66],[9,62],[1,76],[16,71],[12,-85],[15,11],[13,-98],[14,-48],[9,43],[-7,-434],[-13,-8],[1,-135],[-4,-173],[5,-43],[8,-162],[-6,-80],[-44,-38],[-19,-68],[-15,108],[-9,1],[4,137],[-1,124],[7,83],[-19,126],[-8,162]],[[7596,51740],[13,52],[2,75],[13,45],[6,77],[11,-31],[12,32],[9,-24],[7,133]],[[7669,52099],[17,111],[15,-4],[28,87],[47,-53],[30,-2],[16,-61],[14,-110],[27,-155],[-8,-469],[-17,-47],[-8,-149]],[[7830,51247],[-6,-57],[1,-120],[-6,-178],[-20,-108]],[[7799,50784],[-19,-75]],[[7780,50709],[-26,59],[-18,-111],[-21,-46],[-11,-57],[1,-127],[-18,-54]],[[7687,50373],[0,46],[-34,1],[8,-74],[0,-74],[9,-92],[-17,-56]],[[7653,50124],[-27,0],[-21,-129],[-6,133],[-24,-2]],[[7575,50126],[-19,-61],[-1,60],[-25,0],[-5,42],[-1,185],[15,141],[3,146],[6,72],[20,45],[10,235],[-4,97],[4,131],[15,175],[-2,231],[5,115]],[[10151,66418],[-2,-5]],[[10149,66413],[-12,-38],[-4,68],[18,-25]],[[3350,54948],[38,1],[1,-314],[-38,-1],[-1,314]],[[3170,51383],[6,17],[2,-51],[-6,-14],[-2,48]],[[6212,40620],[28,1]],[[6240,40621],[-5,-185],[-23,-1],[0,185]],[[11556,31502],[11,-11],[0,-37],[-8,0],[-3,48]],[[12273,21447],[37,0],[0,-203],[-10,-167],[-27,0],[0,370]],[[9554,54810],[19,-76],[0,190],[14,145],[-11,186],[-9,213]],[[9567,55468],[27,-110],[24,-149],[-9,-119],[1,-151],[26,-139],[8,4],[7,-85],[18,-93],[17,-177],[-4,-95],[-18,-130],[-7,-271],[-11,-33],[-4,82],[-24,-87],[-25,63],[-10,96],[3,190],[-20,22],[-4,176],[-8,18],[-6,172],[6,158]],[[8153,41923],[10,274],[34,371],[25,37],[6,-141],[-29,-209],[-9,14],[-13,-71],[3,-83],[-18,-254],[-9,62]],[[8317,66542],[2,26]],[[8319,66568],[1,48]],[[8320,66616],[4,1]],[[8324,66617],[-2,147],[10,60]],[[8366,66801],[4,-49],[17,10],[0,-91],[15,-12],[5,-113],[19,-61],[2,-44],[-9,-170],[-1,-164]],[[8418,66107],[0,-4]],[[8418,66103],[-27,15],[-3,54]],[[8388,66172],[6,54],[-22,131],[3,-135]],[[8375,66222],[-21,142],[-37,44]],[[8317,66408],[0,134]],[[3944,43521],[16,85],[0,118],[-10,125],[8,150],[-3,47],[67,443],[7,-181],[9,-24],[7,-116],[11,1],[8,83],[7,-55],[-5,-103],[-16,-88],[-8,-127],[-19,-90],[-8,-544],[-9,-17],[-9,72],[7,122],[-19,86],[-6,-30],[-25,-35],[-10,78]],[[8909,52971],[19,-121],[6,-5]],[[8934,52845],[6,-177],[-10,-69]],[[8930,52599],[-12,-27]],[[8918,52572],[-25,20],[-27,-50],[-19,97],[-45,-113],[-24,38],[-10,-59]],[[8768,52505],[9,128],[-1,116],[-14,86],[-2,138]],[[8760,52973],[-1,145],[11,158],[15,-97],[12,-38],[32,11],[7,-24],[13,-120],[17,-20],[10,-136],[11,-61],[25,1],[-3,179]],[[9318,56035],[-12,-134],[8,-195]],[[9314,55706],[-9,-126],[-38,22],[-8,57],[-15,-63],[-14,9],[-5,-108],[-16,-59],[-20,-12],[-17,-155],[-6,-155],[-17,-111],[-13,-2],[-16,-67],[-9,-102],[0,-111],[-5,-84],[0,-110],[-27,-133],[-16,-153],[-12,-51],[-18,3]],[[9033,54195],[-13,96],[-39,-1]],[[8981,54290],[-1,89],[16,218],[10,213],[0,81],[-13,53],[-2,163],[-8,223],[50,286],[37,252],[13,160],[19,-319],[5,-33],[5,-232],[-5,-142],[7,-63],[10,-8],[21,62],[2,198],[35,144],[32,302],[2,96],[18,0],[9,-44],[18,44],[7,66],[15,-71],[25,-24],[10,31]],[[7140,42109],[7,61],[16,252],[29,255],[8,113]],[[7200,42790],[32,14],[19,153]],[[7251,42957],[3,9],[25,-124]],[[7279,42842],[1,-285],[29,-4],[1,-412],[-12,6],[-36,-276],[-32,-8],[-9,-56],[-11,22],[-12,-79],[-16,77],[-9,-2],[-19,196]],[[7154,42021],[-3,77],[-11,11]],[[7237,45246],[19,5]],[[7256,45251],[1,-240],[6,-98]],[[7263,44913],[-20,33]],[[7243,44946],[-6,300]],[[5477,28844],[4,92],[8,47],[2,93],[19,-15],[2,35],[-5,167],[-8,107],[22,122],[10,-79],[7,26],[0,158],[8,17],[13,-50],[2,124],[23,47],[3,142],[14,-74],[7,160],[-14,251],[-10,8],[-1,293],[100,-465],[-6,-89],[-6,-257],[1,-76],[14,-144],[-6,-53],[-12,9],[-14,85],[-15,-18],[-12,-45],[-11,-316],[4,-62],[13,-89],[-54,-135],[-19,-38],[-14,22],[-5,49],[-11,5],[-6,96],[-8,-155],[-17,-69],[3,95],[-11,11],[-6,-64],[-8,32]],[[7663,49392],[-8,141],[22,-41],[8,65],[5,124],[15,-1],[0,224]],[[7705,49904],[9,-52],[11,56],[25,31]],[[7750,49939],[11,-53],[15,44],[32,20]],[[7808,49950],[9,0],[0,-165]],[[7817,49785],[-15,-4],[-8,-91],[-19,-74],[-28,-42],[-8,18],[-12,-44],[-32,-205],[-6,-118],[-12,-141],[-14,-33],[-6,-75]],[[7657,48976],[-14,139],[26,205],[-6,72]],[[7578,49368],[1,-53],[58,-4],[0,76],[26,5]],[[7657,48976],[-6,-180],[0,-185],[-5,-226],[-17,-114],[-25,82],[-37,31],[-20,-21],[-2,491],[16,225],[17,289]],[[7108,51997],[14,18],[-6,110],[2,116],[7,193],[17,-15],[8,51],[9,-20],[39,173],[12,-53],[-2,-136],[27,-112],[9,59],[14,-60],[12,-90],[3,-79],[27,-39],[7,35],[10,-52],[19,105],[10,108],[10,-4],[15,138],[11,33],[8,-85],[-1,-198],[21,-80],[1,-156],[9,-51],[14,-268],[-19,-163],[-13,-65],[-5,-137],[2,-69],[-8,-149],[-7,33],[-18,147],[-12,-97],[-6,-104],[-17,35],[-31,104],[-39,67],[-21,-13],[-8,104],[6,60],[-17,101],[-21,23],[-15,111],[-24,136],[-21,9],[-19,155],[-13,71]],[[7385,49840],[5,134],[-2,84],[17,116],[14,-59],[18,31],[11,133],[17,-4],[21,-198],[7,-103],[24,72],[6,-192],[-13,-168],[-15,-127],[-9,-18],[-6,-206],[8,-231],[-8,29],[-2,-134],[-7,-79],[-50,-70],[-20,-14],[5,143],[-2,119],[4,142],[7,95],[-5,138],[8,178],[-29,-1],[-4,190]],[[9042,70259],[5,221],[23,32],[17,-11],[-23,157],[11,15],[41,-27],[8,-37],[15,16],[-5,396],[16,-18],[35,-203],[10,-93],[22,1],[-3,-106],[15,-184],[3,-227],[14,-28],[8,-126],[-4,-93],[11,-107],[2,-153],[-44,-42],[-25,-37],[-7,-36],[-13,56],[-28,30],[-30,126],[-28,75],[-7,104],[7,98],[-19,21],[-16,50],[-9,-59],[-2,189]],[[9230,71300],[14,109],[20,247],[2,304],[-11,77],[5,94],[-8,48],[65,12],[10,-89],[1,-150],[-8,-151],[10,-228],[0,-159],[-22,-340],[-69,0],[4,122],[-13,104]],[[7933,69886],[21,99],[27,369],[24,91],[19,170],[19,116],[3,117],[15,-273],[5,150],[8,-13],[10,-108],[2,-141],[8,-56],[6,-190],[7,-27],[24,99],[12,-41],[11,-109],[39,95],[24,-40],[1,-89],[-24,-319],[-16,-17],[-33,-166],[-2,-73],[-21,-252],[-19,-73],[-26,219],[-11,190],[-12,8],[-12,106],[-11,40],[-14,139],[-4,-160],[-17,97],[-33,-127],[-20,7],[-10,162]],[[7629,67854],[42,141],[16,89],[13,29],[2,152],[27,0],[33,147],[2,41],[29,93],[39,204],[-10,-202],[-2,-132],[5,-94],[-9,-73],[7,-94],[0,-122],[-7,-31],[-2,-126],[-13,-30],[-13,-108],[-14,68],[-29,-198],[-25,36],[-6,94],[-11,26],[-18,-42],[-17,64],[-25,7],[-14,61]],[[7536,69090],[4,74],[-1,421],[21,125],[6,118],[-3,95],[-17,87],[24,56],[17,100],[10,-152],[32,-60],[30,6],[33,83],[31,4],[-11,-162],[3,-99],[-7,-180],[1,-74],[-8,-133],[-12,-125],[-37,-17],[-9,-63],[-22,-46],[-20,1],[-15,44],[1,212],[-17,-24],[-22,-158],[-12,-133]],[[4215,40731],[21,0],[0,-148],[-17,0],[-4,148]],[[10521,39593],[5,78],[11,-72],[16,-1],[3,123],[11,82],[8,-71],[12,78],[14,305],[15,153],[6,96],[11,49],[19,-220],[-11,-284],[-13,-97],[-11,-196],[-7,-358],[-7,-111],[-21,34],[-61,412]],[[9093,62560],[16,48],[5,63],[30,137],[33,45],[9,71],[18,52],[4,-370],[-1,-179],[-13,3],[-24,-142],[-20,17],[-14,-87],[-5,-75],[-13,165],[1,92],[-9,50],[-18,32],[1,78]],[[4487,47571],[19,117],[-1,-153],[-18,36]],[[7870,62696],[9,-239],[42,42],[23,-305]],[[7944,62194],[11,35],[8,-50],[-4,-155],[27,9],[9,-31],[7,-198],[12,26],[37,-78],[58,-29],[11,-74],[-2,-212],[28,-76],[-4,-77],[-20,-51],[-12,-270],[-12,-59],[-14,-144],[-11,36],[-23,1],[-14,-68],[-30,-7]],[[8006,60722],[-15,217],[14,124],[-52,287],[-11,78],[-13,-47]],[[7929,61381],[-119,4],[-7,70],[-8,291],[-10,194],[34,-11],[25,10],[1,451],[-95,2],[-13,164],[-11,636],[3,68],[-4,129],[27,122],[42,73],[42,5],[1,25],[50,3],[-1,-91],[1,-346],[9,-92],[21,-55],[16,41],[-63,-363],[0,-15]],[[4674,49754],[-9,0]],[[4665,49754],[0,148],[17,0],[0,-148],[-8,0]],[[2165,5180],[3,45],[13,33],[3,102],[-3,50],[20,26],[7,38],[4,103],[-6,88],[4,102],[12,-38],[16,57],[1,208],[-4,62],[4,76],[17,105],[11,271],[-12,137],[3,260],[25,-138],[24,-169],[24,-322],[-15,-43],[-14,-208],[-6,-57],[-15,-57],[-4,-106],[-10,73],[-7,-47],[-1,-219],[-9,90],[-11,-54],[-4,-65],[-24,-172],[-20,-29],[-9,-145],[-17,-57]],[[3571,41722],[28,73],[3,-109],[7,-69],[19,162],[11,-191],[-9,-38],[-18,-128],[-16,81],[4,82],[-6,62],[-20,35],[-3,40]],[[4239,19515],[13,810],[1,578],[33,88],[32,146],[56,146],[26,87],[3,-128],[-14,10],[-11,-61],[-2,-204],[-9,-61],[3,-215],[-17,-52],[-47,-373],[-6,-82],[-21,-158],[-9,-108],[-6,-122],[-17,-163],[-8,-138]],[[8006,60722],[18,-548],[13,-75],[16,-30],[23,-195],[1,-199],[-18,-46],[-21,-11],[-18,-37],[-5,-60]],[[8015,59521],[-10,64],[-26,-24],[-15,107]],[[7964,59668],[-6,50],[9,243],[-3,135],[-5,67],[-3,143],[11,106],[2,113],[-12,89],[-2,164],[-8,102],[-14,-22],[-2,96],[5,98],[-1,228],[-6,101]],[[9152,49705],[19,41],[13,61],[11,178],[19,51],[13,-77],[-3,-133],[14,25],[11,-44],[6,65],[19,25],[-3,158],[16,66],[16,-62],[13,-7],[8,-179],[1,-105],[-8,-142],[5,-205],[-17,59],[-21,-36],[-12,74],[-10,120],[-19,37],[-15,-31],[-13,-87],[-8,-177],[-10,60],[-3,88],[-15,56],[-17,113],[-10,8]],[[9007,50928],[22,29],[4,256]],[[9033,51213],[18,-47],[17,-172],[13,8],[12,-93],[24,-127],[6,-99],[11,-16],[4,-128],[22,-79],[1,-124],[17,-30],[6,-50],[-5,-128],[-10,-65],[-10,-146],[-14,7],[-15,-35],[-5,-119]],[[9125,49770],[-10,-14],[-16,94],[-3,99],[-8,64],[-23,47],[-15,145],[-9,135],[3,204],[-5,83],[-23,-96],[-4,163],[-9,57]],[[9003,50751],[4,177]],[[8572,53458],[75,0],[0,398]],[[8647,53856],[13,-152],[22,-81],[3,-81],[12,-43],[13,-154],[34,-141],[9,-169]],[[8753,53035],[-34,-322],[-5,-178],[2,-144],[-12,-74],[-2,-76]],[[8702,52241],[-43,-143],[-22,-155],[-20,193],[-26,50]],[[8591,52186],[-1,278],[-23,-123],[-10,81],[-32,-129],[-32,-17]],[[8493,52276],[0,235]],[[8493,52511],[0,503],[-5,0],[0,444],[84,0]],[[9403,56067],[-12,35]],[[9391,56102],[-14,152],[-12,7],[-10,98],[36,237],[6,231],[-11,49],[-7,131],[11,203],[43,319],[-12,31],[-1,71],[22,246],[6,18],[139,0],[3,-122],[-1,-265],[10,-33],[-3,-139],[-11,-68],[-13,-120],[-27,-70],[-11,52],[-10,-38],[-6,-105],[-36,-117],[-6,29],[-22,-32],[-2,-179],[-10,-144],[-12,4],[1,-124],[-7,-74],[-12,-56],[-9,-227]],[[8737,56915],[10,83],[8,301],[-4,84],[4,120],[18,68],[7,88],[1,101],[-4,183],[5,140],[18,-65],[45,64],[16,92],[16,-97],[26,87],[10,-181],[3,-118],[-4,-207],[13,-237],[-3,-155],[-7,-134],[4,-153],[2,-275],[-18,-29],[-16,-138],[-9,25],[-17,-34],[-22,119],[-15,3],[-15,110],[-14,44],[-21,148],[-19,33],[-18,-70]],[[9318,56035],[9,-75],[23,123],[13,-73],[5,48],[23,44]],[[9403,56067],[-2,-171],[14,-46],[13,10],[4,-78],[19,-69],[20,9],[38,-79],[9,-70],[23,-81],[26,-24]],[[9554,54810],[-18,33],[-21,-174],[-17,77],[-21,185],[-13,72],[-14,36],[-25,120],[-12,114],[-28,136],[-41,364],[-30,-67]],[[8858,62545],[10,1],[-1,300]],[[8867,62846],[7,49],[23,-13]],[[8897,62882],[24,-31],[33,-88],[11,16],[29,-107],[6,36],[15,-34],[24,53],[19,-169],[12,-61],[9,18],[13,-76],[-2,-134],[-6,-32],[-7,-137],[6,-159],[15,-121],[13,14],[11,-88],[-1,-108],[-8,-93],[5,-173],[-16,-161],[-26,-171],[-13,-162],[-9,-248],[-20,-48],[-26,-190],[-24,239],[-3,97],[-9,9],[-23,92],[-10,115],[-35,84],[-24,83],[-5,62],[11,74],[-1,208],[11,150],[2,104],[10,113],[17,102],[9,102],[-48,195],[0,76],[-9,73],[-12,0],[0,99],[-7,40]],[[9337,60786],[14,-68]],[[9351,60718],[-22,-140],[-9,87],[17,121]],[[9533,59136],[33,-40],[4,228]],[[9570,59324],[5,97],[9,-43],[13,23],[10,140],[15,12],[9,-38],[8,-196],[24,-75],[11,-109],[-9,-369],[-8,-76],[-5,-181],[-32,-133],[-5,74],[-32,258],[-22,117],[-28,311]],[[5567,77277],[32,0],[0,-222],[-32,0],[0,222]],[[1792,27401],[2,154],[8,79],[7,-22],[17,82],[5,-40],[16,-2],[28,78],[-8,-168],[-4,-157],[-11,-79],[-12,-33],[-13,64],[-10,-10],[-25,54]],[[4881,50124],[26,-1],[8,-37],[0,-148],[-25,1],[-9,74],[0,111]],[[4674,49754],[0,-74],[-13,-37],[4,111]],[[5669,99625],[21,168],[39,206],[-6,-173],[0,-203],[-19,-37],[-1,-147],[-56,0],[22,186]],[[8795,63346],[20,-337]],[[8815,63009],[-42,235],[22,102]],[[4256,45538],[17,95],[0,-168],[-17,0],[0,73]],[[5475,38808],[24,0],[0,-444],[-24,0],[0,444]],[[8559,47690],[21,0],[0,148],[77,0],[0,518],[34,0],[0,-518],[43,0],[0,-148],[78,0],[0,-518],[-124,0],[-81,0],[-3,73],[-23,61],[-2,73],[11,101],[14,-21],[16,21],[23,-8],[18,46],[11,-38],[19,30],[2,94],[-10,101],[-29,-14],[-5,52],[-14,-8],[-9,-45],[-33,-18],[-10,-65],[-14,-266],[-10,-32],[0,381]],[[4416,64359],[2,2],[5,-58],[2,-3],[1,-47],[-8,61],[-2,45]],[[2452,70735],[16,1],[-9,-111],[-7,110]],[[4465,76897],[9,65],[5,-74],[-14,9]],[[4798,53380],[52,-56],[-7,-442],[-52,58],[7,440]],[[5105,64281],[45,0],[0,-429],[-45,0],[0,429]],[[5416,66949],[0,166],[28,0],[-2,-64],[-18,-140],[-8,38]],[[7010,68542],[49,0],[0,-222],[-49,0],[0,222]],[[11768,27074],[5,89],[9,-4],[3,-74],[-3,-84],[-14,73]],[[11762,27742],[11,121],[10,-46],[9,26],[4,-151],[-7,-127],[-11,-30],[-16,207]],[[11746,25873],[2,32],[22,-88],[-13,-81],[-7,39],[-4,98]],[[12005,22755],[0,-450]],[[12005,22305],[-11,108],[5,57],[-5,107],[-9,-36],[-11,25],[-10,115],[-9,220],[0,68],[-15,93],[-2,160],[-12,151],[1,160],[-10,100],[-5,174],[-9,128],[-3,164],[-7,43],[3,102],[-3,118],[7,123],[23,108],[-9,97],[-12,15],[-2,-71],[-17,-128],[-14,-5],[4,100],[-7,164],[5,194],[-11,-16],[-1,-81],[-10,-18],[-11,170],[-9,19],[-10,138],[0,105],[12,66],[-11,123],[-11,-173],[-5,161],[-8,-28],[-13,34],[-5,-40],[-11,65],[1,221],[23,64],[6,-7],[4,226],[6,41],[3,205],[-10,97],[2,183],[19,-37],[-6,104],[12,64],[9,-12],[9,111],[-15,-2],[-5,71],[-9,12],[-11,-43],[0,125],[-10,206],[7,209],[12,82],[-3,48],[-19,-112],[-4,98],[14,156],[1,163],[8,81],[-20,30],[-9,-27],[-7,38],[-9,-6],[-15,-93],[-8,176],[3,102],[-18,121],[-11,119],[-5,126],[2,53],[16,5],[22,-56],[8,61],[-17,74],[-12,-3],[-2,54],[13,79],[15,183],[0,183],[-4,98],[8,34],[21,241],[19,-2],[16,-98],[10,-147],[-1,-134],[13,-8],[7,34],[10,-48],[7,-128],[29,-167],[2,-61],[15,18],[3,51],[16,36],[12,-29],[18,-115],[-2,-71],[10,-244],[-3,-223],[-14,92],[-11,138],[-14,-75],[-2,-99],[5,-53],[-2,-139],[13,1],[6,99],[11,-216],[-5,-174],[13,-151],[4,-109],[-4,-98],[5,-54],[13,-516],[-3,-53],[6,-87],[0,-267],[4,-24],[8,-253],[-2,-105],[1,-215],[8,-86],[6,-346],[6,-142],[1,-166],[3,-290],[-3,-246],[-1,-209],[-11,-33],[9,-323],[-2,-255],[4,-263],[-5,-162],[4,-208],[-12,-124],[3,-128]],[[11659,27729],[13,138],[-4,90],[5,195],[-8,66],[2,88],[19,-18],[4,73],[40,-241],[17,-277],[-15,-166],[6,-98],[-1,-167],[16,126],[0,108],[4,92],[22,-242],[-12,-123],[-4,-84],[-15,79],[1,-106],[-4,-127],[1,-101],[-9,-113],[-2,-131],[-7,-103],[-23,-97],[-15,-6],[-24,-47],[3,475],[12,117],[11,26],[1,128],[6,50],[-3,83],[-12,52],[-13,2],[5,152],[-5,106],[-12,1]],[[11541,30241],[11,60],[6,-120],[-10,-16],[-7,76]],[[11821,30608],[0,-4]],[[11821,30604],[21,-131],[17,-21],[16,25],[8,-53],[13,12],[7,-54],[12,86],[15,-18],[3,-239],[4,-89],[-8,-140],[10,-59],[11,-248],[2,-132],[-2,-253],[6,-141],[-18,-64],[8,-93],[-6,-66],[-22,17],[-16,-39],[-18,49],[-11,162],[-19,148],[-6,13],[-38,313],[-6,1],[-13,110],[-18,103],[-10,102],[-15,100],[-24,-240],[12,-68],[9,40],[18,-108],[-16,-77],[-3,-66],[4,-111],[-4,-136],[9,-214],[-1,-119],[-13,-67],[1,-81],[-12,-103],[-11,0],[0,-98],[-9,-96],[-12,7],[-9,92],[-8,-13],[-12,49],[-6,130],[-21,207],[-7,10],[-3,122],[-21,144],[1,65],[-13,172],[12,105],[-10,87],[-16,-129],[-7,0],[-18,112],[14,77],[-14,72],[-8,285],[9,82],[12,196],[-8,37],[-12,129],[-3,-178],[-7,-13],[-8,119],[-5,235],[-7,36],[-6,135],[102,35],[13,264],[22,568],[24,-139],[7,-84],[22,-145],[54,-251],[29,-187],[33,-286]],[[8159,51243],[16,213],[0,155],[8,6],[29,170],[1,80],[11,30],[11,104],[12,29],[16,-38],[11,-93],[25,-80],[10,-109],[2,-183],[18,73],[33,2],[14,68]],[[8376,51670],[11,-49],[-5,-131],[-16,-156],[4,-85]],[[8370,51249],[-14,-50],[-13,-92],[-41,20],[-12,-87],[-15,52],[0,-154],[-87,0],[0,96],[-11,-5],[-20,64]],[[8157,51093],[2,150]],[[8376,51670],[8,14],[1,120],[-7,91],[10,84],[2,110],[7,31],[4,155],[15,156],[12,193],[9,70],[15,-18],[19,108],[16,16],[-3,-285],[9,-4]],[[8493,52276],[0,-433]],[[8493,51843],[0,-131],[-17,-6],[-8,-56],[-6,-170],[-8,-54],[-10,2],[-34,-77],[-13,-60],[-27,-42]],[[7509,54989],[-1,-112],[6,-84],[-4,-110],[-16,33],[-14,-97],[-4,-171],[-17,-111],[-5,-259],[-9,-132],[-3,-158],[8,-48],[0,-101],[-12,-175],[2,-171]],[[7440,53293],[-25,7],[-6,-146],[-18,-95],[-16,18],[-6,155],[-8,67],[-3,161],[-12,112],[-9,11],[-13,96],[-6,-14],[-12,160],[-13,111],[9,154],[-10,294],[-3,140],[9,57],[-3,454],[7,0],[12,126],[2,105],[11,5],[1,111],[13,5],[0,89],[35,1],[-1,-320],[23,-8],[2,-144],[80,0],[29,-16]],[[7595,53227],[19,3],[0,222]],[[7614,53452],[154,0],[9,-69],[-11,-50],[-6,-143],[17,-34],[15,-116],[-14,-116],[-21,-43],[-10,24],[-11,93],[-14,-22],[-18,-110],[-4,-109],[19,-113],[-14,-64],[-8,-97],[-12,-11],[-11,-159],[-6,-15],[1,-199]],[[7596,51740],[6,127],[-7,356],[6,160],[-4,49],[8,269],[-13,126],[-1,141],[-10,13],[13,156],[1,90]],[[7871,65556],[11,-24],[-5,-91],[-6,115]],[[4058,46574],[16,0],[0,-296],[-16,0]],[[4058,46278],[0,296]],[[7842,49510],[0,-125],[17,0],[0,-148],[200,0]],[[8059,49237],[5,0],[0,-1331],[-2,0],[0,-1627],[-76,0],[-3,-222]],[[7983,46057],[1,-221]],[[7984,45836],[0,-148],[-84,-1],[1,579],[7,45],[-24,298],[-10,29],[-19,132],[-33,-51],[-15,-43],[-5,104],[-9,29],[-24,159],[-33,12],[-8,69],[-29,102],[-11,89],[-20,261],[-24,123],[-10,109],[-27,95],[-1,75],[11,87],[1,83],[28,41],[7,74],[7,194],[6,56],[13,231],[11,62],[16,49],[-1,182],[15,83],[8,-8],[18,105],[10,-4],[10,93],[24,151],[-2,69],[20,82],[34,-23]],[[7544,47705],[12,53],[5,158],[16,39],[0,-111],[-20,-159],[-13,20]],[[4641,77644],[8,8],[-5,-36],[-3,28]],[[9227,60892],[16,54],[14,-46],[9,87],[15,-25],[18,14],[9,-91],[29,-99]],[[9351,60718],[4,6],[26,-276],[-4,-118],[9,-154],[13,-55],[1,-204],[-3,-134],[-12,64],[-33,-21],[-34,-88],[-14,-105],[-81,39],[-56,430]],[[9167,60102],[7,121],[23,200],[15,-17],[26,33],[-5,266],[4,119],[-10,68]],[[7110,41244],[8,-80],[5,85],[26,1],[0,-67]],[[7149,41183],[-5,-16],[-13,-227],[22,-9],[14,-95],[20,54]],[[7187,40890],[13,30],[8,-67],[-14,-188]],[[7194,40665],[-31,-168],[-23,-41],[7,-197],[-9,-12]],[[7138,40247],[-28,194],[-12,141],[-6,158],[3,144],[7,98],[8,262]],[[7192,77379],[-14,-155]],[[7178,77224],[8,150],[6,5]],[[11973,32218],[3,191],[-1,137],[8,116],[10,13],[4,-158],[16,12],[29,99],[10,-52],[23,-12],[13,-99],[16,-34],[25,69],[8,47],[8,-43],[-69,-223],[-16,-105],[-19,20],[-4,-212],[-21,22],[-13,-161],[-7,12],[-7,129],[-14,151],[-2,81]],[[11931,34143],[6,18],[12,-213],[16,-337],[-10,7],[-16,310],[0,84],[-8,131]],[[11897,34430],[14,-163],[6,-1],[5,-167],[-11,53],[-14,278]],[[11859,36542],[1,138],[62,-10],[4,-30],[174,-19],[5,-8],[-6,-191],[23,-320],[81,-480],[38,-194],[38,-600],[43,-456],[51,-474],[-24,-219],[33,-571],[22,-252],[28,-376],[-114,-1406],[-9,-76],[-14,3],[7,-121],[-20,-248],[-8,62],[-17,381],[-19,279],[-1,96],[6,77],[21,144],[10,-239],[9,47],[-2,133],[-9,156],[-7,48],[-2,140],[-12,-65],[2,-179],[-15,-63],[-11,-91],[-11,56],[-25,309],[-11,143],[-4,120],[1,198],[-3,43],[-4,223],[1,137],[8,62],[-1,189],[-6,88],[22,79],[11,116],[-11,132],[3,100],[-13,199],[-5,-353],[-21,-141],[-5,-121],[13,-190],[-8,-64],[-5,-162],[-11,40],[-27,-90],[-20,49],[-15,95],[-23,55],[-7,-68],[-23,70],[-23,252],[-6,111],[11,90],[14,36],[-3,88],[-11,-13],[2,230],[-27,-44],[-11,85],[4,132],[-9,418],[-13,93],[-4,119],[-20,337],[-6,46],[-13,304],[20,22],[-7,109],[5,261],[-2,146],[-15,161],[-4,-17],[-4,-253],[-9,-50],[-9,202],[-17,205],[-4,134],[3,93],[-2,130],[-8,243]],[[4222,46213],[71,0],[0,-438],[-71,0],[0,438]],[[3936,51844],[13,115],[6,-45],[-13,-114],[-6,44]],[[7691,95644],[15,81],[19,-1],[20,-46],[15,24],[17,81],[14,-130],[9,-19],[15,73],[16,-66],[35,-28],[7,-55],[21,-44],[28,-204],[17,22],[18,-48],[15,-86],[19,51],[37,-61],[11,-103],[21,-93],[5,-118],[-6,-155],[36,-30],[23,116],[13,27],[0,-142],[14,-20],[14,134],[25,-12],[7,-73],[24,-44],[11,-93],[23,-31],[7,-81],[-4,-78],[-38,-72],[-10,-191],[-23,-74],[-20,-135],[-12,-4],[-75,206],[-9,-224],[-24,-336],[-11,38],[-7,118],[-17,516],[2,103],[-43,68],[-22,101],[-48,-6],[-20,239],[-52,36],[-3,92],[-33,601],[-8,87],[-51,61],[-34,-9],[-3,37]],[[4726,56778],[-1,148],[28,0],[-5,-296],[-23,0],[1,148]],[[5635,77572],[42,0],[0,-295],[-42,-1],[0,296]],[[4969,50105],[37,-129],[-13,-75],[-28,93],[4,111]],[[12530,17410],[1,9],[4,-57],[-4,17],[-1,31]],[[7310,44487],[28,19]],[[7338,44506],[2,-93]],[[7340,44413],[-4,-55]],[[7336,44358],[-24,0]],[[7312,44358],[-14,0],[12,129]],[[12583,19966],[3,55],[15,0],[0,-74],[14,-55],[4,129],[7,0],[0,-222],[4,-204],[6,-47],[1,-137],[-22,0],[0,259],[-11,130],[-16,0],[-5,37],[0,129]],[[7263,44913],[6,111],[33,0],[4,-37],[0,-167],[9,-20]],[[7315,44800],[-3,-146]],[[7312,44654],[-6,78],[-10,-131],[-31,-21],[-3,77]],[[7262,44657],[1,88],[-10,63],[-10,138]],[[8830,62920],[19,0],[0,-74],[18,0]],[[8858,62545],[-17,2],[0,160],[-11,213]],[[12632,19207],[9,74],[14,0],[4,-74],[-3,-147],[-10,35],[-14,112]],[[5625,66302],[77,0],[2,-222],[-76,0],[-3,222]],[[8267,66823],[0,-3]],[[8267,66820],[4,17]],[[8271,66837],[18,1]],[[8324,66617],[-4,-1]],[[8319,66568],[-2,-26]],[[8317,66408],[-26,72]],[[8291,66480],[0,108],[-31,-9],[0,41]],[[8260,66620],[-10,51],[11,169],[6,-17]],[[11653,33995],[8,70],[39,0],[12,-111],[23,0],[8,74],[0,-234],[-10,78],[-16,-142],[-13,-28],[-17,14],[-22,-54],[0,218],[-12,115]],[[7209,40288],[10,29]],[[7219,40317],[6,-43]],[[7225,40274],[-8,-36]],[[7217,40238],[-8,50]],[[12451,19193],[11,10],[-1,-50],[-10,40]],[[11821,30608],[0,144],[15,0],[0,-74],[54,0],[-13,-148],[-41,0],[0,74],[-15,0]],[[5423,29892],[2,-115],[30,0],[8,-74],[0,-148],[16,0],[0,-148],[-16,0],[-9,287],[-27,18],[-4,126],[0,54]],[[5359,28978],[18,122],[24,249],[11,72],[19,27],[2,-189],[-38,0],[-23,-222],[0,-74],[-13,15]],[[3938,17609],[16,159],[44,-2],[0,-95],[-7,-179],[1,-82],[8,-79],[13,10],[17,-286],[-4,-86],[-14,-18],[0,74],[-14,0],[0,148],[-15,0],[0,149],[-28,0],[0,246],[-9,-24],[-8,65]],[[1974,24598],[8,5],[29,-61],[20,-10],[25,22],[9,-61],[-9,-122],[-10,-31],[-12,-165],[-17,31],[-10,74],[-2,121],[-20,56],[-11,141]],[[3166,49802],[11,0],[-3,-79],[-8,0],[0,79]],[[5358,78348],[47,0],[0,-74],[-42,-221],[-5,-1],[0,296]],[[7872,65117],[9,189],[15,-63],[1,-180],[-22,0],[-3,54]],[[6796,31151],[26,-6],[-14,-80],[5,-52],[-9,-84],[-8,1],[0,221]],[[7873,50216],[5,55]],[[7878,50271],[10,-105],[0,-97],[-15,-19],[0,166]],[[4019,77097],[7,161],[26,49],[5,180],[30,-174],[-17,-74],[0,-222],[-13,0],[0,-147],[-22,0],[-14,137],[-2,90]],[[7380,67565],[12,77],[27,63],[10,47],[0,142],[21,34],[12,58],[35,-292],[-25,-179],[-15,14],[4,-101],[-25,-33],[-15,-61],[-16,25],[-12,121],[-13,85]],[[11769,34254],[16,72],[16,-60],[7,-59],[9,35],[10,-227],[3,-189],[4,-67],[-4,-143],[-15,-18],[-22,-92],[-11,344],[-1,159],[-12,245]],[[4108,46364],[12,73],[6,-119],[-10,-66],[-8,112]],[[7527,79737],[14,65],[0,92],[10,127],[-6,52],[10,383],[14,30],[24,-37],[7,-178],[12,1],[4,-116],[23,28],[5,-133],[-13,-137],[6,-218],[-50,-46],[-19,79],[-26,-69],[-15,77]],[[7312,44654],[-2,-167]],[[7312,44358],[0,-303],[-9,-3],[0,-286],[-16,-1]],[[7287,43765],[-8,-38],[-20,16]],[[7259,43743],[-5,170]],[[7254,43913],[4,247],[1,399],[3,98]],[[7776,46628],[-5,-137],[-10,-121],[8,-152]],[[7769,46218],[-22,156],[-9,-31],[-11,-131],[-28,-19],[4,106],[-10,198],[10,204],[-9,95],[10,42],[16,-65],[6,-108],[23,59],[27,-96]],[[2784,68386],[10,327],[12,201],[10,-33],[-3,-89],[-17,-88],[-9,-244],[5,-173],[25,-98],[1,-35],[35,-65],[34,52],[-26,-444],[-17,129],[-34,183],[-22,262],[-4,115]],[[7776,46628],[12,-75],[3,-80],[-5,-123],[1,-103],[-8,-81],[-10,52]],[[11800,37919],[7,-76],[8,-223],[-4,-64],[14,-281],[-19,98],[-6,255],[-12,192]],[[11788,37820],[12,5],[0,94]],[[7134,39089],[5,135],[15,73],[23,-82],[9,-6],[9,-107],[6,14],[6,-95],[-9,-87],[-8,12],[-19,177],[-31,-55]],[[7863,72838],[3,74],[12,42],[12,-36],[5,-112],[14,26],[2,-200],[-10,-4],[-25,61],[-13,149]],[[7653,50124],[26,0],[8,-74],[0,-74],[17,0]],[[7704,49976],[1,-72]],[[7578,49368],[7,105],[-1,150],[-9,108],[0,395]],[[7864,50924],[25,-41],[11,25],[3,-97]],[[7903,50811],[-9,-64]],[[7894,50747],[-10,-66],[0,-70],[16,-104]],[[7900,50507],[0,-6]],[[7900,50501],[-13,-67]],[[7887,50434],[-27,-15]],[[7860,50419],[1,125],[7,120],[-4,260]],[[8108,66739],[10,116],[20,127],[17,139],[29,31],[25,-49],[10,-174],[12,-72]],[[8231,66857],[-1,-37]],[[8230,66820],[-22,-73],[-11,2],[-8,-134],[-33,-145],[-16,-2]],[[8140,66468],[5,166],[-24,111],[-13,-6]],[[8930,52599],[9,-26],[3,-202]],[[8942,52371],[-7,-30]],[[8935,52341],[-8,-56]],[[8927,52285],[-12,144],[3,143]],[[5911,38345],[12,5],[7,70],[-1,94],[13,80],[2,-82],[18,-60],[14,-7],[0,-172],[-21,-57],[-18,77],[-20,-14],[-6,66]],[[12882,16939],[5,64],[10,-50],[-11,-54],[-4,40]],[[7248,39773],[10,-11],[3,109],[17,16],[10,-31],[1,-77],[-7,-171],[-16,42],[-18,123]],[[3973,73118],[29,-96],[2,-69],[-31,0],[0,165]],[[7509,54989],[19,-67],[11,64],[20,3],[3,-161],[-10,-140],[3,-77],[1,-424],[9,-173],[11,-97],[9,-136],[-7,-346],[12,-213],[-15,-132],[-10,63],[-10,-1],[-12,-138],[-31,-31],[-25,-216],[-17,98],[-10,166],[-16,53],[-6,144],[2,65]],[[11520,32786],[4,48],[23,-119],[-7,-142],[-9,-15],[-9,127],[-2,101]],[[8452,65655],[4,-147],[15,-1]],[[8471,65507],[28,1],[14,-75],[17,-216],[13,-113],[16,-90],[11,-10],[11,-119],[13,-20]],[[8594,64865],[-30,-78],[-14,14],[-33,-17],[-8,-85],[-20,56]],[[8489,64755],[-1,180],[-11,154],[-5,126],[-17,160],[-4,106],[-10,73],[-2,99],[13,2]],[[3835,41372],[4,130],[28,-70],[18,37],[11,-191],[-12,-74],[-23,-80],[-26,248]],[[4428,67299],[29,0],[0,-135],[-24,4],[-5,131]],[[8291,67490],[1,-216],[-12,-27]],[[8280,67247],[-12,-9],[-12,-68]],[[8256,67170],[-19,-166],[-6,-16],[0,-131]],[[8108,66739],[-11,78],[-7,110],[2,125],[27,116],[1,100],[9,46],[15,-24],[14,45],[9,-49],[14,35],[11,103],[16,-21],[20,58],[56,53],[7,-24]],[[8591,52186],[-13,18],[-10,-103],[-10,-2],[-13,-95],[-18,-30],[-4,-53],[-30,-78]],[[9167,60102],[-14,-125],[-18,-40],[-27,63],[-9,91],[3,90],[-9,207],[7,268],[7,127],[21,134],[17,-49],[22,111],[8,-97],[15,22],[5,-51],[13,21],[10,-32],[9,50]],[[8790,73990],[4,217],[13,-113],[12,20],[10,-50],[-22,-169],[-17,95]],[[8481,66853],[8,127],[1,174],[-14,34]],[[8476,67188],[21,80],[23,-199],[17,7],[11,-32],[-4,-116],[4,-77],[-13,-69],[-16,14],[-17,-84],[-16,-3],[-7,57],[2,87]],[[8935,52341],[20,-121],[6,-66]],[[8961,52154],[2,-115],[9,-97],[3,-117]],[[8975,51825],[-13,-3]],[[8962,51822],[-1,104],[-15,128],[-19,231]],[[7287,43765],[0,-295],[-8,-1]],[[7279,43469],[-22,139],[2,135]],[[5076,23031],[9,-36],[9,-113],[15,24],[22,-57],[8,-53],[-3,-90],[3,-79],[-17,-63],[-10,78],[-6,-21],[-7,178],[-10,27],[-8,85],[-5,120]],[[7192,77379],[13,126],[17,86],[30,-79],[12,-58],[-1,-68],[-38,-17],[-2,-83],[4,-172],[-20,72],[-26,-1],[-3,39]],[[6840,60637],[22,158],[8,96],[0,144],[11,163],[28,327],[19,94],[18,216],[-4,111],[23,209],[-7,113],[25,17],[55,-15],[0,-755],[-49,0],[0,-887],[-149,9]],[[8280,67247],[18,-41]],[[8271,66837],[-9,101],[7,85],[-11,49],[-2,98]],[[7154,42021],[-3,-119],[4,-88],[10,-96],[10,-6],[16,-173],[18,25],[14,-30],[0,-162],[12,-73],[-21,-173]],[[7214,41126],[-32,91],[-12,91],[-21,-125]],[[7110,41244],[12,236],[6,161],[7,342],[5,126]],[[7082,38657],[19,-32],[12,-69],[-3,-110],[-7,4]],[[7103,38450],[-17,91],[-4,116]],[[6411,40855],[19,11],[11,37],[7,74],[20,-27],[4,-239],[-12,-28],[-7,52],[-16,17],[-13,-65],[-13,168]],[[8291,67490],[22,105],[8,-127],[10,-51]],[[12411,20873],[4,45],[16,-37],[-1,-119],[-10,-7],[-9,118]],[[5419,36329],[2,112],[11,72],[16,-94],[-3,-194],[-7,-99],[-16,109],[-3,94]],[[7117,83671],[20,114],[16,-124],[-19,-114],[-17,124]],[[5473,95616],[6,167],[25,0],[0,147],[37,0],[0,-147],[12,0],[0,-444],[-74,0],[0,148],[-6,129]],[[4740,96307],[16,88],[31,245],[16,-182],[-5,-103],[-19,-97],[-26,-5],[-13,54]],[[12020,28993],[11,54],[-6,245],[13,0],[0,-148],[7,0],[8,-74],[0,-75],[23,0],[0,-148],[-15,0],[0,-222],[30,0],[0,-55],[-13,-61],[-16,76],[-22,309],[-1,74],[-13,-10],[-6,35]],[[7782,42729],[18,-148],[8,0]],[[7808,42581],[0,-74],[25,0],[0,-148],[-23,0],[-4,54],[-1,144],[-17,-30],[-4,-168]],[[7784,42359],[-9,77]],[[7775,42436],[0,293],[7,0]],[[12879,17985],[5,53],[5,-50],[-5,-51],[-5,48]],[[6407,26378],[31,0],[-2,-148],[-15,-37],[-14,0],[0,185]],[[6468,29412],[19,0],[8,-148],[-23,0],[-4,148]],[[6644,27674],[42,166],[22,-80],[-2,-73],[-20,-24],[-15,-119],[-6,-103],[-21,233]],[[6906,31273],[9,117],[15,-19],[2,-66],[-6,-116],[-20,84]],[[5216,23169],[9,-42],[-2,-86],[21,54],[-8,-222],[-29,10]],[[5207,22883],[0,212],[9,74]],[[6228,41911],[24,3],[-5,-94],[-10,-98],[4,-105],[-12,-2],[-1,296]],[[5143,26406],[5,167],[42,0],[0,-592],[-44,1],[-2,160],[3,95],[-4,169]],[[7765,50124],[0,19]],[[7765,50143],[0,18]],[[7765,50161],[4,-37],[22,0]],[[7791,50124],[0,-77],[8,-52],[9,22]],[[7808,50017],[0,-27]],[[7808,49990],[0,-40]],[[7750,49939],[15,185]],[[12005,22755],[4,-115],[0,-161],[-4,-174]],[[0,332],[15,258],[-4,136],[24,12],[8,-136],[-1,-56],[-20,-82],[-2,-163],[8,-78],[1,-72],[13,23],[-15,-174],[-24,0],[0,147],[-3,185]],[[3412,55965],[36,0],[0,-74],[36,0],[0,-148],[-9,0],[0,-222],[-9,-74],[-45,0],[0,370],[-9,0],[0,148]],[[3693,52656],[1,50],[27,0],[0,-92],[-8,-50],[-18,0],[-2,92]],[[3826,52352],[-13,-10],[-13,74],[-5,74],[-13,0],[-8,74],[0,148],[105,0],[0,-370],[-35,3]],[[8388,66172],[-13,50]],[[2212,71419],[13,59],[3,-133],[-14,8],[-2,66]],[[4108,65562],[4,74],[20,0],[-11,-106],[-13,32]],[[7827,64166],[18,10],[0,74],[28,0],[0,-74],[34,0],[3,-98],[-28,-345],[-51,0],[4,53],[1,222],[-9,158]],[[5524,39474],[49,0],[0,-444],[-49,0],[0,444]],[[4688,36951],[2,-3]],[[4690,36948],[-2,3]],[[4676,37167],[-1,5]],[[4675,37172],[1,-5]],[[4664,37402],[1,-131],[8,-85]],[[4673,37186],[-15,-99],[-36,-211],[-13,-121],[0,647],[55,0]],[[1416,61307],[17,17],[11,-89],[-1,-181],[-10,-68],[-14,-6],[0,150],[-3,177]],[[3198,65082],[19,0],[0,203],[21,-57],[0,-165],[5,-113],[-17,6],[-28,57],[0,69]],[[4149,59994],[3,-46],[23,-32],[6,-96],[12,-66],[-20,-79],[2,-66],[-11,-50],[-6,-132],[-27,0]],[[4131,59427],[0,148],[18,0],[0,419]],[[3010,73798],[6,78],[18,95],[-14,-214],[-10,41]],[[698,2207],[6,27],[-1,130],[8,0],[0,-149],[5,-61],[-5,-89],[8,-146],[-12,0],[0,283],[-9,5]],[[4131,59427],[-50,3],[9,120],[30,229],[-1,102],[-10,175],[14,12],[11,-90],[15,16]],[[2944,68828],[7,71],[4,-47],[-11,-24]],[[4440,72584],[10,0],[0,-74],[-10,0],[0,74]],[[3461,81576],[8,63],[26,-158],[-7,-53],[-27,148]],[[4761,75798],[16,-18],[0,-129],[-15,0],[-1,147]],[[12508,21580],[5,40],[13,6],[19,-235],[-29,0],[-8,111],[0,78]],[[12435,18800],[7,52],[0,133],[19,0],[0,-111],[-11,0],[0,-222],[-10,24],[-5,124]],[[4182,43061],[12,0],[0,-37],[-12,0],[0,37]],[[3145,12436],[14,0],[0,74],[14,0],[3,-74],[0,-148],[14,0],[0,-340],[-6,-158],[-7,-21],[-11,37],[-3,147],[7,99],[-11,173],[15,141],[-9,99],[-7,-82],[-13,53]],[[3072,12348],[3,-43],[11,23],[8,-91],[-4,-107],[13,-93],[6,83],[19,-86],[2,-82],[-15,-100],[16,-64],[21,82],[-3,-101],[-21,0],[0,-74],[-22,0],[0,74],[-20,0],[-7,75],[0,296],[-7,0],[0,208]],[[4618,17970],[9,67],[-2,81],[13,-8],[0,-284],[-4,-12],[-16,156]],[[2954,43771],[15,105],[23,42],[1,-155],[-39,8]],[[4198,45539],[13,0],[-8,-130],[-5,130]],[[4243,36983],[6,-86],[21,49],[29,153],[1,-732],[-41,0],[1,156],[-2,147],[-15,313]],[[3337,44355],[2,0]],[[3339,44355],[-2,0]],[[3321,44849],[16,24],[0,-74]],[[3337,44799],[0,-97]],[[3337,44702],[-14,18],[-17,-124],[-11,-29],[-10,-89],[-18,-21]],[[3267,44457],[-5,305],[59,87]],[[6857,75463],[4,169]],[[6861,75632],[36,0],[0,-296],[-51,0],[11,127]],[[4699,55743],[18,0],[0,-215],[3,-95],[-6,-133],[-15,0],[0,443]],[[8963,75666],[18,1],[17,72],[0,-195],[-23,-2],[-12,124]],[[6406,72855],[10,129],[5,-186],[-15,57]],[[5786,71254],[50,0],[0,-296],[-32,2],[0,75],[-18,219]],[[5237,66228],[94,0],[-15,-109],[5,-70],[-14,-77],[-8,1],[-24,-103],[-17,-160],[-21,0],[0,518]],[[6039,66180],[29,73],[0,-221],[-29,0],[0,148]],[[8227,66544],[18,143],[15,-67]],[[8291,66480],[-15,32],[-27,-1],[-8,29],[-14,-37]],[[8227,66503],[0,41]],[[3465,46135],[22,33],[12,-22],[4,-108],[-38,-17],[0,114]],[[7336,45990],[-3,56]],[[7333,46046],[56,418],[21,187],[12,69],[9,121],[14,45],[34,192],[20,73],[15,100],[0,-130],[-14,1],[0,-155],[-22,-1],[0,-134],[-21,1],[0,-94],[-17,-10],[-9,-79],[0,-122],[-20,1],[-7,-122],[-22,-115],[0,-91],[-24,1],[-8,-68],[0,-144],[-14,0]],[[5109,35849],[9,-148],[-9,0],[0,148]],[[5070,35675],[16,26],[8,-74],[0,-214],[-7,-24],[8,-171],[6,-187],[3,-292],[-7,0],[-1,296],[-7,0],[0,148],[-11,0],[0,370],[-8,0],[0,122]],[[5028,37059],[49,0],[0,-323],[24,1],[0,-74],[24,0],[0,-148],[8,0],[0,-354],[-11,39],[-5,93],[0,222],[-8,74],[-32,0],[0,27],[-49,1],[0,442]],[[8230,66820],[5,-55],[-8,-142],[0,-79]],[[8227,66503],[-14,2],[-16,-86],[-7,-127],[-23,-112],[-14,-2],[-10,82],[-3,208]],[[12863,19453],[11,0],[-2,-46],[-9,46]],[[8839,83260],[18,48],[3,105],[-7,127],[16,100],[8,292],[13,-8],[28,-155],[11,8],[-8,169],[17,48],[31,-56],[5,-97],[-9,-214],[4,-205],[-70,26],[-16,-151],[-20,-97],[-17,-39],[-7,99]],[[8351,74527],[2,90],[31,71],[18,96],[15,131],[4,-113],[-11,-109],[3,-84],[-10,-172],[-24,56],[-28,34]],[[9384,75923],[10,121],[12,67],[13,-71],[3,-82],[-15,-102],[-19,-5],[-4,72]],[[8618,77935],[15,-15],[7,200],[22,-18],[-6,-79],[29,-134],[8,-74],[-21,-231],[-19,151],[-8,120],[-27,80]],[[7541,78789],[8,188],[16,81],[9,125],[26,32],[7,56],[53,52],[-22,-131],[-13,-256],[-12,-36],[-20,30],[-20,-149],[-32,8]],[[5853,57223],[6,93],[70,26],[4,-69],[-17,-64],[-9,50],[1,-257],[-29,123],[-17,-132],[-9,230]],[[10104,55455],[18,225],[2,475],[12,39],[5,94],[29,43],[25,-2],[0,-1483],[-20,90],[-11,82],[-13,-17],[-27,87],[-12,102],[-1,131],[-7,134]],[[8835,62200],[7,129],[4,206],[20,-432],[-33,0],[2,97]],[[3008,49852],[29,0],[-12,-182],[-8,-33],[-9,215]],[[2815,84629],[25,115],[11,-51],[-36,-64]],[[9900,62820],[11,319],[5,67],[-12,166],[21,66],[38,-49],[19,-91],[-6,-46],[-3,-162],[10,-117],[-2,-85],[13,-33],[16,40],[3,-84],[11,-51],[9,-166],[-28,-97],[-19,-220],[-18,-13],[-9,107],[-10,44],[-4,197],[-15,110],[-24,27],[-6,71]],[[9922,57139],[15,55],[5,-43]],[[9942,57151],[15,27],[8,84],[-1,111]],[[9964,57373],[8,-77]],[[9972,57296],[-9,-162],[20,-151],[-6,-212],[-22,191],[-7,-26],[-17,86],[-9,117]],[[9964,57373],[2,124],[37,-298],[-16,5],[-7,105],[-8,-13]],[[9922,57139],[1,105],[16,-16],[3,-77]],[[3838,81057],[11,23],[83,-126],[-11,-198],[3,-150],[-8,-88],[-12,10],[6,208],[-7,123],[-31,146],[-14,-18],[-20,70]],[[3896,83012],[11,193],[1,91],[19,59],[2,83],[18,160],[15,28],[14,122],[16,-13],[-5,-513],[-27,-474],[-25,46],[-1,69],[-34,58],[-4,91]],[[13316,21508],[11,188],[10,-202],[-4,-472],[-13,139],[-4,347]],[[12310,23270],[-2,-27]],[[12308,23243],[-1,-49]],[[12307,23194],[-4,1]],[[12303,23195],[7,75]],[[4058,46278],[-30,-15],[20,402],[10,-91]],[[4245,45615],[7,-5],[14,138],[8,-50],[-12,-89],[-12,-26],[-5,32]],[[7943,50109],[-12,57],[-15,-46],[-19,5]],[[7897,50125],[-9,52],[-3,149],[12,146],[8,-6],[23,100],[13,105],[15,11],[9,32],[22,-295],[14,-59],[-2,-86],[-12,42],[-13,-65],[-5,44],[-15,-11],[-11,34],[-5,-101],[5,-108]],[[7780,50709],[-6,-174],[0,-264],[-9,1],[0,-111]],[[7765,50143],[0,-19]],[[7704,49976],[0,370],[-17,27]],[[7870,62696],[12,31],[14,90],[43,22],[15,100],[15,62],[15,7],[6,-142],[-1,-128],[-15,-177],[-23,-38],[-6,-86],[4,-196],[-5,-47]],[[4664,37402],[23,4],[5,-63],[12,73],[6,-48],[2,-163],[-11,-3],[-6,-226],[-5,-28]],[[4688,36951],[-15,130],[3,86]],[[4675,37172],[-2,14]],[[12497,25680],[16,-134],[18,-30],[16,-195],[11,-234],[-61,2],[0,152],[-10,202]],[[12487,25443],[-3,132],[13,105]],[[9033,54195],[-11,-59],[-29,-383],[-32,-49],[-7,-148]],[[8954,53556],[-11,55]],[[8943,53611],[7,83],[-2,129],[-5,81],[4,172],[-10,215],[44,-1]],[[5537,50268],[14,106],[10,223],[7,70],[7,154],[19,45],[22,-5],[8,43],[19,-194],[-7,-148],[-10,-347],[-19,5],[-8,-195],[8,-105],[-13,-92],[-8,65],[-23,11],[-14,119],[-11,140],[-1,105]],[[5725,51133],[23,81],[9,-37],[-9,-146],[-9,92],[-14,10]],[[7791,43314],[12,0],[10,126]],[[7813,43440],[6,-257],[22,-188],[14,-39],[2,-69],[-27,25],[-21,-64],[-1,-267]],[[7782,42729],[11,83],[1,100],[-4,213],[1,189]],[[9576,49705],[1,59],[19,51],[7,82],[14,-264],[18,-151],[3,-90],[16,-46],[4,107],[-7,328],[2,101],[15,-83],[8,117],[14,-16],[8,-80],[8,-235],[21,-41],[10,-127],[-4,-171],[5,-147],[-44,-151],[-16,-31],[-25,6],[-32,109],[5,68],[-7,91],[-37,227],[5,132],[-11,155]],[[9125,49770],[-52,-287],[-26,-196],[-7,95],[-19,30],[-9,104],[-17,61],[-13,122],[-6,92],[0,123],[11,162],[1,168],[4,168],[1,152],[10,187]],[[3267,44457],[-13,54],[-21,39],[-12,228],[11,112],[25,-15],[12,75],[6,144],[11,-4],[12,169],[16,25],[18,-122],[9,-11],[-6,-152],[-14,-150]],[[11561,39001],[22,-11],[12,-46],[15,28],[25,-87],[9,34]],[[11644,38919],[0,-60],[6,-29],[-3,-86],[-13,-18],[-11,93],[-16,2],[-11,-38],[-30,-51],[-13,105],[8,164]],[[11767,38137],[1,175]],[[11768,38312],[15,-76],[5,-170],[-3,-84],[15,-63]],[[11788,37820],[-7,114],[-12,87],[-2,116]],[[8975,51825],[3,-129],[11,-45],[9,-144],[9,-33],[5,-89],[10,-26],[11,-146]],[[9007,50928],[-23,399],[-17,356],[-5,139]],[[5691,35362],[-7,-21],[-16,40],[-10,82],[-17,41],[-27,-118],[-7,114],[1,135],[8,78],[12,187],[3,235],[10,-134],[6,50],[10,-39],[15,32],[11,-35],[10,48],[3,-534],[-7,-86]],[[5553,34869],[14,115],[10,131],[23,186],[21,42],[22,111],[15,-21],[17,-118],[7,-275],[-2,-117],[-13,-2],[-5,-70],[-110,0],[1,18]],[[5207,22883],[-23,-40],[-5,93],[19,227],[18,6]],[[6212,40620],[-8,-1],[1,201],[9,133],[13,20],[0,202],[10,69],[38,-246],[-15,-21],[-14,-97],[9,-158],[-15,-101]],[[6240,39054],[19,40],[20,-1],[24,-76],[-25,-224],[-23,-11],[-6,155],[-9,117]],[[5641,36971],[3,53],[-1,257],[6,116],[21,33],[-7,-99],[1,-228],[-6,-269],[-17,137]],[[7943,50109],[4,-50],[-10,-133],[-1,-95],[-18,-129]],[[7918,49702],[-17,-57]],[[7901,49645],[-13,13],[-12,-32],[4,199],[16,131],[1,169]],[[7981,50807],[13,66]],[[7994,50873],[20,165]],[[8014,51038],[9,100]],[[8023,51138],[14,86],[8,122],[17,22],[12,-57],[5,121],[9,-57],[38,26],[34,-110],[-1,-48]],[[8157,51093],[-28,23],[-15,-41],[-14,30],[-31,-28],[-25,-114],[-22,-39],[-18,-102],[-20,-56],[-3,41]],[[7305,47546],[-11,46],[-17,-17],[-20,76]],[[7257,47651],[-5,58],[0,305],[-14,72],[-2,90],[18,22],[-2,152],[95,0],[0,-321],[-12,-45],[-16,-188],[-10,-213],[-4,-37]],[[7225,43165],[15,24],[-13,-143],[24,-89]],[[7200,42790],[19,235],[6,140]],[[3899,65189],[9,55],[-6,157],[18,2],[0,-189],[-21,-25]],[[7804,44139],[1,25]],[[7805,44164],[11,82],[1,-160]],[[7817,44086],[-12,-89]],[[7805,43997],[-1,142]],[[7340,44413],[15,-125],[23,175],[4,74],[18,26],[10,111],[16,-102],[4,-65],[17,-63],[10,-76]],[[7457,44368],[-4,-39],[-79,32],[-13,-147],[-25,144]],[[7784,42359],[0,-186],[-13,-83],[-11,-7],[2,370],[13,-17]],[[4352,46627],[15,152],[9,-31],[6,-157],[-22,-42],[-8,78]],[[7103,38450],[-14,0],[-4,-97],[-13,66],[-8,95],[1,72],[17,71]],[[7315,44800],[41,-1]],[[7356,44799],[-8,-225],[-10,-68]],[[7903,50811],[28,77],[25,105],[32,223],[21,-15],[14,-63]],[[8014,51038],[-20,-165]],[[7981,50807],[-12,-68],[-14,-51],[-12,-6],[-18,-47],[1,-63],[-12,-58],[-14,-13]],[[7900,50507],[-15,111],[9,129]],[[7194,40665],[18,-55]],[[7212,40610],[9,-195],[-2,-98]],[[7209,40288],[-15,-19],[-41,-109]],[[7153,40160],[-15,87]],[[7212,40610],[14,37],[2,58],[14,24],[15,74],[-6,117],[15,-32],[18,104]],[[7284,40992],[20,-128],[-4,-120]],[[7300,40744],[-18,-169],[-40,-259],[-17,-42]],[[7595,53227],[-12,134],[-2,127],[7,55],[3,130],[-3,154],[11,102],[24,24],[-1,-186],[-9,-40],[1,-275]],[[7799,50784],[1,-139],[10,-127],[-2,-172],[-8,1],[0,-129],[8,-20]],[[7808,50198],[0,-72]],[[7808,50126],[-17,-2]],[[5250,51281],[34,468],[12,-40],[5,82],[25,112],[19,-194],[19,-160],[-13,-139],[0,-277],[-7,-20],[-33,-238],[-25,-2],[0,85],[-9,84],[1,74],[-28,165]],[[7842,49510],[19,-22],[13,82],[14,0],[13,75]],[[7918,49702],[10,43],[47,-221],[6,-88],[35,-2],[16,-73],[2,-93],[19,26],[6,-57]],[[8572,53458],[-6,158],[2,253],[-3,97],[9,46],[11,-48],[2,128],[7,90],[14,28],[13,-142],[26,-134],[0,-78]],[[7808,50198],[4,111],[22,42],[4,-150]],[[7838,50201],[0,-114],[-6,-73],[-11,-37],[-13,13]],[[7808,50017],[0,109]],[[7356,44799],[0,241],[33,4],[12,28],[0,-101],[18,2],[0,-95],[-12,-67],[50,0],[0,-443]],[[7305,47546],[0,-63],[-12,-189],[-42,-77],[-9,-103],[-24,10],[-1,62],[-21,127],[-2,91],[7,114],[18,25],[-5,142],[-13,42],[-6,117],[27,-90],[23,-135],[12,32]],[[6933,29330],[18,55],[2,238],[6,96],[18,59],[7,-57],[14,51],[11,-23],[-3,-171],[-24,-280],[-6,-40],[-14,59],[-9,-34],[-9,46],[-11,1]],[[3820,15054],[26,21],[13,100],[0,-148],[-39,0],[0,27]],[[3801,15602],[19,92],[2,166],[-9,129],[18,0],[0,-148],[-8,0],[0,-222],[-22,-17]],[[3788,15989],[5,0],[6,-196],[-3,-45],[1,-218],[9,-135],[0,-161],[12,-169],[-16,-3],[0,335],[-7,0],[0,148],[-7,0],[0,444]],[[6868,30460],[3,120],[9,90],[14,7],[8,-85],[12,1],[3,-210],[-4,-36],[0,-123],[8,-59],[-2,-147],[-13,-70]],[[6906,29948],[-5,181],[-10,51],[17,169],[-11,86],[-12,-38],[-17,63]],[[6906,29948],[-20,45],[-16,-75],[-13,20],[-6,-100],[-13,-49],[-2,92],[32,579]],[[8440,66024],[7,26]],[[8447,66050],[14,197],[24,1],[0,-112],[-26,0],[-7,-110],[18,-1],[10,-76],[0,-108],[15,0],[5,-149],[-24,2],[-5,-39],[0,-148]],[[8452,65655],[-3,129],[-12,56],[3,184]],[[8435,67070],[31,46],[10,72]],[[8481,66853],[-21,-9],[-14,-50],[-17,-15],[-6,81],[-16,53]],[[2903,69331],[20,0],[0,-122],[-20,52],[0,70]],[[8418,66107],[19,3],[10,-60]],[[8440,66024],[-22,79]],[[12841,18314],[7,-18],[1,-102],[22,-23],[-1,-109],[-17,82],[-12,170]],[[99865,5575],[1,206],[4,199],[10,78],[10,9],[16,-55],[7,44],[15,-97],[3,-87],[-6,-157],[7,-65],[10,130],[12,26],[3,-55],[12,-59],[-1,-153],[-11,-79],[8,-87],[24,-15],[9,-52],[1,-97],[-11,38],[-19,-61],[-21,168],[-7,-37],[-11,-275],[-15,-52],[-10,115],[-2,109],[-33,195],[-5,166]],[[9709,58028],[11,150],[21,12],[7,60],[-6,108],[4,65],[32,-42],[15,-170],[13,-53],[11,-138],[13,-16],[3,-76],[-33,-185],[-24,120],[-12,-43],[-11,65],[-10,-90],[-10,-4],[-24,237]],[[5162,37329],[40,-1],[5,-89],[10,-52],[3,-102],[-9,-90],[-15,-13],[-4,-50],[-1,-121],[-26,0],[0,444],[-3,74]],[[12747,21614],[0,66],[10,259],[7,-91],[8,-269],[-8,-217],[-12,8],[2,78],[-7,166]],[[12630,24113],[0,104],[8,19],[3,-97],[-11,-26]],[[12629,24372],[9,133],[13,54],[-1,-111],[-14,-112],[-7,36]],[[12606,23431],[7,177],[13,99],[25,-180],[-10,-77],[-3,-82],[-10,-34],[-3,-64],[-15,39],[-4,122]],[[12605,24168],[9,163],[4,-116],[-5,-133],[-8,86]],[[12590,24045],[10,37],[3,-137],[-12,35],[-1,65]],[[12580,23917],[6,43],[12,-76],[0,-134],[-16,105],[-2,62]],[[12559,22329],[9,33],[-6,190],[12,132],[8,-38],[13,31],[8,296],[7,58],[5,155],[9,-9],[18,81],[5,-24],[11,-201],[-4,-168],[3,-77],[-4,-117],[13,-101],[10,-134],[14,-6],[-2,84],[-15,147],[-6,183],[-5,58],[5,109],[2,191],[-7,166],[9,115],[-2,85],[-11,162],[-4,199],[10,6],[7,-79],[16,-40],[7,-62],[6,-175],[-1,-91],[14,-157],[2,166],[-4,74],[-5,221],[-15,152],[-7,-14],[-6,106],[-14,117],[-2,67],[0,278],[4,25],[9,194],[-5,15],[-24,-160],[-17,-31],[-24,130],[9,351],[-4,84],[22,89],[9,202],[16,23],[23,121],[5,98],[2,143],[10,65],[1,98],[7,73],[16,60],[12,-67],[-2,-85],[72,-347],[-8,-268],[11,-259],[8,-531],[72,66],[31,-305],[86,-528],[24,-223],[0,-126],[-8,-116],[6,-120],[12,-30],[10,-63],[-6,-90],[6,-134],[1,-120],[-13,-68],[-1,-52],[-12,-161],[-30,-53],[-9,-62],[-3,175],[-9,-12],[-4,-65],[-11,-54],[-6,-119],[-10,-93],[-13,-52],[11,-232],[9,-74],[-5,-86],[6,-180],[-14,43],[-16,-16],[-17,63],[1,91],[-16,64],[-5,81],[-15,114],[-10,-46],[6,-140],[-5,-71],[-14,56],[-11,-41],[-18,-16],[-12,-155],[-1,-128],[-8,-98],[10,-154],[-7,-146],[-17,-64],[0,-121],[-15,-75],[-1,-76],[22,-289],[-1,-67],[-11,-164],[-2,-141],[6,-128],[-13,-70],[-14,122],[-9,-69],[-1,-188],[-16,-56],[-14,-79],[-9,335],[-17,317],[7,11],[8,-102],[12,-22],[3,92],[-1,234],[16,42],[16,-8],[-6,208],[14,164],[-2,140],[-5,72],[2,113],[6,71],[22,45],[3,153],[-7,325],[3,321],[-1,248],[24,48],[5,106],[14,-61],[15,70],[17,-93],[18,67],[-13,78],[-12,0],[-6,44],[-14,-37],[-19,69],[-7,-23],[-12,-166],[-16,8],[-6,-61],[-3,-254],[-8,4],[-6,-92],[-14,257],[-15,32],[-2,-72],[10,-129],[9,-62],[5,-91],[-16,-102],[-10,19],[-10,-35],[20,-370],[-4,-88],[11,-154],[-1,-94],[-9,-125],[-7,75],[-10,-11],[-14,29],[-1,-57],[-12,-186],[3,-134],[-18,-62],[-8,172],[11,226],[-12,117],[-11,12],[2,182],[9,78],[-10,77],[-10,-14],[-3,91],[7,179],[-10,-27],[-6,51],[-10,-88],[-10,109],[-7,-76],[-1,-99],[6,-58],[-1,-86],[-13,87],[-18,385],[-5,185],[-1,140]],[[12498,22114],[5,101],[13,-54],[0,-122],[-13,-21],[-5,96]],[[12480,22466],[11,3],[16,-131],[-11,-45],[-9,128],[-7,45]],[[12479,22774],[4,101],[9,-22],[1,-78],[-14,-1]],[[12479,22603],[0,94],[15,-16],[6,-41],[-2,-135],[-18,46],[-1,52]],[[12477,22406],[7,-26],[4,-113],[-7,-23],[-4,162]],[[12461,23271],[7,83],[12,297],[14,121],[8,26],[16,-8],[12,-76],[22,83],[10,-6],[13,-75],[12,-122],[2,-152],[-7,-43],[-9,-152],[7,-276],[-1,-96],[-20,-111],[-21,-34],[-21,-89],[-3,82],[-16,130],[-3,81],[-33,213],[-1,124]],[[11774,32123],[-2,-87]],[[11772,32036],[0,-176],[-10,-7],[-9,120],[11,109],[10,41]],[[11814,39029],[-1,179],[8,10],[7,117],[8,1],[3,-160],[-13,-204],[-12,57]],[[3337,44799],[59,0],[0,-148],[50,0],[0,-296],[4,0],[0,-222],[-107,0],[0,222],[-4,0]],[[3337,44355],[8,168],[6,16],[-2,158],[-12,5]],[[11561,39001],[-13,59],[-15,-60],[-12,121],[16,71],[19,307],[0,78],[13,-15],[10,33],[35,-64],[1,-60],[-9,-121],[6,-98],[21,-170],[11,-163]],[[3888,91707],[13,290],[8,-62],[23,-80],[40,90],[20,15],[19,-28],[5,-84],[-56,-249],[-15,57],[-13,-19],[-23,112],[-21,-42]],[[11798,32165],[-16,7]],[[11782,32172],[-4,208],[15,0],[0,-128],[5,-87]],[[6924,30540],[2,103],[13,88],[7,-112],[-11,-92],[-11,13]],[[8267,66820],[0,3]],[[12307,23194],[1,49]],[[12310,23270],[10,-149],[-8,-91],[-6,45],[-3,120]],[[10151,66418],[14,-5],[18,-81],[0,-165],[-11,-4],[-7,-198],[-18,100],[3,192],[-1,156]],[[7838,50201],[19,96]],[[7857,50297],[3,-80]],[[7860,50217],[0,-368],[-10,-67],[-6,25],[-27,-22]],[[11774,32123],[8,49]],[[11798,32165],[3,-39],[1,-193],[-8,-166],[-6,162],[0,87],[-16,20]],[[6285,39868],[17,11],[11,111],[7,-123],[16,-38],[15,82],[37,91],[8,-21],[3,-386],[-19,-49],[-14,42],[-9,-74],[-7,-128],[-9,19],[-9,109],[-24,-119],[-11,108],[16,138],[3,80],[-6,76],[-25,71]],[[8015,59521],[11,-158],[20,-52],[1,-115],[7,-96],[-4,-98],[-200,0],[-1,193],[53,0],[14,68],[0,200],[30,37],[0,69],[18,99]],[[5502,51198],[10,-18],[17,170],[7,-90],[7,-155],[-5,-59],[19,-95],[1,-82],[-11,-40],[-33,-44],[-11,94],[7,198],[-8,121]],[[8753,53035],[7,-62]],[[8768,52505],[-21,-113],[-5,-53],[-23,-71],[-17,-27]],[[4371,51159],[18,-25],[1,-159],[-19,-1],[0,185]],[[9533,59136],[-7,-197],[-20,-155],[-4,-81],[-29,8],[-18,152],[-11,174],[5,173],[15,104],[15,-54],[41,175],[15,21],[10,-72],[25,-60]],[[7817,44086],[32,-149],[-1,-242],[-17,-95],[-9,7],[-10,-53],[1,-114]],[[7791,43314],[-3,82],[9,238],[15,51],[-2,250],[-5,62]],[[7887,50434],[-9,-163]],[[7873,50216],[-13,1]],[[7857,50297],[3,122]],[[12334,28971],[12,74],[17,66],[12,0],[2,214],[10,31],[12,-228],[7,8],[11,-165],[17,-26],[14,-100],[-23,-168],[3,-369],[-14,-91],[-14,67],[-21,-8],[-27,112],[-7,133],[15,172],[-13,42],[-11,138],[-2,98]],[[8795,63346],[19,84],[-4,79],[8,94],[21,-159],[22,-26],[-2,-81],[14,-35],[-6,-94],[14,-245],[16,-81]],[[8830,62920],[-15,89]],[[7830,51247],[11,-1],[11,-69],[7,-225],[5,-28]],[[4535,61977],[16,-37],[0,-147],[-10,-5],[-6,189]],[[4171,51603],[22,0],[0,-148],[-11,0],[-11,148]],[[1743,60685],[17,43],[-1,60],[18,79],[17,-55],[-23,-53],[0,-74],[-28,0]],[[5001,21351],[8,-78],[8,-143],[7,11],[6,-69],[-23,-132],[-6,-17],[0,428]],[[6000,57222],[73,0],[0,-443],[-73,0],[0,443]],[[7284,40992],[-3,54],[14,69],[6,142],[0,118],[-7,266],[12,58],[76,16],[-1,-194],[11,-210],[-2,-358],[-10,-60],[-13,42],[-2,-68],[-23,28],[-13,-7],[-15,-47],[-14,-97]],[[9854,52888],[5,96],[31,117],[12,-177],[4,-146],[52,-3],[0,-330],[-28,-84],[-18,-15],[-32,68],[-20,-6],[-4,84],[-2,396]],[[6747,32189],[26,192],[7,-93],[42,-187],[9,-65],[7,-188],[-7,-192],[-23,-2],[-15,85],[-18,157],[-12,28],[-11,146],[-5,119]],[[8594,64865],[12,-5],[26,-129],[10,-82],[24,-78],[39,-270],[-7,-65],[4,-92],[-1,-136],[-15,-35],[-17,-142],[-40,28],[-37,-112],[-20,-14],[-7,174],[-21,103],[-18,-16],[-8,50],[3,107],[-4,96],[-8,48],[-3,135],[-17,72],[-5,127],[5,126]],[[8954,53556],[-10,-104],[-5,-125],[5,-76],[-6,-84],[2,-74],[-6,-248]],[[8909,52971],[-1,264],[2,70],[0,296],[33,10]],[[8557,46597],[9,-19],[21,32],[0,-147],[-13,-124],[-10,196],[-7,62]],[[4084,16834],[28,117],[0,74],[15,0],[0,-553],[-12,-2],[-6,160],[-11,173],[-14,31]],[[5181,35971],[16,63],[0,-148],[-14,18],[-2,67]],[[11645,38885],[2,31],[19,-75],[-1,-53],[-20,97]],[[6857,75463],[-30,-121],[0,-125],[-23,8],[12,177],[-8,50],[-13,-29],[-17,36],[0,105],[-8,94],[-1,109],[71,-75],[18,-7],[3,-53]],[[12201,26550],[28,3],[-6,-215],[-13,111],[-9,101]],[[12487,25443],[-8,-1],[-3,222],[21,16]],[[7983,46057],[27,0],[-19,-98],[15,-42],[27,146],[18,-131],[-12,-23],[-30,0],[0,-74],[-25,1]],[[3743,57505],[23,0],[-4,-111],[-19,0],[0,111]],[[7217,40238],[-3,-78],[-15,-103],[-35,61],[-11,42]],[[5469,32510],[33,31],[9,61],[4,143],[-15,10],[-27,329],[-3,268],[11,0],[0,-314],[8,0],[0,-111],[42,0],[20,-37],[0,-222],[-19,0],[0,-73],[-12,-1],[0,-111],[-53,0],[2,27]],[[6030,48394],[10,287],[11,372],[29,-75],[37,27],[66,-325],[-3,-281],[-15,62],[-9,-49],[-17,98],[-10,106],[-12,66],[-14,11],[-25,126],[-23,-350],[-18,-104],[-7,29]],[[6367,42769],[27,237],[6,-16],[13,79],[5,-129],[-19,-214],[-9,-153],[-23,0],[0,196]],[[12427,22170],[22,-1],[10,-44],[0,-67],[-17,-186],[-15,1],[0,297]],[[7804,44139],[-12,85],[2,122],[-5,100],[-9,15],[-28,182],[0,71],[14,51],[14,-109],[9,-132],[16,-22],[2,-126],[-2,-212]],[[8942,52371],[4,-65],[12,-15],[3,-137]],[[7336,45990],[-2,-81],[-18,-2],[0,-301],[-10,-2],[0,-140],[-16,3],[0,-263],[-8,43],[-26,4]],[[7237,45246],[-13,265],[-1,113],[13,76],[26,81],[3,108],[12,39],[44,37],[12,81]],[[6332,29344],[9,173],[10,-19],[11,50],[8,116],[13,97],[3,77],[22,23],[14,83],[1,-603],[-89,11],[-2,-8]],[[3438,46762],[6,17],[6,-79],[-11,-19],[-1,81]],[[4907,21062],[9,66],[4,-151],[-11,-64],[-2,149]],[[11767,38137],[-18,94],[0,41],[-20,46],[-10,163],[-1,125],[-15,182],[-25,122],[-6,124],[-7,64],[11,311],[77,-148],[9,-238],[7,-58],[2,-221],[5,-37],[10,-210],[-2,-177],[-14,48],[-12,108],[-4,-75],[14,-89]],[[5537,40486],[1,33],[22,64],[14,-146],[4,-249],[-12,-29],[-4,104],[-10,35],[-4,138],[-11,50]],[[8807,44512],[19,99],[6,131],[22,229],[10,57],[25,0],[0,-370],[48,0],[0,-370],[-81,296],[-12,-53],[-28,-30],[-9,11]],[[7214,41126],[-5,-17],[-22,-219]],[[7225,43165],[6,290],[0,334],[4,53],[19,71]],[[7279,43469],[-2,-116],[11,-106],[4,-137],[8,-55],[0,-155],[-21,-58]],[[7625,44432],[1,509],[14,-74],[13,-119],[16,-7],[32,-133],[9,-76],[8,-134],[-8,-242],[3,-61],[-6,-95],[-8,28],[-6,106],[-9,-42],[-17,138],[-7,134],[-25,8],[-10,60]],[[3939,41694],[5,85],[9,-59],[-7,-53],[-7,27]]],"bbox":[-176.696676,51.810493,173.408312862892,71.3397102533974],"transform":{"scale":[0.003501084899477915,0.00019529412547522875],"translate":[-176.696676,51.810492999999994]},"objects":{"in":{"type":"GeometryCollection","geometries":[{"arcs":[[0,1]],"type":"Polygon","properties":{"geoid":"0268340","name":"Seldovia"},"id":"0268340"},{"arcs":[[2]],"type":"Polygon","properties":{"geoid":"0242380","name":"Kwethluk"},"id":"0242380"},{"arcs":[[3]],"type":"Polygon","properties":{"geoid":"0212680","name":"Chefornak"},"id":"0212680"},{"arcs":[[4]],"type":"Polygon","properties":{"geoid":"0200870","name":"Akiak"},"id":"0200870"},{"arcs":[[5]],"type":"Polygon","properties":{"geoid":"0201420","name":"Aleknagik"},"id":"0201420"},{"arcs":[[6]],"type":"Polygon","properties":{"geoid":"0256320","name":"Nuiqsut"},"id":"0256320"},{"arcs":[[7]],"type":"Polygon","properties":{"geoid":"0284070","name":"White Mountain"},"id":"0284070"},{"arcs":[[8]],"type":"Polygon","properties":{"geoid":"0222910","name":"Emmonak"},"id":"0222910"},{"arcs":[[9]],"type":"Polygon","properties":{"geoid":"0254150","name":"Nikolai"},"id":"0254150"},{"arcs":[[10]],"type":"Polygon","properties":{"geoid":"0236990","name":"Kaktovik"},"id":"0236990"},{"arcs":[[11]],"type":"Polygon","properties":{"geoid":"0280770","name":"Unalaska"},"id":"0280770"},{"arcs":[[12]],"type":"Polygon","properties":{"geoid":"0229290","name":"Goodnews Bay"},"id":"0229290"},{"arcs":[[13]],"type":"Polygon","properties":{"geoid":"0268670","name":"Shageluk"},"id":"0268670"},{"arcs":[[14]],"type":"Polygon","properties":{"geoid":"0232810","name":"Hollis"},"id":"0232810"},{"arcs":[[15,16]],"type":"Polygon","properties":{"geoid":"0260860","name":"Pitkas Point"},"id":"0260860"},{"arcs":[[17]],"type":"Polygon","properties":{"geoid":"0212350","name":"Chase"},"id":"0212350"},{"arcs":[[18,19,20,21,22,23,24]],"type":"Polygon","properties":{"geoid":"0272985","name":"Steele Creek"},"id":"0272985"},{"arcs":[[25,26]],"type":"Polygon","properties":{"geoid":"0239630","name":"King Salmon"},"id":"0239630"},{"arcs":[[27]],"type":"Polygon","properties":{"geoid":"0225880","name":"Flat"},"id":"0225880"},{"arcs":[[28,29,30,31,32,33,34,35]],"type":"Polygon","properties":{"geoid":"0285280","name":"Willow"},"id":"0285280"},{"arcs":[[36,37]],"type":"Polygon","properties":{"geoid":"0220380","name":"Eagle"},"id":"0220380"},{"arcs":[[38]],"type":"Polygon","properties":{"geoid":"0256600","name":"Nunam Iqua"},"id":"0256600"},{"arcs":[[39]],"type":"Polygon","properties":{"geoid":"0267680","name":"Scammon Bay"},"id":"0267680"},{"arcs":[[40,41]],"type":"Polygon","properties":{"geoid":"0253270","name":"Newhalen"},"id":"0253270"},{"arcs":[[42]],"type":"Polygon","properties":{"geoid":"0259650","name":"Pelican"},"id":"0259650"},{"arcs":[[43]],"type":"Polygon","properties":{"geoid":"0220970","name":"Edna Bay"},"id":"0220970"},{"arcs":[[44,45]],"type":"Polygon","properties":{"geoid":"0251960","name":"Nabesna"},"id":"0251960"},{"arcs":[[46]],"type":"Polygon","properties":{"geoid":"0212970","name":"Chenega"},"id":"0212970"},{"arcs":[[47,48,49,50,-23,51,52,53,54,55,56]],"type":"Polygon","properties":{"geoid":"0205000","name":"Badger"},"id":"0205000"},{"arcs":[[57]],"type":"Polygon","properties":{"geoid":"0279120","name":"Tuntutuliak"},"id":"0279120"},{"arcs":[[58,59,60,61,62,63]],"type":"Polygon","properties":{"geoid":"0228740","name":"Glennallen"},"id":"0228740"},{"arcs":[[64,65,66,67]],"type":"Polygon","properties":{"geoid":"0214000","name":"Chistochina"},"id":"0214000"},{"arcs":[[68,69,70,71,72]],"type":"Polygon","properties":{"geoid":"0254480","name":"Ninilchik"},"id":"0254480"},{"arcs":[[73,74,75,76]],"type":"Polygon","properties":{"geoid":"0266510","name":"Salamatof"},"id":"0266510"},{"arcs":[[77]],"type":"Polygon","properties":{"geoid":"0280100","name":"Ugashik"},"id":"0280100"},{"arcs":[[78,79,80,81,82,83]],"type":"Polygon","properties":{"geoid":"0240645","name":"Knik-Fairview"},"id":"0240645"},{"arcs":[[84,-84,85]],"type":"Polygon","properties":{"geoid":"0261788","name":"Point MacKenzie"},"id":"0261788"},{"arcs":[[86]],"type":"Polygon","properties":{"geoid":"0270870","name":"Skwentna"},"id":"0270870"},{"arcs":[[87]],"type":"Polygon","properties":{"geoid":"0274340","name":"Susitna"},"id":"0274340"},{"arcs":[[88]],"type":"Polygon","properties":{"geoid":"0211690","name":"Central"},"id":"0211690"},{"arcs":[[89]],"type":"Polygon","properties":{"geoid":"0214880","name":"Circle"},"id":"0214880"},{"arcs":[[90]],"type":"Polygon","properties":{"geoid":"0244580","name":"Livengood"},"id":"0244580"},{"arcs":[[91]],"type":"Polygon","properties":{"geoid":"0249530","name":"Minto"},"id":"0249530"},{"arcs":[[92]],"type":"Polygon","properties":{"geoid":"0264820","name":"Rampart"},"id":"0264820"},{"arcs":[[93]],"type":"Polygon","properties":{"geoid":"0264600","name":"Quinhagak"},"id":"0264600"},{"arcs":[[94]],"type":"Polygon","properties":{"geoid":"0286490","name":"Yakutat"},"id":"0286490"},{"arcs":[[95]],"type":"Polygon","properties":{"geoid":"0232310","name":"Healy Lake"},"id":"0232310"},{"arcs":[[96]],"type":"Polygon","properties":{"geoid":"0278790","name":"Tuluksak"},"id":"0278790"},{"arcs":[[97,98,99,100]],"type":"Polygon","properties":{"geoid":"0232150","name":"Healy"},"id":"0232150"},{"arcs":[[101,102]],"type":"Polygon","properties":{"geoid":"0281320","name":"Upper Kalskag"},"id":"0281320"},{"arcs":[[103]],"type":"Polygon","properties":{"geoid":"0254260","name":"Nikolski"},"id":"0254260"},{"arcs":[[104]],"type":"Polygon","properties":{"geoid":"0239740","name":"Kipnuk"},"id":"0239740"},{"arcs":[[105]],"type":"Polygon","properties":{"geoid":"0252940","name":"Nelson Lagoon"},"id":"0252940"},{"arcs":[[-100,106,107,108]],"type":"Polygon","properties":{"geoid":"0218805","name":"Denali Park"},"id":"0218805"},{"arcs":[[109]],"type":"Polygon","properties":{"geoid":"0214110","name":"Chitina"},"id":"0214110"},{"arcs":[[110,111,112,113]],"type":"Polygon","properties":{"geoid":"0238910","name":"Kenny Lake"},"id":"0238910"},{"arcs":[[114,115,116,117,118,119,120]],"type":"Polygon","properties":{"geoid":"0248200","name":"Mendeltna"},"id":"0248200"},{"arcs":[[121,122]],"type":"Polygon","properties":{"geoid":"0248540","name":"Mentasta Lake"},"id":"0248540"},{"arcs":[[123]],"type":"Polygon","properties":{"geoid":"0259320","name":"Paxson"},"id":"0259320"},{"arcs":[[124,-122,125,-45,126,-65]],"type":"Polygon","properties":{"geoid":"0270930","name":"Slana"},"id":"0270930"},{"arcs":[[127,128,129]],"type":"Polygon","properties":{"geoid":"0218675","name":"Deltana"},"id":"0218675"},{"arcs":[[130,131]],"type":"Polygon","properties":{"geoid":"0219750","name":"Dot Lake Village"},"id":"0219750"},{"arcs":[[132,133]],"type":"Polygon","properties":{"geoid":"0277800","name":"Tok"},"id":"0277800"},{"arcs":[[134]],"type":"Polygon","properties":{"geoid":"0270100","name":"Shungnak"},"id":"0270100"},{"arcs":[[135]],"type":"Polygon","properties":{"geoid":"0266470","name":"St. Paul"},"id":"0266470"},{"arcs":[[136]],"type":"Polygon","properties":{"geoid":"0203550","name":"Aniak"},"id":"0203550"},{"arcs":[[-102,137]],"type":"Polygon","properties":{"geoid":"0245460","name":"Lower Kalskag"},"id":"0245460"},{"arcs":[[138]],"type":"Polygon","properties":{"geoid":"0281920","name":"Utqiagvik"},"id":"0281920"},{"arcs":[[139,140]],"type":"Polygon","properties":{"geoid":"0284120","name":"Whitestone"},"id":"0284120"},{"arcs":[[141]],"type":"Polygon","properties":{"geoid":"0252720","name":"Napaskiak"},"id":"0252720"},{"arcs":[[142]],"type":"Polygon","properties":{"geoid":"0221810","name":"Ekwok"},"id":"0221810"},{"arcs":[[143]],"type":"Polygon","properties":{"geoid":"0282200","name":"Valdez"},"id":"0282200"},{"arcs":[[144]],"type":"Polygon","properties":{"geoid":"0268890","name":"Shaktoolik"},"id":"0268890"},{"arcs":[[145]],"type":"Polygon","properties":{"geoid":"0282860","name":"Wales"},"id":"0282860"},{"arcs":[[146]],"type":"Polygon","properties":{"geoid":"0255140","name":"Noorvik"},"id":"0255140"},{"arcs":[[147]],"type":"Polygon","properties":{"geoid":"0233030","name":"Holy Cross"},"id":"0233030"},{"arcs":[[148]],"type":"Polygon","properties":{"geoid":"0237430","name":"Kaltag"},"id":"0237430"},{"arcs":[[149]],"type":"Polygon","properties":{"geoid":"0242050","name":"Koyukuk"},"id":"0242050"},{"arcs":[[150]],"type":"Polygon","properties":{"geoid":"0275160","name":"Tanana"},"id":"0275160"},{"arcs":[[[151]],[[152]],[[153]],[[154,155]],[[156]],[[157]],[[158,159]]],"type":"MultiPolygon","properties":{"geoid":"0270540","name":"Sitka"},"id":"0270540"},{"arcs":[[160,161,162,163]],"type":"Polygon","properties":{"geoid":"0228590","name":"Glacier View"},"id":"0228590"},{"arcs":[[164,-120,165,166,-162]],"type":"Polygon","properties":{"geoid":"0223720","name":"Eureka Roadhouse"},"id":"0223720"},{"arcs":[[167,168]],"type":"Polygon","properties":{"geoid":"0260460","name":"Petersville"},"id":"0260460"},{"arcs":[[169,170,-29,171]],"type":"Polygon","properties":{"geoid":"0274350","name":"Susitna North"},"id":"0274350"},{"arcs":[[172]],"type":"Polygon","properties":{"geoid":"0226835","name":"Four Mile Road"},"id":"0226835"},{"arcs":[[173,174]],"type":"Polygon","properties":{"geoid":"0256680","name":"Nunapitchuk"},"id":"0256680"},{"arcs":[[[175,176,177,178]],[[179]]],"type":"MultiPolygon","properties":{"geoid":"0203000","name":"Anchorage"},"id":"0203000"},{"arcs":[[180]],"type":"Polygon","properties":{"geoid":"0239300","name":"Kiana"},"id":"0239300"},{"arcs":[[181,-132,182,183]],"type":"Polygon","properties":{"geoid":"0219720","name":"Dot Lake"},"id":"0219720"},{"arcs":[[184,185,186,187,188]],"type":"Polygon","properties":{"geoid":"0203110","name":"Anchor Point"},"id":"0203110"},{"arcs":[[189,190]],"type":"Polygon","properties":{"geoid":"0206630","name":"Bettles"},"id":"0206630"},{"arcs":[[[191]],[[192]],[[193]],[[194]]],"type":"MultiPolygon","properties":{"geoid":"0236400","name":"Juneau"},"id":"0236400"},{"arcs":[[195]],"type":"Polygon","properties":{"geoid":"0206520","name":"Bethel"},"id":"0206520"},{"arcs":[[196]],"type":"Polygon","properties":{"geoid":"0260750","name":"Pilot Station"},"id":"0260750"},{"arcs":[[197]],"type":"Polygon","properties":{"geoid":"0264380","name":"Prudhoe Bay"},"id":"0264380"},{"arcs":[[198]],"type":"Polygon","properties":{"geoid":"0230060","name":"Grayling"},"id":"0230060"},{"arcs":[[199]],"type":"Polygon","properties":{"geoid":"0240840","name":"Kobuk"},"id":"0240840"},{"arcs":[[200]],"type":"Polygon","properties":{"geoid":"0214330","name":"Chuathbaluk"},"id":"0214330"},{"arcs":[[201]],"type":"Polygon","properties":{"geoid":"0234460","name":"Hydaburg"},"id":"0234460"},{"arcs":[[202,203,204,205,206]],"type":"Polygon","properties":{"geoid":"0271640","name":"Soldotna"},"id":"0271640"},{"arcs":[[207]],"type":"Polygon","properties":{"geoid":"0277140","name":"Thorne Bay"},"id":"0277140"},{"arcs":[[-76,208,209,210,211]],"type":"Polygon","properties":{"geoid":"0238420","name":"Kenai"},"id":"0238420"},{"arcs":[[212,-128,213]],"type":"Polygon","properties":{"geoid":"0218620","name":"Delta Junction"},"id":"0218620"},{"arcs":[[214]],"type":"Polygon","properties":{"geoid":"0237650","name":"Kasaan"},"id":"0237650"},{"arcs":[[215]],"type":"Polygon","properties":{"geoid":"0227530","name":"Galena"},"id":"0227530"},{"arcs":[[216,217,218,-24,-51,219,-49,220,-57,221,222,223]],"type":"Polygon","properties":{"geoid":"0224230","name":"Fairbanks"},"id":"0224230"},{"arcs":[[224]],"type":"Polygon","properties":{"geoid":"0230940","name":"Gustavus"},"id":"0230940"},{"arcs":[[225,226,227,228]],"type":"Polygon","properties":{"geoid":"0236540","name":"Kachemak"},"id":"0236540"},{"arcs":[[229]],"type":"Polygon","properties":{"geoid":"0240400","name":"Klawock"},"id":"0240400"},{"arcs":[[-159,230]],"type":"Polygon","properties":{"geoid":"0276260","name":"Tenakee Springs"},"id":"0276260"},{"arcs":[[[231]],[[232]]],"type":"MultiPolygon","properties":{"geoid":"0260640","name":"Pilot Point"},"id":"0260640"},{"arcs":[[233]],"type":"Polygon","properties":{"geoid":"0216530","name":"Cold Bay"},"id":"0216530"},{"arcs":[[234]],"type":"Polygon","properties":{"geoid":"0265800","name":"St. George"},"id":"0265800"},{"arcs":[[235]],"type":"Polygon","properties":{"geoid":"0213230","name":"Chevak"},"id":"0213230"},{"arcs":[[236]],"type":"Polygon","properties":{"geoid":"0201970","name":"Ambler"},"id":"0201970"},{"arcs":[[237]],"type":"Polygon","properties":{"geoid":"0253050","name":"Nenana"},"id":"0253050"},{"arcs":[[238]],"type":"Polygon","properties":{"geoid":"0263610","name":"Port Lions"},"id":"0263610"},{"arcs":[[239,240]],"type":"Polygon","properties":{"geoid":"0258660","name":"Palmer"},"id":"0258660"},{"arcs":[[241]],"type":"Polygon","properties":{"geoid":"0241830","name":"Kotzebue"},"id":"0241830"},{"arcs":[[242]],"type":"Polygon","properties":{"geoid":"0246780","name":"Manley Hot Springs"},"id":"0246780"},{"arcs":[[243]],"type":"Polygon","properties":{"geoid":"0223900","name":"Excursion Inlet"},"id":"0223900"},{"arcs":[[244]],"type":"Polygon","properties":{"geoid":"0204430","name":"Atmautluak"},"id":"0204430"},{"arcs":[[245]],"type":"Polygon","properties":{"geoid":"0285610","name":"Wiseman"},"id":"0285610"},{"arcs":[[-211,246,-207,247,248,249,250]],"type":"Polygon","properties":{"geoid":"0237250","name":"Kalifornsky"},"id":"0237250"},{"arcs":[[251,252]],"type":"Polygon","properties":{"geoid":"0233580","name":"Hope"},"id":"0233580"},{"arcs":[[253]],"type":"Polygon","properties":{"geoid":"0263170","name":"Port Clarence"},"id":"0263170"},{"arcs":[[254,-252]],"type":"Polygon","properties":{"geoid":"0273950","name":"Sunrise"},"id":"0273950"},{"arcs":[[255,256]],"type":"Polygon","properties":{"geoid":"0251455","name":"Mud Bay"},"id":"0251455"},{"arcs":[[-1,257]],"type":"Polygon","properties":{"geoid":"0268370","name":"Seldovia Village"},"id":"0268370"},{"arcs":[[258]],"type":"Polygon","properties":{"geoid":"0273290","name":"Stevens Village"},"id":"0273290"},{"arcs":[[-35,259,260,-79,-85,261]],"type":"Polygon","properties":{"geoid":"0207070","name":"Big Lake"},"id":"0207070"},{"arcs":[[262,263,264,265,266,267,268]],"type":"Polygon","properties":{"geoid":"0209657","name":"Buffalo Soapstone"},"id":"0209657"},{"arcs":[[269,270,271,272]],"type":"Polygon","properties":{"geoid":"0223460","name":"Ester"},"id":"0223460"},{"arcs":[[-61,273,274,275,276]],"type":"Polygon","properties":{"geoid":"0275480","name":"Tazlina"},"id":"0275480"},{"arcs":[[277]],"type":"Polygon","properties":{"geoid":"0234790","name":"Igiugig"},"id":"0234790"},{"arcs":[[278]],"type":"Polygon","properties":{"geoid":"0248870","name":"Metlakatla"},"id":"0248870"},{"arcs":[[279]],"type":"Polygon","properties":{"geoid":"0231270","name":"Halibut Cove"},"id":"0231270"},{"arcs":[[280]],"type":"Polygon","properties":{"geoid":"0218510","name":"Deering"},"id":"0218510"},{"arcs":[[281,-168]],"type":"Polygon","properties":{"geoid":"0278680","name":"Trapper Creek"},"id":"0278680"},{"arcs":[[282]],"type":"Polygon","properties":{"geoid":"0222140","name":"Elfin Cove"},"id":"0222140"},{"arcs":[[283,284,285,286]],"type":"Polygon","properties":{"geoid":"0266550","name":"Salcha"},"id":"0266550"},{"arcs":[[287]],"type":"Polygon","properties":{"geoid":"0242490","name":"Kwigillingok"},"id":"0242490"},{"arcs":[[288]],"type":"Polygon","properties":{"geoid":"0241940","name":"Koyuk"},"id":"0241940"},{"arcs":[[289,290,291,-270,292]],"type":"Polygon","properties":{"geoid":"0229130","name":"Goldstream"},"id":"0229130"},{"arcs":[[-119,293,-166]],"type":"Polygon","properties":{"geoid":"0252915","name":"Nelchina"},"id":"0252915"},{"arcs":[[-184,294]],"type":"Polygon","properties":{"geoid":"0220020","name":"Dry Creek"},"id":"0220020"},{"arcs":[[295]],"type":"Polygon","properties":{"geoid":"0207620","name":"Birch Creek"},"id":"0207620"},{"arcs":[[296,297]],"type":"Polygon","properties":{"geoid":"0261120","name":"Pleasant Valley"},"id":"0261120"},{"arcs":[[-276,298,299,300,301]],"type":"Polygon","properties":{"geoid":"0217300","name":"Copper Center"},"id":"0217300"},{"arcs":[[-249,302,303]],"type":"Polygon","properties":{"geoid":"0238090","name":"Kasilof"},"id":"0238090"},{"arcs":[[304]],"type":"Polygon","properties":{"geoid":"0213780","name":"Chignik Lake"},"id":"0213780"},{"arcs":[[-190,305]],"type":"Polygon","properties":{"geoid":"0223790","name":"Evansville"},"id":"0223790"},{"arcs":[[306]],"type":"Polygon","properties":{"geoid":"0242820","name":"Lake Minchumina"},"id":"0242820"},{"arcs":[[-291,307,-25,-219,308]],"type":"Polygon","properties":{"geoid":"0224980","name":"Farmers Loop"},"id":"0224980"},{"arcs":[[-73,309,310,-185,311]],"type":"Polygon","properties":{"geoid":"0231710","name":"Happy Valley"},"id":"0231710"},{"arcs":[[312,313]],"type":"Polygon","properties":{"geoid":"0263280","name":"Port Graham"},"id":"0263280"},{"arcs":[[314]],"type":"Polygon","properties":{"geoid":"0259540","name":"Pedro Bay"},"id":"0259540"},{"arcs":[[315,-19,-308,-290]],"type":"Polygon","properties":{"geoid":"0226870","name":"Fox"},"id":"0226870"},{"arcs":[[316]],"type":"Polygon","properties":{"geoid":"0252845","name":"Naukati Bay"},"id":"0252845"},{"arcs":[[317]],"type":"Polygon","properties":{"geoid":"0262285","name":"Portage Creek"},"id":"0262285"},{"arcs":[[318]],"type":"Polygon","properties":{"geoid":"0202080","name":"Anaktuvuk Pass"},"id":"0202080"},{"arcs":[[319]],"type":"Polygon","properties":{"geoid":"0204500","name":"Atqasuk"},"id":"0204500"},{"arcs":[[320]],"type":"Polygon","properties":{"geoid":"0282750","name":"Wainwright"},"id":"0282750"},{"arcs":[[321]],"type":"Polygon","properties":{"geoid":"0203440","name":"Angoon"},"id":"0203440"},{"arcs":[[322,323,324,325]],"type":"Polygon","properties":{"geoid":"0268560","name":"Seward"},"id":"0268560"},{"arcs":[[326]],"type":"Polygon","properties":{"geoid":"0267570","name":"Saxman"},"id":"0267570"},{"arcs":[[327]],"type":"Polygon","properties":{"geoid":"0200650","name":"Akhiok"},"id":"0200650"},{"arcs":[[328]],"type":"Polygon","properties":{"geoid":"0243040","name":"Larsen Bay"},"id":"0243040"},{"arcs":[[329]],"type":"Polygon","properties":{"geoid":"0257340","name":"Old Harbor"},"id":"0257340"},{"arcs":[[330]],"type":"Polygon","properties":{"geoid":"0258550","name":"Ouzinkie"},"id":"0258550"},{"arcs":[[331,332]],"type":"Polygon","properties":{"geoid":"0213550","name":"Chignik"},"id":"0213550"},{"arcs":[[333]],"type":"Polygon","properties":{"geoid":"0255030","name":"Nondalton"},"id":"0255030"},{"arcs":[[334]],"type":"Polygon","properties":{"geoid":"0263390","name":"Port Heiden"},"id":"0263390"},{"arcs":[[335,336,337,338,339,340,-81,341]],"type":"Polygon","properties":{"geoid":"0283080","name":"Wasilla"},"id":"0283080"},{"arcs":[[342,-155]],"type":"Polygon","properties":{"geoid":"0262510","name":"Port Alexander"},"id":"0262510"},{"arcs":[[343]],"type":"Polygon","properties":{"geoid":"0200065","name":"Adak"},"id":"0200065"},{"arcs":[[344]],"type":"Polygon","properties":{"geoid":"0201200","name":"Alakanuk"},"id":"0201200"},{"arcs":[[345]],"type":"Polygon","properties":{"geoid":"0251180","name":"Mountain Village"},"id":"0251180"},{"arcs":[[-17,346]],"type":"Polygon","properties":{"geoid":"0266140","name":"St. Mary's"},"id":"0266140"},{"arcs":[[347,-55]],"type":"Polygon","properties":{"geoid":"0255910","name":"North Pole"},"id":"0255910"},{"arcs":[[348]],"type":"Polygon","properties":{"geoid":"0219060","name":"Diomede"},"id":"0219060"},{"arcs":[[349]],"type":"Polygon","properties":{"geoid":"0222250","name":"Elim"},"id":"0222250"},{"arcs":[[350]],"type":"Polygon","properties":{"geoid":"0203220","name":"Anderson"},"id":"0203220"},{"arcs":[[351]],"type":"Polygon","properties":{"geoid":"0253710","name":"New Stuyahok"},"id":"0253710"},{"arcs":[[356,357]],"type":"Polygon","properties":{"geoid":"0277690","name":"Togiak"},"id":"0277690"},{"arcs":[[358]],"type":"Polygon","properties":{"geoid":"0227640","name":"Gambell"},"id":"0227640"},{"arcs":[[359]],"type":"Polygon","properties":{"geoid":"0254920","name":"Nome"},"id":"0254920"},{"arcs":[[360,361]],"type":"Polygon","properties":{"geoid":"0266360","name":"St. Michael"},"id":"0266360"},{"arcs":[[362]],"type":"Polygon","properties":{"geoid":"0269770","name":"Shishmaref"},"id":"0269770"},{"arcs":[[363]],"type":"Polygon","properties":{"geoid":"0204210","name":"Atka"},"id":"0204210"},{"arcs":[[-362,364]],"type":"Polygon","properties":{"geoid":"0272960","name":"Stebbins"},"id":"0272960"},{"arcs":[[365]],"type":"Polygon","properties":{"geoid":"0275930","name":"Teller"},"id":"0275930"},{"arcs":[[366]],"type":"Polygon","properties":{"geoid":"0209600","name":"Buckland"},"id":"0209600"},{"arcs":[[367]],"type":"Polygon","properties":{"geoid":"0239960","name":"Kivalina"},"id":"0239960"},{"arcs":[[368]],"type":"Polygon","properties":{"geoid":"0268230","name":"Selawik"},"id":"0268230"},{"arcs":[[369]],"type":"Polygon","properties":{"geoid":"0216360","name":"Coffman Cove"},"id":"0216360"},{"arcs":[[370]],"type":"Polygon","properties":{"geoid":"0217740","name":"Craig"},"id":"0217740"},{"arcs":[[371]],"type":"Polygon","properties":{"geoid":"0221040","name":"Eek"},"id":"0221040"},{"arcs":[[[372]],[[373]]],"type":"MultiPolygon","properties":{"geoid":"0201090","name":"Akutan"},"id":"0201090"},{"arcs":[[374]],"type":"Polygon","properties":{"geoid":"0267020","name":"Sand Point"},"id":"0267020"},{"arcs":[[375]],"type":"Polygon","properties":{"geoid":"0247990","name":"Mekoryuk"},"id":"0247990"},{"arcs":[[376]],"type":"Polygon","properties":{"geoid":"0252390","name":"Napakiak"},"id":"0252390"},{"arcs":[[377]],"type":"Polygon","properties":{"geoid":"0261080","name":"Platinum"},"id":"0261080"},{"arcs":[[380,381,382,383]],"type":"Polygon","properties":{"geoid":"0278240","name":"Toksook Bay"},"id":"0278240"},{"arcs":[[384,385]],"type":"Polygon","properties":{"geoid":"0201860","name":"Allakaket"},"id":"0201860"},{"arcs":[[386]],"type":"Polygon","properties":{"geoid":"0203880","name":"Anvik"},"id":"0203880"},{"arcs":[[387]],"type":"Polygon","properties":{"geoid":"0226760","name":"Fort Yukon"},"id":"0226760"},{"arcs":[[388]],"type":"Polygon","properties":{"geoid":"0233910","name":"Hughes"},"id":"0233910"},{"arcs":[[389]],"type":"Polygon","properties":{"geoid":"0234350","name":"Huslia"},"id":"0234350"},{"arcs":[[390]],"type":"Polygon","properties":{"geoid":"0256350","name":"Nulato"},"id":"0256350"},{"arcs":[[391]],"type":"Polygon","properties":{"geoid":"0265590","name":"Ruby"},"id":"0265590"},{"arcs":[[392,-223,393,394]],"type":"Polygon","properties":{"geoid":"0272230","name":"South Van Horn"},"id":"0272230"},{"arcs":[[395]],"type":"Polygon","properties":{"geoid":"0248590","name":"Mertarvik"},"id":"0248590"},{"arcs":[[396,397]],"type":"Polygon","properties":{"geoid":"0261825","name":"Point Possession"},"id":"0261825"},{"arcs":[[[398]],[[399]],[[400]]],"type":"MultiPolygon","properties":{"geoid":"0246890","name":"Manokotak"},"id":"0246890"},{"arcs":[[-272,401,-395,402]],"type":"Polygon","properties":{"geoid":"0212920","name":"Chena Ridge"},"id":"0212920"},{"arcs":[[403]],"type":"Polygon","properties":{"geoid":"0245020","name":"Loring"},"id":"0245020"},{"arcs":[[404]],"type":"Polygon","properties":{"geoid":"0203990","name":"Arctic Village"},"id":"0203990"},{"arcs":[[405]],"type":"Polygon","properties":{"geoid":"0205750","name":"Beaver"},"id":"0205750"},{"arcs":[[406]],"type":"Polygon","properties":{"geoid":"0211800","name":"Chalkyitsik"},"id":"0211800"},{"arcs":[[407]],"type":"Polygon","properties":{"geoid":"0282420","name":"Venetie"},"id":"0282420"},{"arcs":[[408]],"type":"Polygon","properties":{"geoid":"0216630","name":"Coldfoot"},"id":"0216630"},{"arcs":[[409]],"type":"Polygon","properties":{"geoid":"0274610","name":"Takotna"},"id":"0274610"},{"arcs":[[410]],"type":"Polygon","properties":{"geoid":"0201390","name":"Alcan Border"},"id":"0201390"},{"arcs":[[411]],"type":"Polygon","properties":{"geoid":"0226100","name":"Fort Greely"},"id":"0226100"},{"arcs":[[412]],"type":"Polygon","properties":{"geoid":"0233470","name":"Hooper Bay"},"id":"0233470"},{"arcs":[[413]],"type":"Polygon","properties":{"geoid":"0261630","name":"Point Hope"},"id":"0261630"},{"arcs":[[414]],"type":"Polygon","properties":{"geoid":"0213450","name":"Chicken"},"id":"0213450"},{"arcs":[[415,416,417,418]],"type":"Polygon","properties":{"geoid":"0256220","name":"Northway"},"id":"0256220"},{"arcs":[[-418,419]],"type":"Polygon","properties":{"geoid":"0256250","name":"Northway Junction"},"id":"0256250"},{"arcs":[[-416,420]],"type":"Polygon","properties":{"geoid":"0256260","name":"Northway Village"},"id":"0256260"},{"arcs":[[421]],"type":"Polygon","properties":{"geoid":"0254700","name":"Noatak"},"id":"0254700"},{"arcs":[[422]],"type":"Polygon","properties":{"geoid":"0264980","name":"Red Dog Mine"},"id":"0264980"},{"arcs":[[423]],"type":"Polygon","properties":{"geoid":"0234570","name":"Hyder"},"id":"0234570"},{"arcs":[[424,425,426,427]],"type":"Polygon","properties":{"geoid":"0261190","name":"Point Baker"},"id":"0261190"},{"arcs":[[-175,428]],"type":"Polygon","properties":{"geoid":"0237975","name":"Kasigluk"},"id":"0237975"},{"arcs":[[429]],"type":"Polygon","properties":{"geoid":"0258330","name":"Oscarville"},"id":"0258330"},{"arcs":[[430,431]],"type":"Polygon","properties":{"geoid":"0243260","name":"Lazy Mountain"},"id":"0243260"},{"arcs":[[-33,432,-337,433,-342,-80,-261,434]],"type":"Polygon","properties":{"geoid":"0247735","name":"Meadow Lakes"},"id":"0247735"},{"arcs":[[435,-98]],"type":"Polygon","properties":{"geoid":"0225220","name":"Ferry"},"id":"0225220"},{"arcs":[[436,-353,437,-356,438,-357]],"type":"Polygon","properties":{"geoid":"0279780","name":"Twin Hills"},"id":"0279780"},{"arcs":[[439,440]],"type":"Polygon","properties":{"geoid":"0260310","name":"Petersburg"},"id":"0260310"},{"arcs":[[-67,441,442,443]],"type":"Polygon","properties":{"geoid":"0227420","name":"Gakona"},"id":"0227420"},{"arcs":[[444]],"type":"Polygon","properties":{"geoid":"0271090","name":"Sleetmute"},"id":"0271090"},{"arcs":[[445]],"type":"Polygon","properties":{"geoid":"0273400","name":"Stony River"},"id":"0273400"},{"arcs":[[446,447,-323,448]],"type":"Polygon","properties":{"geoid":"0205585","name":"Bear Creek"},"id":"0205585"},{"arcs":[[449]],"type":"Polygon","properties":{"geoid":"0245790","name":"McCarthy"},"id":"0245790"},{"arcs":[[-113,450]],"type":"Polygon","properties":{"geoid":"0278350","name":"Tonsina"},"id":"0278350"},{"arcs":[[-384,451]],"type":"Polygon","properties":{"geoid":"0279230","name":"Tununak"},"id":"0279230"},{"arcs":[[452,453]],"type":"Polygon","properties":{"geoid":"0217670","name":"Covenant Life"},"id":"0217670"},{"arcs":[[454,455,-257,456]],"type":"Polygon","properties":{"geoid":"0231050","name":"Haines"},"id":"0231050"},{"arcs":[[-301,457,-111,458]],"type":"Polygon","properties":{"geoid":"0285290","name":"Willow Creek"},"id":"0285290"},{"arcs":[[-27,459]],"type":"Polygon","properties":{"geoid":"0252060","name":"Naknek"},"id":"0252060"},{"arcs":[[460]],"type":"Polygon","properties":{"geoid":"0272190","name":"South Naknek"},"id":"0272190"},{"arcs":[[-333,461]],"type":"Polygon","properties":{"geoid":"0213670","name":"Chignik Lagoon"},"id":"0213670"},{"arcs":[[-41,462]],"type":"Polygon","properties":{"geoid":"0235120","name":"Iliamna"},"id":"0235120"},{"arcs":[[463]],"type":"Polygon","properties":{"geoid":"0241280","name":"Kokhanok"},"id":"0241280"},{"arcs":[[464]],"type":"Polygon","properties":{"geoid":"0243810","name":"Levelock"},"id":"0243810"},{"arcs":[[-431,465,466,467]],"type":"Polygon","properties":{"geoid":"0209710","name":"Butte"},"id":"0209710"},{"arcs":[[468,469,470,471,-164,472]],"type":"Polygon","properties":{"geoid":"0213340","name":"Chickaloon"},"id":"0213340"},{"arcs":[[473,474]],"type":"Polygon","properties":{"geoid":"0206245","name":"Beluga"},"id":"0206245"},{"arcs":[[475,-70,476]],"type":"Polygon","properties":{"geoid":"0215320","name":"Clam Gulch"},"id":"0215320"},{"arcs":[[477]],"type":"Polygon","properties":{"geoid":"0229180","name":"Golovin"},"id":"0229180"},{"arcs":[[478,479,480,481]],"type":"Polygon","properties":{"geoid":"0217960","name":"Crown Point"},"id":"0217960"},{"arcs":[[482,483,-205]],"type":"Polygon","properties":{"geoid":"0227145","name":"Funny River"},"id":"0227145"},{"arcs":[[-325,484]],"type":"Polygon","properties":{"geoid":"0245295","name":"Lowell Point"},"id":"0245295"},{"arcs":[[485]],"type":"Polygon","properties":{"geoid":"0200760","name":"Akiachak"},"id":"0200760"},{"arcs":[[-314,486]],"type":"Polygon","properties":{"geoid":"0252210","name":"Nanwalek"},"id":"0252210"},{"arcs":[[-210,487,488,-203,-247]],"type":"Polygon","properties":{"geoid":"0265345","name":"Ridgeway"},"id":"0265345"},{"arcs":[[-264,489,-471,490,-469,491,-266,492]],"type":"Polygon","properties":{"geoid":"0274525","name":"Sutton-Alpine"},"id":"0274525"},{"arcs":[[-188,493,494,-226,495,496]],"type":"Polygon","properties":{"geoid":"0218925","name":"Diamond Ridge"},"id":"0218925"},{"arcs":[[497,498,499,-227,-495]],"type":"Polygon","properties":{"geoid":"0227090","name":"Fritz Creek"},"id":"0227090"},{"arcs":[[-170,500]],"type":"Polygon","properties":{"geoid":"0274830","name":"Talkeetna"},"id":"0274830"},{"arcs":[[-32,501,502,503,-338,-433]],"type":"Polygon","properties":{"geoid":"0275077","name":"Tanaina"},"id":"0275077"},{"arcs":[[504]],"type":"Polygon","properties":{"geoid":"0217850","name":"Crooked Creek"},"id":"0217850"},{"arcs":[[505,-467,506,-176]],"type":"Polygon","properties":{"geoid":"0240670","name":"Knik River"},"id":"0240670"},{"arcs":[[-115,507]],"type":"Polygon","properties":{"geoid":"0242805","name":"Lake Louise"},"id":"0242805"},{"arcs":[[-503,508,509,-340,510]],"type":"Polygon","properties":{"geoid":"0242832","name":"Lakes"},"id":"0242832"},{"arcs":[[511,-483,-204,-489]],"type":"Polygon","properties":{"geoid":"0273070","name":"Sterling"},"id":"0273070"},{"arcs":[[-474,512]],"type":"Polygon","properties":{"geoid":"0279890","name":"Tyonek"},"id":"0279890"},{"arcs":[[513]],"type":"Polygon","properties":{"geoid":"0213860","name":"Chiniak"},"id":"0213860"},{"arcs":[[[514]],[[515]],[[516]]],"type":"MultiPolygon","properties":{"geoid":"0224660","name":"False Pass"},"id":"0224660"},{"arcs":[[517,518]],"type":"Polygon","properties":{"geoid":"0241210","name":"Kodiak Station"},"id":"0241210"},{"arcs":[[-519,519]],"type":"Polygon","properties":{"geoid":"0285680","name":"Womens Bay"},"id":"0285680"},{"arcs":[[520,521,-284,522]],"type":"Polygon","properties":{"geoid":"0221370","name":"Eielson AFB"},"id":"0221370"},{"arcs":[[523,-297,524,-21]],"type":"Polygon","properties":{"geoid":"0279830","name":"Two Rivers"},"id":"0279830"},{"arcs":[[525]],"type":"Polygon","properties":{"geoid":"0208740","name":"Brevig Mission"},"id":"0208740"},{"arcs":[[526,-521,527,-53]],"type":"Polygon","properties":{"geoid":"0250080","name":"Moose Creek"},"id":"0250080"},{"arcs":[[528]],"type":"Polygon","properties":{"geoid":"0238970","name":"Ketchikan"},"id":"0238970"},{"arcs":[[-34,-435,-260]],"type":"Polygon","properties":{"geoid":"0233800","name":"Houston"},"id":"0233800"},{"arcs":[[529]],"type":"Polygon","properties":{"geoid":"0204670","name":"Attu Station"},"id":"0204670"},{"arcs":[[530]],"type":"Polygon","properties":{"geoid":"0276590","name":"Tetlin"},"id":"0276590"},{"arcs":[[531]],"type":"Polygon","properties":{"geoid":"0218950","name":"Dillingham"},"id":"0218950"},{"arcs":[[[532]],[[533]],[[534]],[[535]],[[536]],[[537]],[[538]],[[539]],[[540]],[[541]],[[542]],[[543]],[[544]],[[545]]],"type":"MultiPolygon","properties":{"geoid":"0286380","name":"Wrangell"},"id":"0286380"},{"arcs":[[546,547]],"type":"Polygon","properties":{"geoid":"0227700","name":"Game Creek"},"id":"0227700"},{"arcs":[[548]],"type":"Polygon","properties":{"geoid":"0270760","name":"Skagway"},"id":"0270760"},{"arcs":[[549,-379,550,-382]],"type":"Polygon","properties":{"geoid":"0253930","name":"Nightmute"},"id":"0253930"},{"arcs":[[-453,551]],"type":"Polygon","properties":{"geoid":"0250800","name":"Mosquito Lake"},"id":"0250800"},{"arcs":[[552]],"type":"Polygon","properties":{"geoid":"0261700","name":"Point Lay"},"id":"0261700"},{"arcs":[[553,554]],"type":"Polygon","properties":{"geoid":"0233360","name":"Hoonah"},"id":"0233360"},{"arcs":[[555]],"type":"Polygon","properties":{"geoid":"0240950","name":"Kodiak"},"id":"0240950"},{"arcs":[[-271,-292,-309,-218,556,-224,-393,-402]],"type":"Polygon","properties":{"geoid":"0216750","name":"College"},"id":"0216750"},{"arcs":[[-427,557,-425,558]],"type":"Polygon","properties":{"geoid":"0263870","name":"Port Protection"},"id":"0263870"},{"arcs":[[-37,559]],"type":"Polygon","properties":{"geoid":"0220600","name":"Eagle Village"},"id":"0220600"},{"arcs":[[-510,560,561,562,-82,-341]],"type":"Polygon","properties":{"geoid":"0228200","name":"Gateway"},"id":"0228200"},{"arcs":[[563,-554,564,-547]],"type":"Polygon","properties":{"geoid":"0284200","name":"Whitestone Logging Camp"},"id":"0284200"},{"arcs":[[565]],"type":"Polygon","properties":{"geoid":"0262125","name":"Pope-Vannoy Landing"},"id":"0262125"},{"arcs":[[-108,566]],"type":"Polygon","properties":{"geoid":"0210150","name":"Cantwell"},"id":"0210150"},{"arcs":[[567]],"type":"Polygon","properties":{"geoid":"0264930","name":"Red Devil"},"id":"0264930"},{"arcs":[[568,-63,569,-117]],"type":"Polygon","properties":{"geoid":"0278297","name":"Tolsona"},"id":"0278297"},{"arcs":[[570]],"type":"Polygon","properties":{"geoid":"0265700","name":"Russian Mission"},"id":"0265700"},{"arcs":[[-133,571]],"type":"Polygon","properties":{"geoid":"0275050","name":"Tanacross"},"id":"0275050"},{"arcs":[[-481,572,-447,573]],"type":"Polygon","properties":{"geoid":"0264240","name":"Primrose"},"id":"0264240"},{"arcs":[[-268,574,-240,575,-562,576]],"type":"Polygon","properties":{"geoid":"0225000","name":"Farm Loop"},"id":"0225000"},{"arcs":[[577]],"type":"Polygon","properties":{"geoid":"0232550","name":"Hobart Bay"},"id":"0232550"},{"arcs":[[578,-129,-213,579,-140]],"type":"Polygon","properties":{"geoid":"0206850","name":"Big Delta"},"id":"0206850"},{"arcs":[[-31,580,-269,-577,-561,-509,-502]],"type":"Polygon","properties":{"geoid":"0225550","name":"Fishhook"},"id":"0225550"},{"arcs":[[581]],"type":"Polygon","properties":{"geoid":"0280660","name":"Unalakleet"},"id":"0280660"},{"arcs":[[582]],"type":"Polygon","properties":{"geoid":"0247000","name":"Marshall"},"id":"0247000"},{"arcs":[[583]],"type":"Polygon","properties":{"geoid":"0267460","name":"Savoonga"},"id":"0267460"},{"arcs":[[584]],"type":"Polygon","properties":{"geoid":"0260200","name":"Perryville"},"id":"0260200"},{"arcs":[[585]],"type":"Polygon","properties":{"geoid":"0246010","name":"McGrath"},"id":"0246010"},{"arcs":[[-499,586]],"type":"Polygon","properties":{"geoid":"0226910","name":"Fox River"},"id":"0226910"},{"arcs":[[587]],"type":"Polygon","properties":{"geoid":"0213890","name":"Chisana"},"id":"0213890"},{"arcs":[[588]],"type":"Polygon","properties":{"geoid":"0201560","name":"Aleneva"},"id":"0201560"},{"arcs":[[-286,589]],"type":"Polygon","properties":{"geoid":"0231765","name":"Harding-Birch Lakes"},"id":"0231765"},{"arcs":[[-443,590,-59,591]],"type":"Polygon","properties":{"geoid":"0230500","name":"Gulkana"},"id":"0230500"},{"arcs":[[592]],"type":"Polygon","properties":{"geoid":"0275380","name":"Tatitlek"},"id":"0275380"},{"arcs":[[593]],"type":"Polygon","properties":{"geoid":"0239410","name":"King Cove"},"id":"0239410"},{"arcs":[[594]],"type":"Polygon","properties":{"geoid":"0215430","name":"Clark's Point"},"id":"0215430"},{"arcs":[[595]],"type":"Polygon","properties":{"geoid":"0240510","name":"Klukwan"},"id":"0240510"},{"arcs":[[-385,596]],"type":"Polygon","properties":{"geoid":"0201305","name":"Alatna"},"id":"0201305"},{"arcs":[[597]],"type":"Polygon","properties":{"geoid":"0236770","name":"Kake"},"id":"0236770"},{"arcs":[[-441,598]],"type":"Polygon","properties":{"geoid":"0242160","name":"Kupreanof"},"id":"0242160"},{"arcs":[[599,-178]],"type":"Polygon","properties":{"geoid":"0284510","name":"Whittier"},"id":"0284510"},{"arcs":[[600]],"type":"Polygon","properties":{"geoid":"0241720","name":"Kotlik"},"id":"0241720"},{"arcs":[[-229,601,-496]],"type":"Polygon","properties":{"geoid":"0233140","name":"Homer"},"id":"0233140"},{"arcs":[[602]],"type":"Polygon","properties":{"geoid":"0221150","name":"Egegik"},"id":"0221150"},{"arcs":[[603]],"type":"Polygon","properties":{"geoid":"0244030","name":"Lime Village"},"id":"0244030"},{"arcs":[[604]],"type":"Polygon","properties":{"geoid":"0262620","name":"Port Alsworth"},"id":"0262620"},{"arcs":[[605]],"type":"Polygon","properties":{"geoid":"0284000","name":"Whale Pass"},"id":"0284000"},{"arcs":[[-479,606]],"type":"Polygon","properties":{"geoid":"0250190","name":"Moose Pass"},"id":"0250190"},{"arcs":[[607,-299,-275]],"type":"Polygon","properties":{"geoid":"0270320","name":"Silver Springs"},"id":"0270320"},{"arcs":[[-397,608,-74,609]],"type":"Polygon","properties":{"geoid":"0254050","name":"Nikiski"},"id":"0254050"},{"arcs":[[610]],"type":"Polygon","properties":{"geoid":"0237540","name":"Karluk"},"id":"0237540"},{"arcs":[[611]],"type":"Polygon","properties":{"geoid":"0253820","name":"Newtok"},"id":"0253820"},{"arcs":[[612]],"type":"Polygon","properties":{"geoid":"0235890","name":"Ivanof Bay"},"id":"0235890"},{"arcs":[[-455,613]],"type":"Polygon","properties":{"geoid":"0245700","name":"Lutak"},"id":"0245700"},{"arcs":[[614]],"type":"Polygon","properties":{"geoid":"0241500","name":"Koliganek"},"id":"0241500"},{"arcs":[[615]],"type":"Polygon","properties":{"geoid":"0217410","name":"Cordova"},"id":"0217410"},{"arcs":[[-311,616,-186]],"type":"Polygon","properties":{"geoid":"0254085","name":"Nikolaevsk"},"id":"0254085"},{"arcs":[[617,-250,-304,618,-71,-476]],"type":"Polygon","properties":{"geoid":"0216420","name":"Cohoe"},"id":"0216420"},{"arcs":[[619]],"type":"Polygon","properties":{"geoid":"0217190","name":"Cooper Landing"},"id":"0217190"},{"arcs":[[620]],"type":"Polygon","properties":{"geoid":"0241610","name":"Kongiganak"},"id":"0241610"}]}}}