{"type":"Topology","arcs":[[[4173,43061],[13,0],[0,-37],[-13,0],[0,37]],[[5623,77572],[42,0],[0,-295],[-42,-1],[0,296]],[[3459,56223],[26,0],[0,-147],[-26,0],[0,147]],[[4339,46130],[33,0],[0,-222],[-33,0],[0,222]],[[3405,55965],[36,0],[0,-74],[35,0],[0,-148],[-9,0],[0,-222],[-8,-74],[-45,0],[0,370],[-9,0],[0,148]],[[5555,77277],[32,0],[0,-222],[-31,0],[-1,222]],[[3928,51844],[13,115],[6,-45],[-14,-114],[-5,44]],[[2828,11103],[42,0],[7,34],[0,-154],[-7,-24],[-6,-144],[8,-157],[1,-120],[9,12],[2,-117],[8,59],[-4,93],[5,51],[-1,110],[6,71],[8,-46],[-10,-85],[8,-61],[11,92],[6,-6],[9,218],[2,204],[8,54],[3,-137],[0,-391],[-30,-444],[-45,0],[0,222],[-7,0],[0,222],[-33,0],[0,444]],[[4247,45538],[17,95],[0,-168],[-17,0],[0,73]],[[7853,62696],[9,-239],[42,41],[23,-304]],[[7927,62194],[11,35],[8,-50],[-4,-155],[27,9],[9,-31],[7,-198],[12,26],[37,-78],[57,-29],[11,-74],[-2,-212],[29,-76],[-4,-77],[-21,-51],[-12,-270],[-11,-59],[-15,-144],[-11,36],[-23,1],[-13,-68],[-30,-7]],[[7989,60722],[-15,217],[14,124],[-51,287],[-12,78],[-13,-47]],[[7912,61381],[-118,4],[-8,70],[-8,291],[-10,194],[34,-11],[26,10],[0,451],[-95,2],[-12,164],[-11,636],[3,68],[-5,129],[27,122],[42,73],[42,5],[2,25],[50,3],[-2,-91],[2,-346],[8,-92],[21,-55],[16,41],[-62,-363],[-1,-15]],[[2161,5180],[2,45],[13,33],[4,102],[-4,50],[21,26],[6,38],[4,103],[-5,88],[3,102],[13,-38],[15,57],[2,208],[-5,62],[4,76],[17,105],[11,271],[-12,137],[4,260],[24,-138],[24,-169],[24,-322],[-15,-43],[-14,-208],[-6,-57],[-15,-57],[-4,-106],[-10,73],[-7,-47],[-1,-219],[-9,90],[-10,-54],[-5,-65],[-24,-172],[-20,-29],[-8,-145],[-17,-57]],[[12495,18724],[7,110],[-7,161],[12,60],[13,-17],[16,190],[21,40],[30,-65],[-6,-151],[-12,-190],[-8,-20],[-13,-163],[-8,27],[-10,-50],[-14,27],[-13,-30],[-8,71]],[[5256,54531],[18,265],[15,27],[-2,66],[9,138],[17,71],[12,-85],[14,11],[14,-98],[14,-48],[8,43],[-7,-434],[-12,-8],[1,-135],[-5,-173],[14,-205],[-6,-80],[-46,-59],[-12,-47],[-20,108],[-9,1],[3,137],[-1,124],[8,83],[-20,126],[-7,172]],[[9899,57146],[19,307],[6,17],[13,226],[20,43],[13,69],[12,-11],[4,-198],[12,82],[20,29],[12,94],[24,-112],[1,-50],[16,-145],[-2,-223],[8,-189],[-3,-116],[16,-82],[-16,-100],[-9,16],[-20,-138],[-9,-307],[-19,64],[-14,-22],[-5,77],[-19,13],[3,106],[-20,31],[-6,144],[-22,191],[-8,-26],[-16,86],[-11,124]],[[7424,53293],[-1,171],[11,175],[0,101],[-8,48],[3,158],[9,132],[5,259],[17,111],[4,171],[14,97],[16,-33],[4,110],[-6,84],[1,112]],[[7493,54989],[19,-67],[11,64],[20,3],[3,-161],[-11,-162],[4,-55],[1,-424],[9,-173],[11,-97],[9,-136],[-7,-346],[12,-213],[-15,-132],[-10,63],[-10,-1],[-12,-138],[-31,-31],[-25,-216],[-17,98],[-7,97],[-18,107],[-5,224]],[[9513,59136],[33,-40],[4,228]],[[9550,59324],[5,97],[9,-43],[12,23],[11,140],[14,12],[10,-38],[7,-196],[25,-75],[10,-109],[-9,-369],[-8,-76],[-5,-181],[-32,-133],[-5,74],[-32,258],[-22,117],[-27,311]],[[9073,62560],[16,48],[6,63],[29,137],[34,45],[8,71],[19,52],[3,-370],[-1,-179],[-13,3],[-23,-142],[-20,17],[-15,-87],[-5,-75],[-12,165],[1,92],[-23,87],[-4,73]],[[9383,56067],[-12,35]],[[9371,56102],[-14,152],[-12,7],[-10,98],[36,237],[6,236],[-11,44],[-6,131],[10,203],[43,319],[-12,31],[-1,71],[22,246],[6,18],[138,0],[4,-122],[-1,-265],[10,-33],[-3,-139],[-24,-188],[-28,-70],[-10,52],[-11,-38],[-5,-105],[-36,-117],[-6,29],[-23,-32],[-1,-179],[-10,-144],[-12,4],[1,-124],[-19,-130],[-9,-227]],[[6353,42769],[28,237],[6,-16],[12,79],[6,-129],[-19,-214],[-9,-153],[-24,0],[0,196]],[[10498,39593],[6,78],[11,-72],[16,-1],[3,123],[10,82],[8,-71],[12,78],[15,305],[14,153],[6,96],[11,49],[19,-220],[-10,-282],[-14,-98],[-10,-197],[-7,-358],[-8,-111],[-20,34],[-62,412]],[[7178,77393],[-4,-82],[-12,-87]],[[7162,77224],[8,150],[8,19]],[[4787,53380],[53,-56],[-7,-442],[-52,58],[6,440]],[[6353,57431],[18,0],[0,-174],[-18,1],[0,173]],[[6026,66180],[29,73],[0,-221],[-29,0],[0,148]],[[3160,49802],[10,0],[-3,-79],[-7,0],[0,79]],[[3164,51383],[6,17],[1,-51],[-6,-14],[-1,48]],[[11948,32218],[2,191],[-1,137],[9,116],[9,13],[4,-158],[17,12],[28,99],[11,-52],[22,-12],[14,-99],[15,-34],[25,69],[8,47],[8,-43],[-69,-223],[-15,-105],[-19,20],[-5,-212],[-21,22],[-13,-161],[-7,12],[-7,129],[-13,146],[-2,86]],[[11906,34137],[3,47],[19,-329],[9,-209],[-8,-26],[-15,308],[-8,209]],[[11876,34339],[17,-153],[-8,-34],[-9,187]],[[11834,36542],[1,138],[61,-10],[5,-30],[173,-19],[6,-8],[-7,-191],[23,-320],[81,-480],[38,-194],[38,-600],[42,-456],[52,-474],[-24,-219],[33,-571],[21,-252],[28,-376],[-113,-1406],[-9,-76],[-14,3],[7,-121],[-20,-248],[-8,62],[-17,381],[-19,279],[-1,96],[6,77],[21,144],[9,-239],[10,47],[-3,133],[-8,156],[-7,48],[-2,140],[-12,-65],[2,-179],[-15,-63],[-11,-91],[-11,56],[-36,452],[-4,120],[1,198],[-3,43],[-4,223],[1,137],[8,62],[0,189],[-7,88],[22,79],[11,116],[-11,132],[3,100],[-13,199],[-5,-353],[-20,-141],[-6,-121],[13,-190],[-8,-64],[-5,-162],[-10,40],[-27,-90],[-21,49],[-15,95],[-22,55],[-7,-68],[-24,70],[-23,252],[-5,111],[11,90],[13,36],[-1,79],[-10,33],[0,152],[-13,22],[-12,-38],[-11,176],[2,54],[-10,418],[-12,93],[-4,119],[-21,337],[-5,46],[-13,304],[20,22],[-7,109],[4,261],[-1,146],[-15,161],[-9,-264],[-13,10],[-5,136],[-16,205],[-5,134],[4,93],[-2,130],[-8,243]],[[4959,50105],[36,-128],[-12,-76],[-28,93],[4,111]],[[5512,39474],[49,0],[0,-444],[-49,0],[0,444]],[[7193,40288],[10,30]],[[7203,40318],[7,-44]],[[7210,40274],[-9,-36]],[[7201,40238],[-8,50]],[[6782,31151],[11,-77],[-4,-145],[-7,1],[0,221]],[[8541,47690],[21,0],[0,148],[77,0],[0,518],[34,0],[0,-518],[42,0],[0,-148],[79,0],[0,-518],[-125,0],[-80,0],[-3,73],[-23,61],[-3,73],[12,101],[14,-21],[16,21],[23,-8],[16,43],[13,-35],[28,20],[-16,210],[-30,-19],[-5,52],[-15,-8],[-8,-45],[-33,-18],[-10,-65],[-14,-266],[-10,-29],[0,378]],[[4418,67299],[29,0],[0,-135],[-23,4],[-6,131]],[[4631,77644],[7,8],[-4,-36],[-3,28]],[[12425,19189],[10,14],[-1,-50],[-9,36]],[[9417,93788],[17,10],[-1,-46],[-16,-14],[0,50]],[[7854,65556],[11,-24],[-7,-66],[-4,90]],[[7613,67854],[13,27],[29,114],[15,89],[14,29],[1,152],[28,0],[32,147],[3,41],[28,93],[24,119],[11,5],[-7,-208],[7,-93],[-11,-50],[6,-164],[1,-122],[-8,-31],[-1,-126],[-14,-30],[-12,-108],[-14,68],[-30,-198],[-19,6],[-12,126],[-11,24],[-17,-42],[-18,64],[-24,7],[-14,61]],[[10129,66418],[-2,-5]],[[10127,66413],[-12,-38],[-4,68],[18,-25]],[[2897,69331],[19,0],[1,-122],[-20,52],[0,70]],[[6215,41911],[23,3],[-15,-192],[5,-105],[-13,-2],[0,296]],[[1789,27401],[1,154],[8,79],[7,-22],[17,82],[6,-40],[15,-2],[28,78],[-12,-325],[-11,-79],[-12,-33],[-13,64],[-10,-10],[-24,54]],[[8142,51243],[16,213],[0,155],[7,6],[30,170],[0,80],[12,30],[10,104],[12,29],[17,-38],[11,-93],[24,-80],[10,-107],[3,-185],[19,76],[32,-1],[13,68]],[[8358,51670],[11,-49],[-4,-131],[-17,-156],[4,-85]],[[8352,51249],[-14,-50],[-13,-92],[-40,20],[-13,-87],[-15,52],[0,-154],[-87,0],[0,96],[-10,-5],[-20,64]],[[8140,51093],[2,150]],[[8628,53856],[0,-398],[-74,0]],[[8554,53458],[-6,158],[2,252],[5,109],[0,166],[-6,106],[4,221],[-3,145],[5,145],[9,-34],[12,-261],[0,-149],[14,-106],[12,-142],[26,-134],[0,-78]],[[7424,53293],[-25,7],[-6,-146],[-17,-95],[-16,18],[-7,155],[-8,67],[-3,161],[-12,112],[-9,11],[-12,96],[-6,-14],[-12,160],[-13,111],[8,154],[-10,294],[-2,140],[8,57],[-2,454],[6,0],[12,126],[2,105],[11,5],[2,111],[12,5],[1,89],[35,1],[-2,-320],[23,-8],[2,-144],[109,-16]],[[7093,51997],[14,18],[-6,110],[9,309],[17,-15],[17,31],[38,173],[12,-53],[-1,-136],[27,-112],[9,59],[14,-60],[15,-169],[26,-39],[7,35],[11,-52],[18,105],[10,108],[11,-4],[14,138],[11,33],[9,-85],[-2,-198],[21,-80],[1,-156],[9,-51],[14,-268],[-19,-163],[-13,-65],[-3,-206],[-7,-148],[-8,32],[-17,147],[-12,-97],[-7,-104],[-16,35],[-38,132],[-54,26],[-7,104],[6,60],[-18,101],[-20,23],[-15,111],[-24,136],[-21,9],[-19,155],[-13,71]],[[7369,49840],[5,134],[-2,84],[18,116],[13,-59],[18,31],[11,133],[17,-4],[21,-198],[7,-103],[24,72],[6,-217],[0,-148],[7,-74],[-4,-148],[0,-148],[-22,0],[-4,-114],[-12,-93],[-8,29],[-2,-134],[-7,-79],[-50,-70],[-20,-14],[5,143],[-2,119],[4,142],[8,95],[-6,138],[8,178],[-29,-1],[-4,190]],[[7579,53227],[19,3],[0,222],[44,0],[13,-37],[13,37]],[[7668,53452],[84,0],[-8,-262],[16,-34],[15,-116],[-13,-116],[-21,-43],[-11,24],[-10,93],[-14,-22],[-18,-110],[-5,-109],[20,-113],[-14,-64],[-9,-97],[-11,-11],[-12,-159],[-6,-15],[1,-199]],[[7652,52099],[-6,-133],[-22,-8],[-10,31],[-6,-77],[-13,-45],[-2,-75],[-13,-52]],[[7580,51740],[6,127],[-7,356],[5,160],[-4,49],[9,269],[-13,126],[-1,141],[-10,13],[13,156],[1,90]],[[7309,94343],[36,0],[0,-222],[-36,0],[0,222]],[[8839,62545],[10,1],[0,300]],[[8849,62846],[6,49],[23,-13]],[[8878,62882],[24,-33],[33,-86],[11,16],[28,-107],[7,36],[14,-34],[25,53],[19,-169],[12,-61],[8,19],[14,-77],[-2,-134],[-7,-32],[-6,-137],[5,-157],[15,-123],[13,14],[12,-88],[-1,-108],[-9,-93],[6,-173],[-16,-161],[-27,-171],[-12,-162],[-4,-192],[-25,-103],[-27,-191],[-23,239],[-3,97],[-9,9],[-23,92],[-10,115],[-20,63],[-15,21],[-24,83],[-5,62],[11,72],[-1,210],[11,150],[2,104],[10,113],[17,102],[9,102],[-48,195],[0,76],[-9,73],[-12,0],[0,99],[-7,40]],[[12410,18776],[5,63],[3,146],[16,0],[0,-111],[-11,0],[0,-204],[-9,6],[-4,100]],[[4872,55780],[17,0],[0,-148],[9,0],[0,-184],[-26,0],[0,332]],[[8135,41923],[11,274],[34,371],[25,37],[5,-141],[-28,-209],[-10,14],[-12,-71],[2,-83],[-17,-254],[-10,62]],[[8890,52971],[25,-126]],[[8915,52845],[6,-177],[-10,-69]],[[8911,52599],[-12,-27]],[[8899,52572],[-25,20],[-27,-50],[-19,97],[-45,-113],[-24,38],[-10,-59]],[[8749,52505],[10,155],[-2,97],[-14,96],[-2,120]],[[8741,52973],[0,145],[10,158],[15,-97],[12,-38],[32,11],[20,-144],[17,-20],[10,-136],[11,-61],[25,1],[-3,179]],[[8719,56918],[9,83],[8,301],[-4,81],[4,120],[19,69],[8,188],[-5,183],[7,138],[17,-63],[43,65],[17,91],[16,-98],[16,64],[13,3],[10,-275],[-4,-210],[13,-237],[-3,-153],[-7,-136],[4,-153],[2,-275],[-18,-29],[-16,-138],[-35,5],[-13,105],[-19,22],[-9,78],[-15,57],[-22,148],[-20,34],[-16,-68]],[[3880,91707],[13,290],[7,-62],[24,-80],[40,90],[19,15],[19,-28],[5,-84],[-56,-249],[-15,57],[-13,-19],[-22,112],[-21,-42]],[[11484,33080],[13,-22],[12,27],[10,-51],[-7,-153],[-14,31],[-14,168]],[[11471,32311],[21,104],[21,-43],[-6,186],[-9,127],[1,149],[22,-110],[8,-87],[3,-141],[11,-5],[-1,123],[18,228],[16,-31],[18,-93],[2,-57],[13,-45],[15,-148],[-6,-204],[-20,-169],[-10,-22],[-25,43],[-20,-239],[0,-126],[-12,-43],[-13,82],[-11,13],[-9,151],[-9,36],[-11,110],[-7,211]],[[11622,38883],[2,27],[9,1],[1,-52],[-6,-8],[-6,32]],[[3564,41722],[27,73],[3,-109],[7,-69],[19,162],[12,-191],[-15,-59],[-12,-107],[-20,47],[7,116],[-6,62],[-20,35],[-2,40]],[[4477,47568],[19,120],[-1,-153],[-18,33]],[[3936,43521],[15,85],[1,118],[-10,125],[7,150],[-2,47],[66,443],[8,-181],[8,-24],[7,-116],[11,1],[8,83],[7,-55],[-5,-103],[-16,-88],[-8,-127],[-19,-90],[-8,-544],[-8,-17],[-9,72],[7,122],[-19,86],[-32,-65],[-9,78]],[[5407,36332],[3,109],[12,69],[14,-91],[-3,-194],[-7,-99],[-16,109],[-3,97]],[[7125,42109],[7,61],[16,252],[28,255],[9,113]],[[7185,42790],[32,14],[18,153]],[[7235,42957],[4,9],[24,-124]],[[7263,42842],[1,-285],[30,-4],[0,-412],[-11,6],[-36,-276],[-32,-8],[-10,-56],[-11,22],[-11,-79],[-17,77],[-9,-2],[-18,196]],[[7139,42021],[-3,77],[-11,11]],[[7297,44654],[2,146]],[[7299,44800],[41,-1]],[[7340,44799],[-7,-225],[-11,-68]],[[7322,44506],[-2,0]],[[7320,44506],[-26,-19]],[[7294,44487],[3,167]],[[5465,28844],[5,92],[8,47],[1,93],[19,-15],[3,35],[-6,167],[-8,107],[23,122],[10,-79],[6,26],[0,158],[9,17],[9,-57],[5,131],[7,37],[16,11],[4,141],[13,-74],[6,85],[-5,187],[-8,139],[-9,8],[-2,293],[100,-465],[-6,-89],[-6,-257],[1,-76],[14,-144],[-6,-53],[-12,9],[-14,85],[-27,-63],[-10,-316],[3,-62],[13,-89],[-54,-135],[-19,-38],[-30,76],[-6,96],[-8,-155],[-16,-69],[2,95],[-10,11],[-7,-64],[-8,32]],[[7677,54143],[-15,-44],[-22,-11],[-7,29],[-14,-66],[-13,11]],[[7606,54062],[-2,-99],[-34,29],[-6,110],[10,149],[-3,200],[11,174],[-5,202],[6,173],[12,105],[6,147],[7,42],[27,-174],[18,-374],[28,38],[27,-90],[-11,-87],[6,-102],[-7,-143],[-12,-81],[-7,-138]],[[8358,51670],[8,14],[1,120],[-7,91],[10,84],[9,141],[4,155],[24,256],[3,92],[9,70],[15,-17],[18,107],[17,16],[-3,-284],[9,-4]],[[8475,52511],[0,-235]],[[8475,52276],[0,-433]],[[8475,51843],[0,-131],[-17,-6],[-8,-56],[-6,-170],[-52,-129],[-12,-60],[-28,-42]],[[9533,54810],[21,-42],[-2,156],[14,145],[-11,186],[-8,213]],[[9547,55468],[26,-110],[24,-149],[-8,-119],[1,-151],[58,-313],[18,-177],[-5,-95],[-17,-130],[-7,-271],[-12,-33],[-3,82],[-25,-87],[-24,63],[-11,96],[4,190],[-20,22],[-4,176],[-9,18],[-6,172],[6,158]],[[8280,67206],[1,49],[17,92],[17,-13],[-1,83]],[[8314,67417],[23,49],[18,-38],[16,11],[13,126],[18,-21],[11,-69],[0,-108],[-11,-158],[15,-139]],[[8417,67070],[-4,-62],[-24,-95]],[[8389,66913],[-10,-23],[-16,31],[-14,-120]],[[8349,66801],[0,92],[-24,9],[-11,-78]],[[8314,66824],[-14,50],[-24,1],[-5,-37]],[[8271,66838],[14,112],[9,150],[-14,106]],[[9022,70259],[6,221],[22,32],[18,-11],[-24,157],[12,15],[40,-27],[8,-37],[15,16],[-4,396],[15,-18],[36,-203],[9,-93],[23,1],[-3,-106],[15,-184],[3,-227],[13,-28],[8,-126],[-4,-93],[11,-107],[3,-153],[-45,-42],[-31,-73],[-14,56],[-28,30],[-29,126],[-28,75],[-7,104],[6,98],[-19,21],[-15,50],[-9,-59],[-3,189]],[[9132,49705],[20,41],[13,61],[11,178],[18,51],[13,-77],[-3,-133],[14,25],[11,-44],[6,65],[19,25],[-3,158],[16,66],[32,-93],[6,-260],[-8,-142],[5,-205],[-17,59],[-20,-36],[-13,74],[-9,120],[-20,37],[-14,-31],[-14,-87],[-8,-177],[-10,60],[-3,88],[-14,56],[-18,113],[-10,8]],[[3835,52345],[-17,7]],[[3818,52352],[13,64],[4,-71]],[[7520,69090],[4,74],[0,425],[20,121],[5,107],[-2,106],[-17,87],[24,56],[17,100],[10,-152],[32,-60],[29,6],[34,83],[30,4],[-11,-162],[4,-99],[-7,-180],[1,-74],[-8,-133],[-13,-125],[-36,-17],[-9,-63],[-22,-46],[-20,1],[-16,44],[2,212],[-17,-24],[-22,-158],[-12,-133]],[[12854,16939],[6,64],[10,-50],[-11,-54],[-5,40]],[[7916,69886],[21,99],[27,369],[24,91],[19,170],[19,116],[3,117],[15,-273],[4,150],[9,-13],[10,-108],[2,-141],[8,-56],[5,-190],[7,-27],[25,99],[12,-41],[11,-109],[39,95],[24,-40],[0,-89],[-24,-319],[-15,-17],[-33,-166],[-3,-73],[-20,-252],[-17,-76],[-28,222],[-12,190],[-11,8],[-12,106],[-11,40],[-14,139],[-4,-160],[-17,97],[-33,-127],[-20,7],[-10,162]],[[10129,66418],[24,-33],[8,-53],[0,-165],[-9,-34],[-9,-168],[-18,100],[3,192],[-1,156]],[[8400,66107],[19,3],[10,-60]],[[8429,66050],[-7,-26]],[[8422,66024],[-22,79]],[[8400,66103],[0,4]],[[9207,60892],[17,54],[13,-46],[10,87],[15,-25],[17,14],[9,-91],[29,-99]],[[9317,60786],[-17,-121],[9,-87],[22,143]],[[9331,60721],[16,-48],[14,-220],[-4,-104],[11,-185],[11,-43],[1,-204],[-3,-134],[-12,64],[-33,-21],[-34,-88],[-14,-105],[-81,39],[-55,430]],[[9148,60102],[7,121],[22,200],[16,-17],[25,33],[-5,266],[4,119],[-10,68]],[[9298,56035],[-12,-134],[8,-195]],[[9294,55706],[-9,-126],[-38,22],[-8,57],[-15,-63],[-14,9],[-5,-108],[-15,-59],[-21,-12],[-16,-155],[-6,-155],[-18,-111],[-12,-2],[-16,-67],[-9,-102],[0,-111],[-6,-84],[1,-110],[-28,-133],[-15,-153],[-13,-51],[-17,3]],[[9014,54195],[-13,96],[-39,-1]],[[8962,54290],[-1,89],[16,218],[4,190],[6,94],[-13,63],[-2,163],[-8,223],[50,286],[36,252],[14,160],[13,-223],[9,-110],[7,-251],[-6,-142],[8,-68],[10,-10],[20,66],[2,201],[35,144],[32,302],[2,96],[19,0],[9,-44],[31,105],[14,-85],[20,-5],[9,31]],[[3004,73798],[6,78],[18,95],[-14,-214],[-10,41]],[[7109,83713],[12,72],[17,-124],[-20,-114],[-16,124],[7,42]],[[4298,37511],[21,2],[0,-111],[-11,-2],[-10,111]],[[5657,99625],[21,168],[39,206],[-6,-173],[0,-203],[-20,-37],[0,-147],[-56,0],[22,186]],[[5987,57222],[73,0],[0,-443],[-73,0],[0,443]],[[5095,38697],[16,-74],[28,-185],[20,0],[0,-148],[16,0],[0,-148],[-24,0],[0,-148],[-16,0],[-8,148],[-8,74],[-16,74],[0,111],[-8,74],[0,222]],[[5347,78348],[46,0],[0,-74],[-41,-221],[-5,-1],[0,296]],[[5613,66302],[77,0],[1,-222],[-75,0],[-3,222]],[[4163,51603],[21,0],[0,-148],[-11,0],[-10,148]],[[7826,49510],[0,-125],[17,0],[0,-148],[198,0]],[[8041,49237],[6,0],[0,-1331],[-3,0],[1,-1627],[-76,0],[-3,-222]],[[7966,46057],[1,-221]],[[7967,45836],[0,-148],[-84,-1],[1,579],[8,45],[-25,298],[-10,29],[-19,132],[-32,-51],[-15,-43],[-6,104],[-8,29],[-24,159],[-33,12],[-8,69],[-29,102],[-11,89],[-21,261],[-23,123],[-10,109],[-28,95],[0,75],[11,87],[1,83],[28,41],[7,74],[7,194],[6,56],[13,231],[27,111],[-1,179],[5,52],[22,44],[14,87],[13,-28],[4,87],[22,112],[16,132],[19,3],[22,62]],[[7528,47705],[12,53],[5,158],[16,39],[0,-111],[-20,-159],[-13,20]],[[9298,56035],[9,-75],[23,123],[13,-73],[5,47],[23,45]],[[9383,56067],[-2,-171],[14,-46],[13,10],[4,-78],[19,-69],[20,9],[38,-79],[9,-70],[23,-81],[26,-24]],[[9533,54810],[-17,33],[-22,-174],[-16,77],[-22,185],[-12,72],[-18,41],[-19,98],[-14,131],[-28,136],[-41,364],[-30,-67]],[[8988,50928],[22,29],[4,256]],[[9014,51213],[18,-47],[17,-172],[12,8],[12,-93],[25,-127],[6,-99],[10,-16],[5,-128],[22,-79],[0,-124],[18,-30],[5,-50],[-5,-128],[-10,-65],[-9,-146],[-14,7],[-15,-35],[-6,-119]],[[9105,49770],[-10,-14],[-15,94],[-3,99],[-8,64],[-23,47],[-16,145],[-8,135],[2,204],[-5,83],[-23,-96],[-3,157],[-9,63]],[[8984,50751],[4,177]],[[9317,60786],[14,-65]],[[7675,95644],[15,81],[19,-1],[19,-46],[33,105],[13,-130],[10,-19],[15,73],[15,-66],[35,-28],[7,-55],[21,-44],[33,-223],[10,18],[35,-111],[19,51],[38,-77],[32,-197],[4,-101],[-6,-72],[22,-113],[14,0],[28,150],[7,-137],[14,-64],[21,249],[26,-172],[22,-21],[11,-72],[7,-123],[24,46],[-5,-158],[-36,-67],[-10,-191],[-23,-74],[-20,-135],[-12,-4],[-75,208],[-9,-226],[-24,-336],[-11,16],[-7,140],[-17,516],[2,103],[-43,67],[-25,111],[-45,2],[-19,222],[-35,10],[-47,66],[-6,153],[5,151],[-10,235],[2,86],[-14,119],[-42,57],[-33,-13],[-4,41]],[[6393,26378],[32,0],[-2,-148],[-15,-37],[-15,0],[0,185]],[[7652,52099],[17,111],[15,-4],[29,87],[46,-53],[30,-2],[17,-61],[14,-110],[27,-155],[-8,-469],[-17,-47],[-8,-149]],[[7814,51247],[-7,-57],[1,-120],[-6,-178],[-19,-108]],[[7783,50784],[-20,-75]],[[7763,50709],[-25,59],[-19,-111],[-21,-46],[-11,-57],[1,-127],[-17,-54]],[[7671,50373],[0,46],[-35,1],[9,-74],[0,-74],[9,-92],[-18,-56]],[[7636,50124],[-27,0],[-20,-129],[-6,133],[-24,-2]],[[7559,50126],[-19,-61],[-1,60],[-25,0],[-5,42],[-1,185],[15,141],[3,146],[6,72],[20,45],[10,235],[-4,97],[4,131],[15,175],[-2,231],[5,115]],[[4230,19515],[13,810],[1,578],[33,88],[32,146],[56,146],[26,87],[3,-128],[-15,10],[-11,-61],[-1,-204],[-10,-61],[4,-215],[-18,-52],[-46,-373],[-6,-82],[-21,-158],[-9,-108],[-6,-122],[-17,-163],[-8,-138]],[[2447,70735],[15,1],[-8,-111],[-7,110]],[[6199,40620],[28,1]],[[6227,40621],[-6,-185],[-22,-1],[0,185]],[[5462,95616],[6,167],[24,0],[0,147],[37,0],[0,-147],[12,0],[0,-444],[-73,0],[0,148],[-6,129]],[[5774,71254],[50,0],[0,-296],[-32,0],[-1,77],[-17,219]],[[9210,71300],[14,109],[20,247],[2,304],[-10,77],[4,94],[-8,48],[65,12],[11,-89],[0,-150],[-8,-151],[10,-228],[0,-159],[-22,-340],[-69,0],[5,122],[-14,104]],[[11531,31505],[11,-14],[0,-37],[-8,0],[-3,51]],[[7561,49368],[2,-53],[58,-4],[0,76],[26,5]],[[7647,49392],[17,-155],[0,-133]],[[7664,49104],[-21,-89],[-9,-219],[0,-185],[-4,-226],[-17,-114],[-25,82],[-37,31],[-20,-21],[-2,491],[15,225],[17,289]],[[4664,49754],[-9,0]],[[4655,49754],[0,148],[17,0],[0,-148],[-8,0]],[[5677,35437],[11,41],[16,210],[17,110],[29,106],[3,81],[12,109],[13,33],[4,102],[27,0],[0,-813],[-21,-43],[-12,-184],[-7,-24],[0,-234],[-12,-52],[-22,109],[-6,107],[-14,-13],[-9,105],[-18,46],[-9,129]],[[5679,35362],[-2,75]],[[7094,41244],[9,-80],[5,85],[26,1],[0,-67]],[[7134,41183],[-5,-16],[-14,-227],[23,-9],[13,-95],[21,54]],[[7172,40890],[12,30],[9,-67],[-15,-188]],[[7178,40665],[-31,-168],[-22,-41],[6,-197],[-8,-12]],[[7123,40247],[-28,194],[-12,141],[-7,158],[4,144],[6,98],[8,262]],[[7222,45246],[19,5]],[[7241,45251],[1,-240],[5,-98]],[[7247,44913],[-19,33]],[[7228,44946],[-6,300]],[[6272,39868],[13,-5],[15,126],[7,-121],[16,-39],[14,82],[37,91],[8,-21],[3,-386],[-18,-49],[-14,42],[-9,-74],[-8,-128],[-9,19],[-1,96],[-8,13],[-17,-104],[-17,93],[15,137],[12,14],[-15,143],[-24,71]],[[11995,28993],[10,54],[-6,245],[13,0],[0,-148],[8,0],[7,-74],[0,-75],[23,0],[0,-148],[-15,0],[0,-222],[31,0],[0,-55],[-13,-61],[-17,76],[-22,309],[0,74],[-19,25]],[[5404,66949],[1,166],[28,0],[-3,-73],[-17,-127],[-9,34]],[[3431,46762],[5,17],[8,-89],[-13,-9],[0,81]],[[3457,46135],[22,33],[13,-22],[4,-108],[-38,-17],[-1,114]],[[3191,65082],[19,0],[0,203],[21,-57],[0,-165],[5,-113],[-16,6],[-29,57],[0,69]],[[7989,60722],[18,-548],[13,-75],[16,-30],[23,-195],[0,-199],[-17,-46],[-40,-48],[-4,-60]],[[7998,59521],[-10,64],[-26,-24],[-15,107]],[[7947,59668],[-6,50],[9,243],[-2,135],[-9,210],[11,106],[2,113],[-12,89],[-2,164],[-8,102],[-14,-22],[-2,96],[5,98],[-1,228],[-6,101]],[[9148,60102],[-14,-125],[-19,-40],[-26,63],[-9,91],[2,90],[-8,207],[7,268],[7,127],[21,134],[17,-49],[10,31],[9,86],[10,-103],[16,22],[5,-51],[22,-14],[9,53]],[[8628,53856],[14,-152],[21,-81],[4,-81],[12,-43],[13,-154],[33,-141],[9,-169]],[[8734,53035],[-34,-322],[-4,-178],[1,-144],[-11,-74],[-3,-76]],[[8683,52241],[-43,-143],[-21,-155],[-21,193],[-26,50]],[[8572,52186],[0,278],[-24,-122],[-10,76],[-29,-125],[-34,-17]],[[8475,52511],[0,503],[-5,0],[0,444],[84,0]],[[7247,44913],[6,111],[34,0],[4,-37],[0,-167],[8,-20]],[[7297,44654],[-6,78],[-14,-149],[-28,-3],[-3,77]],[[7246,44657],[2,88],[-10,63],[-10,138]],[[3965,73116],[27,-95],[3,-68],[-30,0],[0,163]],[[3684,52649],[3,57],[26,0],[0,-92],[-8,-50],[-18,0],[-3,85]],[[7201,40238],[-3,-78],[-14,-103],[-35,61],[-12,42]],[[7137,40160],[42,109],[14,19]],[[4140,59994],[3,-46],[24,-32],[5,-96],[12,-66],[-19,-79],[1,-66],[-11,-50],[-5,-132],[-28,0]],[[4122,59427],[0,148],[18,0],[0,419]],[[12503,17410],[1,9],[5,-57],[-5,17],[-1,31]],[[6630,27674],[42,166],[22,-80],[-2,-73],[-20,-24],[-15,-119],[-6,-103],[-21,233]],[[12482,21581],[6,-12],[12,57],[1,-107],[8,-7],[9,-121],[-29,0],[-7,111],[0,79]],[[8788,44512],[19,99],[15,236],[9,64],[9,158],[5,-41],[25,0],[0,-370],[48,0],[0,-370],[-81,296],[-12,-53],[-28,-30],[-9,11]],[[3330,44799],[58,0],[0,-148],[50,0],[0,-296],[5,0],[0,-222],[-107,0],[0,222],[-5,0]],[[3331,44355],[-1,0]],[[3330,44355],[8,168],[6,16],[-2,158],[-12,5]],[[3330,44702],[0,97]],[[12401,22170],[22,-1],[9,-44],[1,-67],[-17,-186],[-15,1],[0,297]],[[5205,23169],[9,-42],[-2,-86],[20,54],[-7,-222],[-29,10]],[[5196,22883],[0,212],[9,74]],[[11628,33995],[8,70],[39,0],[12,-111],[23,0],[8,74],[0,-234],[-10,78],[-18,-119],[-15,-44],[-11,18],[-24,-54],[0,207],[-12,115]],[[11773,32165],[-21,39]],[[11752,32204],[1,176],[15,0],[0,-128],[5,-87]],[[8250,66823],[0,-3]],[[8250,66820],[4,17]],[[8254,66837],[17,1]],[[8314,66824],[-10,-60],[2,-147]],[[8306,66617],[-3,-1]],[[8303,66616],[-2,-48]],[[8301,66568],[-1,-26]],[[8300,66542],[0,-134]],[[8300,66408],[-26,72]],[[8274,66480],[0,108],[-32,-9],[0,41]],[[8242,66620],[-10,51],[12,169],[6,-17]],[[8463,66853],[8,127],[1,174],[-14,34]],[[8458,67188],[21,80],[17,-172],[34,-53],[-4,-69],[4,-123],[-14,-69],[-15,14],[-17,-84],[-16,-3],[-7,57],[2,87]],[[13287,21508],[12,188],[9,-202],[-3,-472],[-13,139],[-5,347]],[[3314,44849],[-59,-87],[5,-305]],[[3260,44457],[-13,54],[-21,39],[-11,228],[10,112],[25,-15],[12,75],[6,144],[11,-4],[12,169],[16,25],[18,-122],[9,-11],[-6,-152],[-14,-150]],[[4049,46574],[0,-296]],[[4049,46278],[-30,-15],[20,402],[10,-91]],[[6847,75632],[-5,-169]],[[6842,75463],[-29,-121],[-1,-125],[-22,8],[6,120],[-13,77],[-19,38],[0,104],[-9,98],[0,106],[70,-76],[18,-7],[4,-53]],[[3002,49852],[29,0],[-13,-182],[-8,-33],[-8,215]],[[5059,35675],[16,26],[8,-74],[-12,-109],[2,-159],[9,-103],[19,-665],[-7,0],[0,148],[-8,0],[0,296],[-8,0],[0,148],[-11,0],[0,370],[-8,0],[0,122]],[[5018,37059],[48,0],[0,-323],[24,1],[0,-74],[24,0],[0,-148],[8,0],[0,-352],[-11,42],[-5,88],[0,222],[-8,74],[-32,0],[0,27],[-48,1],[0,442]],[[8370,66172],[-13,50]],[[8357,66222],[-3,135],[22,-131],[-6,-54]],[[7838,50347],[5,72]],[[7843,50419],[26,2]],[[7869,50421],[-8,-150]],[[7861,50271],[-5,-55]],[[7856,50216],[-13,-43]],[[7843,50173],[-17,20]],[[7826,50193],[12,154]],[[5490,51198],[10,-18],[17,170],[13,-221],[-3,-82],[18,-95],[1,-83],[-11,-40],[-33,-44],[-11,94],[7,240],[-8,79]],[[7853,62696],[12,31],[14,90],[43,22],[15,100],[16,62],[14,7],[6,-142],[-1,-128],[-15,-177],[-23,-38],[-6,-86],[4,-196],[-5,-47]],[[8908,52285],[8,56]],[[8916,52341],[20,-121],[6,-66]],[[8942,52154],[2,-115],[9,-97],[3,-117]],[[8956,51825],[-13,-3]],[[8943,51822],[-1,104],[-15,128],[-19,231]],[[7759,46628],[12,-75],[4,-80],[-6,-123],[2,-103],[-8,-81],[-11,52]],[[7752,46218],[-8,152],[10,121],[5,137]],[[7636,50124],[26,0],[9,-74],[0,-74],[17,0]],[[7688,49976],[0,-72]],[[7688,49904],[0,-224],[-14,1],[-13,-189],[-23,41],[9,-141]],[[7561,49368],[8,105],[-1,150],[-9,100],[0,403]],[[4236,45615],[7,-5],[7,75],[9,41],[5,-28],[-11,-89],[-12,-26],[-5,32]],[[4343,46627],[15,152],[11,-55],[-2,-116],[-16,-60],[-8,79]],[[7318,46046],[3,-56]],[[7321,45990],[-3,-81],[-18,-2],[0,-301],[-9,-2],[0,-140],[-17,3],[0,-263],[-8,43],[-25,4]],[[7222,45246],[-14,265],[-1,113],[13,76],[27,81],[3,108],[12,39],[44,37],[12,81]],[[3827,41372],[4,130],[28,-70],[18,37],[11,-191],[-13,-74],[-23,-80],[-25,248]],[[6732,32189],[27,192],[7,-93],[41,-187],[9,-65],[8,-213],[-7,-167],[-19,-11],[-21,101],[-16,150],[-13,28],[-11,146],[-5,119]],[[6854,30460],[16,-63],[13,38],[10,-86],[-17,-169],[11,-51],[4,-181]],[[6891,29948],[-20,45],[-15,-75],[-14,20],[-6,-100],[-13,-49],[-1,92],[32,579]],[[8429,66050],[14,197],[24,1],[0,-112],[-26,0],[-7,-110],[18,-1],[10,-76],[0,-108],[14,0],[6,-149],[-25,2],[-4,-39],[0,-148]],[[8453,65507],[-15,1],[-4,147]],[[8434,65655],[-3,129],[-12,56],[3,184]],[[12471,25680],[15,-134],[19,-30],[16,-195],[11,-234],[-61,2],[-1,152],[-10,202]],[[12460,25443],[-2,132],[13,105]],[[12283,23270],[-1,-27]],[[12282,23243],[-1,-49]],[[12281,23194],[-4,1]],[[12277,23195],[6,75]],[[7826,50193],[0,-105],[-21,-126],[-12,16]],[[7793,49978],[-19,70]],[[7774,50048],[16,55],[19,0],[17,90]],[[8273,67490],[1,-216],[-11,-27]],[[8263,67247],[-11,-7],[-14,-70]],[[8238,67170],[-19,-166],[-6,-147]],[[8213,66857],[-12,72],[-9,174],[-25,49],[-30,-31],[-17,-139],[-19,-127],[-10,-116]],[[8091,66739],[-18,177],[1,136],[28,116],[1,101],[9,45],[16,-24],[13,45],[9,-49],[13,35],[12,104],[16,-22],[20,58],[56,53],[6,-24]],[[9014,54195],[-11,-59],[-30,-383],[-31,-49],[-7,-148]],[[8935,53556],[-11,55]],[[8924,53611],[7,83],[-7,210],[4,172],[-10,215],[44,-1]],[[7210,43165],[5,290],[1,334],[3,53],[20,71]],[[7239,43913],[4,-170]],[[7243,43743],[-1,-136],[21,-138]],[[7263,43469],[-1,-116],[11,-106],[4,-137],[7,-55],[0,-155],[-21,-58]],[[7235,42957],[-24,89],[-1,119]],[[7763,50709],[-6,-174],[0,-264],[-9,1],[0,-111]],[[7748,50161],[0,-18]],[[7748,50143],[0,-19]],[[7748,50124],[-14,-185]],[[7734,49939],[-25,-31],[-12,-56],[-9,52]],[[7688,49976],[0,370],[-17,27]],[[5629,36971],[3,53],[-1,257],[6,116],[21,33],[-7,-99],[0,-228],[-5,-269],[-17,137]],[[7178,40665],[19,-55]],[[7197,40610],[9,-193],[-3,-99]],[[7137,40160],[-14,87]],[[8943,75666],[19,1],[16,72],[1,-195],[-23,-2],[-13,124]],[[6392,72855],[10,129],[5,-186],[-15,57]],[[7856,65117],[8,189],[15,-63],[1,-180],[-21,0],[-3,54]],[[6995,68542],[49,0],[0,-222],[-49,0],[0,222]],[[8812,62920],[18,0],[0,-74],[19,0]],[[8839,62545],[-17,0],[0,162],[-10,213]],[[3735,57505],[23,0],[-4,-111],[-18,0],[-1,111]],[[4362,51159],[17,-21],[2,-164],[-19,0],[0,185]],[[7774,50124],[26,222]],[[7800,50346],[33,37],[5,-36]],[[7774,50048],[0,76]],[[7119,39089],[6,-21]],[[7125,39068],[-6,-21],[0,42]],[[12852,17986],[5,52],[4,-51],[-5,-50],[-4,49]],[[6924,30731],[8,-75]],[[6932,30656],[-16,-69],[-5,56],[13,88]],[[6454,29412],[19,0],[8,-148],[-23,0],[-4,148]],[[0,332],[15,258],[-4,136],[24,12],[8,-136],[-1,-56],[-20,-82],[-2,-163],[8,-78],[1,-72],[13,23],[-15,-174],[-24,0],[0,147],[-3,185]],[[5132,26406],[5,167],[42,0],[0,-592],[-44,1],[-2,160],[3,95],[-4,169]],[[4049,46574],[17,0],[0,-296],[-17,0]],[[4206,40731],[21,0],[0,-148],[-17,0],[-4,148]],[[3331,44355],[-1,0]],[[3314,44849],[16,24],[0,-74]],[[3330,44702],[-14,18],[-17,-124],[-11,-29],[-10,-89],[-18,-21]],[[4608,17970],[9,67],[-1,81],[12,-8],[0,-284],[-4,-12],[-16,156]],[[7810,64166],[18,10],[0,74],[28,0],[0,-74],[35,0],[2,-98],[-28,-345],[-51,0],[5,53],[0,227],[-9,153]],[[5170,35971],[16,63],[0,-148],[-14,18],[-2,67]],[[4213,46213],[71,0],[0,-438],[-71,0],[0,438]],[[4664,49754],[0,-74],[-13,-37],[4,111]],[[2948,43776],[15,100],[22,42],[1,-155],[-38,13]],[[4099,65562],[5,74],[19,0],[-11,-98],[-13,24]],[[1413,61307],[17,17],[11,-89],[-1,-181],[-10,-68],[-14,-6],[0,150],[-3,177]],[[1740,60685],[27,74],[0,-74],[-27,0]],[[2938,68828],[7,71],[4,-47],[-11,-24]],[[3454,81576],[8,63],[26,-158],[-7,-53],[-27,148]],[[4011,77086],[7,172],[25,43],[4,141],[15,-51],[-10,-78],[9,-74],[0,-222],[-13,0],[0,-147],[-21,0],[-13,123],[-3,93]],[[12605,19207],[9,74],[15,0],[3,-148],[-13,-41],[-14,115]],[[11796,30604],[0,4]],[[11796,30608],[0,144],[15,0],[0,-74],[54,0],[-14,-148],[-40,0],[0,74],[-15,0]],[[11979,22755],[4,-115],[0,-161],[-4,-174]],[[11979,22305],[0,450]],[[12722,21748],[7,161],[7,-69],[8,-259],[-2,-108],[-10,-35],[-10,310]],[[12603,24113],[0,104],[9,19],[2,-97],[-11,-26]],[[12602,24372],[9,133],[13,54],[-1,-111],[-14,-112],[-7,36]],[[12579,23431],[7,177],[13,99],[25,-180],[-10,-77],[-3,-82],[-10,-34],[-2,-64],[-16,39],[-4,122]],[[12578,24168],[9,163],[4,-116],[-5,-133],[-8,86]],[[12564,24045],[9,37],[3,-137],[-12,35],[0,65]],[[12553,23917],[7,43],[11,-76],[0,-134],[-16,105],[-2,62]],[[12532,22329],[9,33],[-6,190],[13,132],[7,-38],[13,31],[8,296],[7,58],[5,155],[9,-9],[18,81],[5,-24],[12,-201],[-5,-168],[4,-77],[-5,-117],[13,-101],[10,-134],[14,-6],[-2,84],[-15,147],[-6,183],[-5,58],[5,109],[2,191],[-6,166],[8,115],[-2,85],[-11,162],[-4,199],[10,6],[7,-79],[16,-40],[7,-62],[6,-175],[-1,-91],[14,-157],[2,166],[-4,74],[-5,221],[-15,152],[-7,-14],[-6,106],[-14,117],[-2,67],[0,278],[4,25],[9,194],[-5,15],[-24,-160],[-17,-31],[-24,130],[9,351],[-4,84],[22,89],[9,202],[20,38],[19,105],[5,97],[2,146],[10,64],[1,100],[7,71],[16,60],[12,-67],[-2,-85],[72,-347],[-8,-268],[11,-259],[7,-531],[73,66],[31,-305],[85,-528],[24,-223],[0,-126],[-7,-116],[5,-120],[22,-93],[-6,-90],[6,-134],[1,-120],[-13,-68],[-1,-52],[-12,-161],[-30,-53],[-8,-62],[-4,175],[-23,-131],[-6,-119],[-11,-93],[-13,-52],[11,-232],[9,-74],[-5,-86],[7,-180],[-14,43],[-17,-16],[-16,63],[0,91],[-16,64],[-5,81],[-15,114],[-9,-46],[6,-140],[-5,-71],[-14,56],[-11,-41],[-18,-16],[-12,-155],[-2,-128],[-7,-98],[10,-154],[-7,-146],[-18,-64],[0,-121],[-14,-75],[-1,-76],[22,-289],[-1,-67],[-12,-164],[-1,-141],[6,-128],[-13,-70],[-14,122],[-9,-69],[-1,-188],[-17,-56],[-13,-79],[-9,335],[-17,317],[7,11],[8,-102],[12,-22],[2,92],[0,234],[16,42],[16,-8],[-6,208],[14,164],[-2,140],[-5,72],[2,113],[6,71],[22,45],[3,153],[-7,325],[2,321],[0,248],[23,48],[6,106],[13,-61],[16,70],[17,-93],[18,67],[-14,78],[-17,44],[-14,-37],[-19,69],[-7,-23],[-13,-166],[-15,8],[-6,-61],[-3,-254],[-9,4],[-5,-92],[-14,257],[-15,32],[-2,-72],[10,-129],[9,-62],[5,-91],[-16,-102],[-10,19],[-10,-35],[20,-370],[-4,-88],[11,-154],[-2,-108],[-13,-49],[-5,149],[-11,-156],[-11,-19],[-12,-186],[3,-134],[-18,-62],[-8,172],[11,226],[-12,117],[-11,12],[2,182],[9,78],[-10,77],[-10,-14],[-3,91],[7,179],[-10,-27],[-6,51],[-10,-88],[-10,109],[-7,-76],[-1,-99],[6,-58],[-1,-86],[-13,87],[-18,385],[-5,185],[-1,140]],[[12471,22114],[5,101],[13,-54],[0,-122],[-12,-21],[-6,96]],[[12453,22466],[12,3],[15,-131],[-11,-45],[-9,128],[-7,45]],[[12453,22774],[3,101],[9,-22],[1,-78],[-13,-1]],[[12452,22603],[1,94],[14,-16],[7,-41],[-2,-135],[-18,46],[-2,52]],[[12451,22406],[7,-26],[3,-113],[-7,-23],[-3,162]],[[12434,23271],[7,83],[12,297],[14,121],[8,26],[16,-8],[13,-76],[22,83],[9,-6],[13,-75],[12,-122],[2,-152],[-7,-43],[-9,-152],[8,-276],[-2,-96],[-20,-111],[-21,-34],[-20,-89],[-4,82],[-16,130],[-3,81],[-32,213],[-2,124]],[[7966,46057],[27,0],[-19,-98],[15,-42],[27,146],[17,-131],[-12,-23],[-29,0],[0,-74],[-25,1]],[[11738,27750],[12,104],[7,-37],[16,8],[-2,-129],[-7,-126],[-9,-52],[-16,170],[-1,62]],[[11979,22305],[-11,108],[5,57],[-5,107],[-8,-36],[-11,25],[-10,115],[-9,220],[0,68],[-16,93],[-1,160],[-13,151],[2,160],[-11,100],[-4,174],[-9,128],[-4,164],[-6,43],[3,102],[-4,118],[8,123],[23,108],[-10,97],[-11,15],[-3,-71],[-17,-128],[-13,-5],[3,100],[-6,164],[5,194],[-11,-16],[-2,-81],[-9,-18],[-8,89],[10,86],[-3,104],[-9,-67],[-13,-38],[-7,153],[0,105],[12,66],[-12,123],[-10,-173],[-11,278],[-7,36],[6,156],[4,226],[6,41],[2,205],[-9,97],[2,183],[19,-37],[-6,104],[12,64],[9,-12],[9,111],[-15,-2],[-3,70],[-11,21],[-11,76],[-10,204],[7,209],[12,82],[-3,48],[-19,-112],[-4,98],[14,156],[1,163],[8,81],[-20,30],[-9,-23],[-16,28],[-15,-93],[-8,184],[4,86],[-19,132],[1,56],[-11,62],[-6,124],[2,53],[16,5],[22,-56],[8,61],[-17,74],[-12,-3],[-2,54],[13,79],[15,183],[0,183],[-4,98],[13,73],[16,196],[19,4],[16,-98],[9,-147],[-1,-134],[14,-8],[7,34],[10,-48],[6,-128],[29,-167],[2,-61],[16,18],[5,56],[20,15],[23,-128],[-3,-58],[11,-257],[-3,-105],[-13,-12],[-12,124],[-14,-75],[-2,-99],[6,-53],[-2,-139],[12,1],[7,99],[11,-216],[-6,-174],[13,-151],[4,-109],[-4,-98],[5,-54],[17,-656],[-1,-267],[4,-24],[9,-253],[-2,-105],[0,-215],[9,-86],[5,-346],[7,-142],[0,-166],[4,-290],[-4,-246],[0,-209],[-12,-33],[9,-323],[-2,-255],[5,-263],[-5,-162],[3,-208],[-11,-124],[2,-128]],[[11635,27729],[12,138],[-4,90],[5,195],[-8,66],[3,88],[18,-18],[5,73],[27,-163],[22,-222],[7,-133],[-15,-166],[6,-98],[-1,-167],[16,126],[0,108],[4,92],[22,-242],[-12,-123],[-4,-84],[-15,79],[1,-106],[-4,-127],[1,-101],[-9,-113],[-2,-131],[-7,-103],[-23,-97],[-14,-6],[-25,-47],[3,475],[12,117],[11,26],[1,128],[7,50],[-4,83],[-11,52],[-14,2],[5,152],[-5,106],[-11,1]],[[11516,30241],[11,60],[7,-120],[-10,-16],[-8,76]],[[11796,30604],[20,-131],[18,-21],[15,25],[8,-53],[14,12],[7,-54],[12,86],[14,-18],[3,-239],[5,-89],[-8,-140],[9,-59],[11,-248],[3,-132],[-2,-253],[5,-141],[-17,-64],[8,-93],[-6,-66],[-23,17],[-15,-39],[-18,49],[-11,162],[-19,148],[-6,13],[-38,313],[-6,1],[-13,110],[-18,103],[-10,102],[-15,100],[-24,-240],[12,-68],[9,40],[18,-108],[-16,-77],[-3,-66],[4,-111],[-4,-136],[9,-214],[-1,-119],[-13,-67],[1,-81],[-12,-103],[-11,0],[0,-98],[-9,-96],[-12,7],[-9,92],[-8,-13],[-12,49],[-6,130],[-21,207],[-6,10],[-4,122],[-20,144],[0,65],[-12,172],[11,105],[-9,87],[-17,-129],[-6,0],[-18,112],[13,77],[-14,72],[-8,285],[10,82],[12,196],[-9,37],[-11,129],[-4,-178],[-7,-13],[-8,119],[-4,235],[-8,36],[-5,135],[101,35],[13,264],[22,568],[24,-139],[7,-84],[22,-145],[54,-251],[29,-187],[33,-286]],[[4234,36983],[6,-86],[21,46],[16,106],[13,50],[0,-732],[-40,0],[-1,303],[-15,313]],[[8820,83260],[18,48],[3,105],[-7,127],[16,100],[9,292],[13,-9],[27,-154],[11,7],[-8,170],[17,48],[31,-56],[5,-97],[-9,-214],[4,-205],[-70,26],[-16,-151],[-20,-97],[-17,-39],[-7,99]],[[8333,74527],[2,90],[31,71],[18,96],[15,131],[4,-113],[-11,-108],[3,-85],[-10,-172],[-24,56],[-28,34]],[[5843,57261],[3,55],[70,26],[4,-69],[-17,-64],[-8,50],[1,-257],[-13,37],[-13,99],[-11,-34],[-9,-111],[-7,153],[0,115]],[[8599,77935],[15,-15],[8,200],[21,-18],[-6,-79],[30,-134],[8,-75],[-22,-230],[-18,153],[-8,118],[-28,80]],[[7964,50807],[13,66]],[[7977,50873],[20,165]],[[7997,51038],[8,100]],[[8005,51138],[15,86],[8,122],[16,22],[13,-57],[5,121],[9,-57],[38,26],[34,-110],[-1,-48]],[[8140,51093],[-28,23],[-15,-41],[-14,30],[-31,-28],[-26,-114],[-21,-39],[-18,-102],[-20,-56],[-3,41]],[[7843,50173],[0,-324],[-10,-67],[-24,28],[-9,-25]],[[7800,49785],[0,165],[-9,0]],[[7791,49950],[2,28]],[[7826,49510],[19,-22],[12,82],[14,0],[13,75]],[[7884,49645],[18,57]],[[7902,49702],[9,43],[33,-165],[14,-54],[6,-90],[35,-2],[25,-125],[12,-15],[5,-57]],[[7926,50109],[-15,65],[-12,-54],[-19,5]],[[7880,50125],[-9,52],[3,247],[37,142],[13,105],[15,11],[9,32],[23,-297],[13,-57],[-2,-86],[-12,42],[-13,-65],[-5,44],[-15,-11],[-10,34],[-6,-101],[5,-108]],[[7677,54143],[-9,-99],[0,-592]],[[7579,53227],[-12,134],[-2,127],[7,55],[3,130],[-3,154],[19,127],[14,-5],[1,113]],[[3773,65918],[15,29],[5,-95],[-20,66]],[[7783,50784],[1,-144],[16,-294]],[[7774,50124],[-21,0],[-5,37]],[[4526,61977],[15,-37],[0,-147],[-10,-5],[-5,189]],[[3929,17609],[17,159],[43,-2],[0,-95],[-6,-179],[1,-82],[8,-79],[12,10],[17,-286],[-3,-86],[-15,-18],[0,74],[-14,0],[0,148],[-14,0],[0,149],[-29,0],[0,246],[-9,-24],[-8,65]],[[9833,52888],[5,96],[30,117],[13,-177],[4,-146],[52,-3],[0,-330],[-28,-84],[-18,-15],[-32,68],[-20,-6],[-4,84],[-2,396]],[[8935,53556],[-10,-104],[-5,-125],[5,-76],[-6,-84],[2,-74],[-6,-248]],[[8890,52971],[-1,264],[2,70],[0,299],[33,7]],[[9556,49705],[1,59],[19,51],[6,82],[15,-264],[18,-151],[3,-90],[15,-46],[5,107],[-8,328],[3,101],[15,-83],[8,117],[13,-16],[9,-80],[8,-235],[21,-41],[8,-142],[-2,-156],[4,-147],[-44,-151],[-16,-31],[-25,6],[-32,109],[5,68],[-6,91],[-38,227],[5,132],[-10,155]],[[8572,52186],[-12,18],[-11,-103],[-10,-2],[-13,-95],[-17,-30],[-26,-82],[-8,-49]],[[8923,52371],[4,-65],[12,-15],[3,-137]],[[8916,52341],[7,30]],[[8539,46597],[8,-19],[22,32],[0,-147],[-13,-124],[-10,196],[-7,62]],[[8734,53035],[7,-62]],[[8749,52505],[-21,-113],[-5,-53],[-40,-98]],[[8956,51825],[3,-129],[11,-45],[8,-144],[10,-33],[5,-89],[9,-26],[12,-146]],[[8988,50928],[-23,399],[-17,356],[-5,139]],[[12385,20873],[4,45],[15,-37],[-1,-119],[-11,6],[-7,105]],[[11789,39029],[-1,179],[8,10],[7,117],[7,1],[3,-160],[-13,-204],[-11,57]],[[11749,32123],[3,81]],[[11773,32165],[3,-232],[-7,-166],[-6,162],[0,87],[-16,20]],[[11747,32036],[2,87]],[[8212,66820],[1,37]],[[8238,67170],[3,-98],[11,-49],[-8,-85],[10,-101]],[[8250,66820],[0,3]],[[8242,66620],[-15,65],[-17,-141]],[[8210,66544],[-1,79],[8,142],[-5,55]],[[8417,67070],[31,46],[10,72]],[[8463,66853],[-21,-9],[-14,-50],[-17,-15],[-7,92],[-15,42]],[[7765,42729],[18,-148],[9,0]],[[7792,42581],[0,-74],[24,0],[0,-148],[-21,0],[-6,54],[0,144],[-17,-30],[-4,-168]],[[7768,42359],[-9,77]],[[7759,42436],[0,293],[6,0]],[[8814,62103],[9,229],[5,203],[19,-432],[-33,0]],[[6918,29330],[18,55],[3,238],[5,96],[18,59],[7,-57],[15,51],[10,-23],[-3,-171],[-24,-280],[-6,-40],[-14,59],[-8,-34],[-10,46],[-11,1]],[[5898,38345],[12,5],[7,70],[0,94],[12,80],[2,-82],[18,-60],[14,-7],[0,-172],[-20,-57],[-19,77],[-21,-11],[-5,63]],[[6227,39054],[39,39],[24,-77],[-25,-223],[-23,-11],[-6,155],[-9,117]],[[4100,46364],[12,73],[6,-119],[-11,-66],[-7,112]],[[5238,51281],[35,463],[6,-53],[33,216],[21,-158],[0,-40],[19,-160],[-12,-139],[0,-277],[-8,-20],[-32,-238],[-25,-2],[0,85],[-10,84],[2,74],[-29,165]],[[3931,41691],[3,255],[18,88],[11,-86],[-7,-179],[-19,-102],[-6,24]],[[5525,50268],[14,106],[10,223],[14,224],[19,45],[22,-5],[8,43],[19,-194],[-7,-148],[-10,-347],[-19,5],[-8,-195],[8,-105],[-13,-92],[-8,65],[-22,11],[-15,119],[-11,140],[-1,105]],[[5713,51133],[23,81],[9,-37],[-9,-146],[-9,92],[-14,10]],[[11536,39001],[22,-11],[12,-46],[15,28],[26,-87],[8,34]],[[11619,38919],[7,-89],[-2,-70],[-15,-34],[-11,93],[-16,2],[-11,-38],[-29,-51],[-14,105],[8,164]],[[11744,34254],[16,72],[16,-60],[7,-59],[9,35],[10,-227],[3,-189],[3,-67],[-3,-143],[-15,-18],[-22,-92],[-11,317],[-7,338],[-6,93]],[[11742,38137],[1,175]],[[11743,38312],[15,-76],[5,-141],[-4,-107],[16,-74]],[[11775,37914],[0,-89],[-12,-2]],[[11763,37823],[-7,112],[-12,86],[-2,116]],[[11775,37914],[6,-75],[9,-236],[-4,-56],[14,-250],[-21,95],[0,122],[-9,233],[-7,76]],[[5525,40486],[1,33],[22,64],[14,-146],[4,-249],[-12,-29],[-4,104],[-10,35],[-4,138],[-11,50]],[[4654,37402],[23,4],[5,-63],[12,73],[6,-48],[2,-163],[-11,-3],[-6,-226],[-6,-23],[-15,136],[-1,100]],[[4663,37189],[-8,82],[-1,131]],[[4990,21351],[8,-78],[8,-143],[8,11],[6,-69],[-24,-132],[-6,-17],[0,428]],[[7847,50924],[25,-41],[12,25],[2,-97]],[[7886,50811],[-9,-64]],[[7877,50747],[-6,-44]],[[7871,50703],[-3,-92]],[[7868,50611],[15,-104]],[[7883,50507],[0,-6]],[[7883,50501],[-14,-80]],[[7843,50419],[1,125],[7,120],[-4,260]],[[7775,43314],[12,0],[9,126]],[[7796,43440],[6,-257],[23,-188],[13,-39],[3,-69],[-28,25],[-21,-64],[0,-267]],[[7765,42729],[11,83],[2,100],[-4,213],[1,189]],[[7285,40744],[3,120],[-19,128]],[[7269,40992],[-3,54],[14,69],[5,142],[1,121],[-7,263],[11,58],[76,16],[-1,-194],[11,-210],[-2,-358],[-10,-60],[-12,42],[-3,-68],[-22,28],[-14,-7],[-15,-47],[-13,-97]],[[7197,40610],[13,37],[2,58],[14,24],[16,74],[-7,117],[16,-31],[18,103]],[[7285,40744],[-18,-169],[-40,-259],[-17,-42]],[[7324,44413],[17,-124],[22,174],[3,74],[18,26],[11,111],[31,-227],[15,-79]],[[7441,44368],[-4,-39],[-79,32],[-12,-147],[-25,144]],[[7321,44358],[3,55]],[[7752,46218],[-22,155],[-9,-30],[-10,-131],[-29,-19],[4,106],[-9,198],[10,204],[-11,167],[27,-95],[7,-108],[23,59],[26,-96]],[[7294,44487],[-11,-129],[14,0]],[[7297,44358],[-1,-303],[-9,-3],[1,-286],[-17,-1]],[[7271,43765],[-7,-38],[-21,16]],[[7239,43913],[3,247],[2,399],[2,98]],[[7134,41183],[21,125],[11,-90],[33,-92]],[[7199,41126],[-6,-17],[-21,-219]],[[7788,43997],[12,89]],[[7800,44086],[33,-149],[-2,-242],[-16,-95],[-20,-46],[1,-114]],[[7775,43314],[-3,82],[9,238],[14,51],[-2,250],[-5,62]],[[7119,39089],[5,135],[14,73],[24,-82],[9,-6],[8,-107],[13,-81],[-9,-87],[-8,12],[-19,177],[-31,-55]],[[7340,44799],[0,241],[33,4],[12,28],[0,-101],[18,2],[1,-95],[-13,-67],[50,0],[0,-443]],[[7324,44413],[-2,93]],[[7322,44506],[-2,0]],[[12836,19453],[11,0],[-3,-46],[-8,46]],[[7185,42790],[19,235],[6,140]],[[8300,66542],[1,26]],[[8303,66616],[3,1]],[[8349,66801],[4,-49],[16,10],[0,-91],[15,-12],[5,-113],[16,-35],[5,-70],[-9,-170],[-1,-164]],[[8400,66103],[-26,15],[-4,54]],[[8357,66222],[-20,142],[-37,44]],[[8274,66480],[-16,32],[-26,-1],[-9,29],[-14,-36]],[[8209,66504],[1,40]],[[7318,46046],[56,418],[20,187],[12,69],[10,121],[14,45],[33,192],[20,73],[15,100],[0,-130],[-14,1],[0,-155],[-22,-1],[0,-134],[-21,1],[1,-94],[-18,-10],[-9,-79],[0,-122],[-20,1],[-7,-122],[-21,-115],[0,-91],[-24,1],[-9,-68],[0,-144],[-13,0]],[[3888,83012],[11,193],[0,91],[19,59],[3,83],[17,160],[15,28],[14,122],[17,-13],[-6,-513],[-26,-474],[-25,46],[-1,69],[-35,58],[-3,91]],[[7289,47546],[-11,46],[-17,-17],[-20,76]],[[7241,47651],[-4,58],[-1,305],[-13,72],[-3,90],[18,22],[-2,152],[95,0],[0,-321],[-11,-45],[-16,-188],[-10,-213],[-5,-37]],[[9105,49770],[-51,-287],[-27,-197],[-6,96],[-19,29],[-9,102],[-17,64],[-19,214],[0,125],[11,160],[1,168],[4,168],[0,151],[11,188]],[[12281,23194],[1,49]],[[12283,23270],[11,-149],[-8,-91],[-6,45],[-3,120]],[[99974,4686],[8,81],[13,-73],[4,-108],[-13,13],[-12,87]],[[6826,60637],[21,158],[10,125],[-2,115],[18,246],[30,309],[12,44],[16,201],[-4,111],[23,209],[-7,113],[25,17],[55,-15],[0,-755],[-49,0],[0,-887],[-148,9]],[[7926,50109],[4,-50],[-10,-133],[-1,-95],[-17,-129]],[[7884,49645],[-24,-19],[6,225],[13,105],[1,169]],[[9879,62820],[10,290],[6,96],[-12,166],[21,66],[37,-49],[19,-91],[-6,-46],[-2,-162],[14,-216],[23,21],[13,-135],[10,-166],[-29,-97],[-18,-220],[-18,-13],[-9,107],[-10,44],[-5,197],[-9,84],[-29,53],[-6,71]],[[7364,67565],[12,77],[27,63],[10,47],[0,142],[21,34],[13,58],[34,-292],[-25,-179],[-15,14],[4,-101],[-25,-33],[-14,-61],[-17,25],[-11,121],[-14,85]],[[8273,67490],[16,94],[13,-10],[1,-106],[11,-51]],[[8280,67206],[-17,41]],[[10082,55455],[18,225],[2,475],[12,39],[5,94],[29,43],[26,-2],[0,-1483],[-20,90],[-12,82],[-13,-17],[-27,81],[-10,91],[-3,148],[-7,134]],[[8772,73990],[3,217],[13,-112],[12,19],[10,-62],[-22,-157],[-16,95]],[[7178,77393],[12,112],[16,86],[30,-79],[13,-58],[-1,-68],[-38,-17],[-3,-83],[4,-172],[-19,72],[-26,-1],[-4,39]],[[7511,79737],[14,65],[0,92],[10,127],[-6,52],[9,383],[15,30],[24,-37],[7,-178],[11,6],[5,-121],[23,28],[5,-133],[-13,-137],[6,-218],[-50,-46],[-19,79],[-26,-69],[-15,77]],[[9513,59136],[-7,-197],[-20,-155],[-4,-81],[-29,8],[-18,152],[-11,174],[4,173],[16,104],[14,-54],[42,175],[15,21],[9,-72],[26,-60]],[[8453,65507],[28,1],[13,-55],[18,-236],[13,-114],[16,-89],[11,-10],[10,-119],[13,-20]],[[8575,64865],[-29,-78],[-14,14],[-33,-17],[-8,-85],[-20,56]],[[8471,64755],[-1,163],[-11,171],[-5,126],[-17,160],[-4,106],[-10,73],[-2,101],[13,0]],[[5542,34869],[13,115],[10,131],[23,186],[21,42],[22,111],[15,-21],[17,-118],[7,-275],[13,-13],[-8,-97],[-20,-10],[-6,-69],[-109,0],[2,18]],[[4897,21062],[8,66],[4,-151],[-10,-64],[-2,149]],[[8911,52599],[9,-26],[3,-202]],[[8908,52285],[-12,144],[3,143]],[[7847,72838],[2,74],[12,42],[13,-36],[5,-112],[14,26],[1,-200],[-10,-4],[-25,61],[-12,149]],[[11747,32036],[0,-176],[-10,-7],[-9,120],[11,109],[10,41]],[[7814,51247],[10,-1],[11,-69],[7,-225],[5,-28]],[[6854,30460],[2,120],[10,90],[14,7],[7,-85],[12,1],[3,-210],[-12,-130],[14,-35],[0,-199],[-13,-71]],[[99653,5575],[1,206],[4,199],[10,78],[9,9],[16,-55],[7,44],[15,-97],[4,-87],[-7,-157],[7,-65],[11,130],[11,26],[15,-114],[-1,-153],[-11,-79],[8,-87],[24,-15],[9,-52],[1,-97],[-11,38],[-19,-61],[-21,168],[-7,-37],[-11,-275],[-15,-52],[-10,115],[-1,109],[-34,195],[-4,166]],[[2207,71419],[14,59],[3,-133],[-14,8],[-3,66]],[[4431,72584],[10,0],[0,-74],[-10,0],[0,74]],[[4751,75798],[16,-18],[0,-129],[-16,0],[0,147]],[[12556,19966],[3,55],[15,0],[0,-74],[15,-55],[3,129],[7,0],[0,-222],[4,-204],[6,-47],[1,-137],[-21,15],[0,244],[-11,130],[-17,0],[-5,37],[0,129]],[[2811,84653],[23,91],[11,-51],[-34,-40]],[[12460,25443],[-7,-1],[-4,222],[22,16]],[[4715,56778],[0,148],[28,0],[-5,-296],[-23,0],[0,148]],[[5226,66228],[94,0],[-15,-109],[4,-70],[-13,-77],[-9,1],[-23,-103],[-17,-160],[-21,0],[0,518]],[[5457,32510],[34,31],[8,61],[4,143],[-15,10],[-27,329],[-3,268],[11,0],[0,-314],[8,0],[0,-111],[43,0],[19,-37],[0,-222],[-19,0],[0,-73],[-12,-1],[0,-111],[-52,0],[1,27]],[[7748,50124],[0,19]],[[7791,49950],[-31,-20],[-16,-44],[-10,53]],[[3138,12436],[14,0],[0,74],[14,0],[3,-222],[15,0],[0,-340],[-7,-158],[-7,-21],[-11,37],[-3,147],[7,99],[-11,173],[16,141],[-9,99],[-8,-82],[-13,53]],[[3065,12348],[14,-20],[9,-91],[-4,-107],[13,-93],[5,83],[19,-86],[3,-82],[-16,-100],[16,-64],[21,82],[-3,-101],[-21,0],[0,-74],[-21,0],[0,74],[-21,0],[-7,75],[0,296],[-7,0],[0,208]],[[5151,37329],[40,-1],[5,-89],[12,-83],[-9,-146],[-13,-11],[-9,-65],[0,-123],[-23,0],[0,444],[-3,74]],[[4407,46648],[13,0],[0,-148],[-13,0],[0,148]],[[4122,59427],[-49,0],[9,123],[29,229],[-1,102],[-10,175],[14,12],[11,-90],[15,16]],[[4455,76897],[10,65],[5,-74],[-15,9]],[[697,2207],[6,27],[-1,130],[8,0],[0,-149],[5,-61],[-6,-89],[9,-146],[-13,0],[0,283],[-8,5]],[[4730,96307],[16,88],[31,245],[15,-182],[-5,-103],[-18,-97],[-26,-5],[-13,54]],[[5411,29892],[2,-115],[31,0],[7,-74],[1,-148],[15,0],[0,-148],[-15,0],[-10,299],[-27,13],[-4,119],[0,54]],[[5347,28978],[19,122],[23,249],[25,118],[7,-208],[-38,0],[-23,-222],[0,-74],[-13,15]],[[12176,26552],[27,1],[-6,-215],[-13,111],[-8,103]],[[3534,42802],[24,0],[0,-148],[-24,0],[0,148]],[[8575,64865],[13,-5],[25,-129],[10,-82],[24,-78],[40,-270],[-7,-65],[4,-92],[-1,-136],[-15,-35],[-17,-142],[-41,28],[-36,-112],[-20,-14],[-7,174],[-19,100],[-20,-14],[-8,51],[3,107],[-4,96],[-8,48],[-3,135],[-17,72],[-5,127],[5,126]],[[8777,63346],[18,84],[-3,79],[8,94],[20,-159],[22,-33],[-1,-74],[13,-35],[-6,-94],[14,-245],[16,-81]],[[8812,62920],[-16,89]],[[8796,63009],[-19,337]],[[3812,15054],[26,21],[13,100],[0,-148],[-39,0],[0,27]],[[3793,15602],[19,92],[2,166],[-9,129],[17,0],[0,-148],[-7,0],[0,-222],[-22,-17]],[[3780,15989],[5,0],[6,-196],[-3,-45],[1,-218],[8,-135],[1,-161],[12,-169],[-16,-3],[0,335],[-7,0],[0,148],[-7,0],[0,444]],[[6318,29344],[9,173],[10,-19],[11,50],[8,116],[14,97],[2,77],[22,23],[15,83],[0,-603],[-88,11],[-3,-8]],[[5463,38808],[24,0],[0,-444],[-24,0],[0,444]],[[7871,50703],[6,44]],[[7886,50811],[28,77],[25,105],[32,223],[21,-15],[13,-63]],[[7997,51038],[-20,-165]],[[7964,50807],[-12,-68],[-14,-51],[-12,-6],[-17,-47],[0,-63],[-12,-58],[-14,-13]],[[7883,50507],[-15,104]],[[7525,78789],[8,188],[15,81],[10,125],[26,32],[7,56],[52,52],[-21,-131],[-13,-256],[-12,-36],[-20,30],[-20,-149],[-32,8]],[[7233,39773],[9,-11],[4,109],[17,16],[9,-31],[2,-77],[-7,-171],[-16,42],[-18,123]],[[8212,66820],[-21,-73],[-12,1],[-8,-133],[-32,-146],[-17,-1]],[[8122,66468],[6,166],[-24,111],[-13,-6]],[[7321,44358],[-24,0]],[[4689,55743],[18,0],[0,-215],[3,-67],[-6,-161],[-15,0],[0,443]],[[11742,38137],[-18,94],[0,41],[-20,46],[-10,163],[-1,125],[-15,182],[-25,122],[-5,124],[-8,64],[11,311],[77,-148],[9,-238],[6,-58],[3,-221],[5,-37],[9,-210],[-1,-177],[-14,48],[-12,108],[-4,-75],[14,-89]],[[6016,48385],[11,296],[11,372],[29,-75],[37,27],[66,-325],[-3,-281],[-15,62],[-11,-55],[-8,104],[-11,26],[-5,77],[-13,69],[-14,11],[-25,126],[-23,-350],[-21,-113],[-5,29]],[[7768,42359],[0,-186],[-14,-83],[-11,-7],[2,370],[14,-17]],[[3343,54895],[17,-16],[13,27],[6,-57],[-10,-141],[3,-73],[-29,-1],[0,261]],[[4406,64358],[2,3],[5,-58],[3,-3],[1,-47],[-8,57],[-3,48]],[[9364,75923],[10,121],[12,67],[12,-68],[4,-85],[-15,-102],[-19,-5],[-4,72]],[[3818,52352],[-13,-10],[-13,74],[-5,74],[-13,0],[-8,74],[0,148],[104,0],[0,-370],[-35,3]],[[8796,63009],[-42,235],[23,102]],[[7800,49785],[-21,-34],[1,-47],[-22,-79],[-27,-50],[-7,25],[-13,-47],[-33,-210],[-14,-239]],[[9689,58028],[10,149],[22,13],[6,60],[-5,108],[3,65],[32,-42],[15,-170],[13,-53],[11,-138],[13,-16],[3,-76],[-33,-185],[-24,120],[-12,-43],[-11,65],[-10,-90],[-10,-4],[-23,237]],[[6199,40620],[-8,-1],[1,201],[9,133],[13,20],[0,202],[10,69],[38,-246],[-15,-21],[-14,-97],[8,-158],[-14,-101]],[[11536,39001],[-13,59],[-15,-60],[-12,121],[16,71],[19,307],[0,78],[13,-15],[10,33],[36,-64],[0,-60],[-9,-121],[6,-98],[22,-172],[10,-161]],[[7609,44432],[0,509],[14,-74],[14,-119],[15,-7],[33,-133],[8,-76],[8,-134],[-10,-398],[-8,28],[-6,106],[-10,-42],[-17,138],[-6,134],[-25,8],[-10,60]],[[7139,42021],[-3,-119],[3,-88],[10,-96],[11,-6],[16,-173],[18,25],[13,-30],[1,-162],[12,-73],[-21,-173]],[[7094,41244],[13,236],[6,161],[6,342],[6,126]],[[7271,43765],[0,-295],[-8,-1]],[[7788,44164],[-1,-25]],[[7787,44139],[-12,85],[2,122],[-5,100],[-8,15],[-29,182],[0,71],[14,51],[14,-109],[10,-132],[15,-22],[3,-126],[-3,-212]],[[7067,38657],[19,-32],[11,-69],[-2,-110],[-7,4]],[[7088,38450],[-17,91],[-4,116]],[[7289,47546],[0,-63],[-12,-189],[-41,-77],[-9,-103],[-24,10],[-2,62],[-21,127],[-1,91],[7,114],[18,25],[-5,142],[-13,42],[11,77],[32,-185],[12,32]],[[6397,40855],[12,-1],[0,123],[16,33],[13,-47],[17,-13],[3,-243],[-11,-24],[-7,52],[-16,17],[-14,-65],[-13,168]],[[3891,65189],[8,55],[-5,157],[18,2],[0,-189],[-21,-25]],[[7861,50271],[10,-105],[0,-97],[-15,-19],[0,166]],[[12814,18318],[7,-22],[1,-102],[21,-23],[-1,-95],[-17,68],[-11,174]],[[12308,28971],[11,74],[18,66],[12,0],[2,214],[9,31],[13,-228],[6,9],[12,-166],[17,-25],[13,-101],[-22,-168],[2,-369],[-15,-90],[-13,66],[-20,-8],[-28,112],[-6,133],[14,172],[-12,42],[-11,138],[-2,98]],[[12247,21447],[37,0],[-1,-203],[-10,-167],[-26,0],[0,370]],[[1969,24598],[9,5],[29,-61],[20,-10],[25,22],[9,-61],[-9,-122],[-11,-31],[-12,-165],[-17,31],[-9,74],[-2,121],[-20,56],[-12,141]],[[4189,45539],[13,0],[-8,-130],[-5,130]],[[4663,37189],[-7,-7],[-8,-98],[-36,-208],[-13,-121],[0,647],[55,0]],[[4075,16834],[29,117],[0,74],[14,0],[0,-553],[-11,-2],[-7,160],[-11,173],[-14,31]],[[7788,44164],[12,82],[0,-160]],[[7788,43997],[-1,142]],[[2778,68386],[13,408],[14,161],[2,-163],[-17,-88],[-9,-244],[6,-173],[24,-98],[1,-35],[35,-65],[34,53],[-26,-445],[-17,129],[-34,183],[-22,262],[-4,115]],[[3830,81057],[10,23],[83,-126],[-10,-205],[2,-143],[-7,-88],[-12,10],[6,208],[-7,123],[-31,146],[-14,-18],[-20,70]],[[8209,66504],[-14,1],[-15,-86],[-7,-127],[-23,-112],[-14,-2],[-1,85],[-13,58],[0,147]],[[5066,23033],[8,-38],[7,-89],[17,0],[22,-59],[8,-51],[-3,-90],[3,-79],[-17,-63],[-10,78],[-6,-21],[-7,179],[-10,26],[-7,85],[-5,122]],[[6847,75632],[35,0],[1,-296],[-51,0],[10,127]],[[5094,64281],[46,0],[-1,-429],[-45,0],[0,429]],[[6892,31287],[10,103],[16,-35],[-4,-166],[-16,105],[-6,-7]],[[4871,50124],[25,-1],[9,-37],[0,-148],[-26,1],[-8,74],[0,111]],[[6924,30731],[1,61],[15,47],[-1,-141],[-7,-42]],[[5679,35362],[-7,-21],[-17,40],[-9,82],[-16,42],[-13,-72],[-15,-47],[-7,114],[1,135],[20,265],[3,235],[10,-134],[6,50],[10,-39],[15,32],[11,-35],[10,49],[3,-537],[-7,-84]],[[7998,59521],[11,-158],[20,-52],[1,-115],[7,-96],[-4,-98],[-200,0],[0,193],[52,0],[15,68],[-1,199],[30,38],[0,69],[18,99]],[[7088,38450],[-14,0],[-4,-97],[-13,66],[-8,144],[18,94]],[[5196,22883],[-23,-40],[-5,93],[19,227],[18,6]]],"bbox":[-176.696676,51.810493,174.15530983084,71.3397102533974],"transform":{"scale":[0.0035085549438578388,0.00019529412547522875],"translate":[-176.696676,51.810492999999994]},"objects":{"in":{"type":"GeometryCollection","geometries":[{"arcs":[[0]],"type":"Polygon","properties":{"geoid":"0221040","name":"Eek"},"id":"0221040"},{"arcs":[[1]],"type":"Polygon","properties":{"geoid":"0240840","name":"Kobuk"},"id":"0240840"},{"arcs":[[2]],"type":"Polygon","properties":{"geoid":"0222910","name":"Emmonak"},"id":"0222910"},{"arcs":[[3]],"type":"Polygon","properties":{"geoid":"0242380","name":"Kwethluk"},"id":"0242380"},{"arcs":[[4]],"type":"Polygon","properties":{"geoid":"0201200","name":"Alakanuk"},"id":"0201200"},{"arcs":[[5]],"type":"Polygon","properties":{"geoid":"0270100","name":"Shungnak"},"id":"0270100"},{"arcs":[[6]],"type":"Polygon","properties":{"geoid":"0260750","name":"Pilot Station"},"id":"0260750"},{"arcs":[[7]],"type":"Polygon","properties":{"geoid":"0280770","name":"Unalaska"},"id":"0280770"},{"arcs":[[8]],"type":"Polygon","properties":{"geoid":"0252720","name":"Napaskiak"},"id":"0252720"},{"arcs":[[9,10,11,12]],"type":"Polygon","properties":{"geoid":"0232150","name":"Healy"},"id":"0232150"},{"arcs":[[13]],"type":"Polygon","properties":{"geoid":"0254260","name":"Nikolski"},"id":"0254260"},{"arcs":[[14]],"type":"Polygon","properties":{"geoid":"0232810","name":"Hollis"},"id":"0232810"},{"arcs":[[15]],"type":"Polygon","properties":{"geoid":"0225880","name":"Flat"},"id":"0225880"},{"arcs":[[16]],"type":"Polygon","properties":{"geoid":"0256220","name":"Northway"},"id":"0256220"},{"arcs":[[17,18]],"type":"Polygon","properties":{"geoid":"0278680","name":"Trapper Creek"},"id":"0278680"},{"arcs":[[19,20]],"type":"Polygon","properties":{"geoid":"0277800","name":"Tok"},"id":"0277800"},{"arcs":[[21]],"type":"Polygon","properties":{"geoid":"0232310","name":"Healy Lake"},"id":"0232310"},{"arcs":[[22,23]],"type":"Polygon","properties":{"geoid":"0248540","name":"Mentasta Lake"},"id":"0248540"},{"arcs":[[24]],"type":"Polygon","properties":{"geoid":"0262620","name":"Port Alsworth"},"id":"0262620"},{"arcs":[[25]],"type":"Polygon","properties":{"geoid":"0286490","name":"Yakutat"},"id":"0286490"},{"arcs":[[26,27]],"type":"Polygon","properties":{"geoid":"0206630","name":"Bettles"},"id":"0206630"},{"arcs":[[28]],"type":"Polygon","properties":{"geoid":"0233030","name":"Holy Cross"},"id":"0233030"},{"arcs":[[29]],"type":"Polygon","properties":{"geoid":"0254150","name":"Nikolai"},"id":"0254150"},{"arcs":[[30]],"type":"Polygon","properties":{"geoid":"0265590","name":"Ruby"},"id":"0265590"},{"arcs":[[31]],"type":"Polygon","properties":{"geoid":"0213230","name":"Chevak"},"id":"0213230"},{"arcs":[[32]],"type":"Polygon","properties":{"geoid":"0267680","name":"Scammon Bay"},"id":"0267680"},{"arcs":[[[33]],[[34]],[[35]],[[36]]],"type":"MultiPolygon","properties":{"geoid":"0236400","name":"Juneau"},"id":"0236400"},{"arcs":[[37]],"type":"Polygon","properties":{"geoid":"0214330","name":"Chuathbaluk"},"id":"0214330"},{"arcs":[[38]],"type":"Polygon","properties":{"geoid":"0253710","name":"New Stuyahok"},"id":"0253710"},{"arcs":[[39,40,41,42]],"type":"Polygon","properties":{"geoid":"0236540","name":"Kachemak"},"id":"0236540"},{"arcs":[[43]],"type":"Polygon","properties":{"geoid":"0263610","name":"Port Lions"},"id":"0263610"},{"arcs":[[44]],"type":"Polygon","properties":{"geoid":"0282200","name":"Valdez"},"id":"0282200"},{"arcs":[[45]],"type":"Polygon","properties":{"geoid":"0241940","name":"Koyuk"},"id":"0241940"},{"arcs":[[46]],"type":"Polygon","properties":{"geoid":"0239300","name":"Kiana"},"id":"0239300"},{"arcs":[[47]],"type":"Polygon","properties":{"geoid":"0240400","name":"Klawock"},"id":"0240400"},{"arcs":[[48]],"type":"Polygon","properties":{"geoid":"0236990","name":"Kaktovik"},"id":"0236990"},{"arcs":[[49]],"type":"Polygon","properties":{"geoid":"0226835","name":"Four Mile Road"},"id":"0226835"},{"arcs":[[50]],"type":"Polygon","properties":{"geoid":"0249530","name":"Minto"},"id":"0249530"},{"arcs":[[51,52]],"type":"Polygon","properties":{"geoid":"0220380","name":"Eagle"},"id":"0220380"},{"arcs":[[53]],"type":"Polygon","properties":{"geoid":"0208740","name":"Brevig Mission"},"id":"0208740"},{"arcs":[[54]],"type":"Polygon","properties":{"geoid":"0255030","name":"Nondalton"},"id":"0255030"},{"arcs":[[55]],"type":"Polygon","properties":{"geoid":"0266470","name":"St. Paul"},"id":"0266470"},{"arcs":[[56,57,58,59]],"type":"Polygon","properties":{"geoid":"0228590","name":"Glacier View"},"id":"0228590"},{"arcs":[[60,61]],"type":"Polygon","properties":{"geoid":"0242805","name":"Lake Louise"},"id":"0242805"},{"arcs":[[-18,62]],"type":"Polygon","properties":{"geoid":"0260460","name":"Petersville"},"id":"0260460"},{"arcs":[[63]],"type":"Polygon","properties":{"geoid":"0270870","name":"Skwentna"},"id":"0270870"},{"arcs":[[64]],"type":"Polygon","properties":{"geoid":"0274340","name":"Susitna"},"id":"0274340"},{"arcs":[[65,66,67,68]],"type":"Polygon","properties":{"geoid":"0274350","name":"Susitna North"},"id":"0274350"},{"arcs":[[69]],"type":"Polygon","properties":{"geoid":"0256320","name":"Nuiqsut"},"id":"0256320"},{"arcs":[[70,71,72]],"type":"Polygon","properties":{"geoid":"0218675","name":"Deltana"},"id":"0218675"},{"arcs":[[73]],"type":"Polygon","properties":{"geoid":"0217740","name":"Craig"},"id":"0217740"},{"arcs":[[74]],"type":"Polygon","properties":{"geoid":"0268670","name":"Shageluk"},"id":"0268670"},{"arcs":[[75]],"type":"Polygon","properties":{"geoid":"0212970","name":"Chenega"},"id":"0212970"},{"arcs":[[76,77,78,79,80,81]],"type":"Polygon","properties":{"geoid":"0228740","name":"Glennallen"},"id":"0228740"},{"arcs":[[82]],"type":"Polygon","properties":{"geoid":"0259320","name":"Paxson"},"id":"0259320"},{"arcs":[[83]],"type":"Polygon","properties":{"geoid":"0261700","name":"Point Lay"},"id":"0261700"},{"arcs":[[[84]],[[85]]],"type":"MultiPolygon","properties":{"geoid":"0222140","name":"Elfin Cove"},"id":"0222140"},{"arcs":[[86]],"type":"Polygon","properties":{"geoid":"0240510","name":"Klukwan"},"id":"0240510"},{"arcs":[[87]],"type":"Polygon","properties":{"geoid":"0239740","name":"Kipnuk"},"id":"0239740"},{"arcs":[[88]],"type":"Polygon","properties":{"geoid":"0278790","name":"Tuluksak"},"id":"0278790"},{"arcs":[[89]],"type":"Polygon","properties":{"geoid":"0279120","name":"Tuntutuliak"},"id":"0279120"},{"arcs":[[90]],"type":"Polygon","properties":{"geoid":"0262285","name":"Portage Creek"},"id":"0262285"},{"arcs":[[91,92,93,94,95]],"type":"Polygon","properties":{"geoid":"0254480","name":"Ninilchik"},"id":"0254480"},{"arcs":[[96,97,98,99,100,101]],"type":"Polygon","properties":{"geoid":"0265345","name":"Ridgeway"},"id":"0265345"},{"arcs":[[102]],"type":"Polygon","properties":{"geoid":"0280100","name":"Ugashik"},"id":"0280100"},{"arcs":[[103,104]],"type":"Polygon","properties":{"geoid":"0212350","name":"Chase"},"id":"0212350"},{"arcs":[[105,106,107,108,-58]],"type":"Polygon","properties":{"geoid":"0223720","name":"Eureka Roadhouse"},"id":"0223720"},{"arcs":[[109,110]],"type":"Polygon","properties":{"geoid":"0251960","name":"Nabesna"},"id":"0251960"},{"arcs":[[111,112,113,114,115,116,117]],"type":"Polygon","properties":{"geoid":"0272985","name":"Steele Creek"},"id":"0272985"},{"arcs":[[118]],"type":"Polygon","properties":{"geoid":"0211690","name":"Central"},"id":"0211690"},{"arcs":[[119]],"type":"Polygon","properties":{"geoid":"0214110","name":"Chitina"},"id":"0214110"},{"arcs":[[120,121]],"type":"Polygon","properties":{"geoid":"0260860","name":"Pitkas Point"},"id":"0260860"},{"arcs":[[122]],"type":"Polygon","properties":{"geoid":"0264820","name":"Rampart"},"id":"0264820"},{"arcs":[[123]],"type":"Polygon","properties":{"geoid":"0248870","name":"Metlakatla"},"id":"0248870"},{"arcs":[[124]],"type":"Polygon","properties":{"geoid":"0244580","name":"Livengood"},"id":"0244580"},{"arcs":[[-52,125]],"type":"Polygon","properties":{"geoid":"0220600","name":"Eagle Village"},"id":"0220600"},{"arcs":[[126,127,128,129]],"type":"Polygon","properties":{"geoid":"0250080","name":"Moose Creek"},"id":"0250080"},{"arcs":[[130,131,132,133]],"type":"Polygon","properties":{"geoid":"0219720","name":"Dot Lake"},"id":"0219720"},{"arcs":[[134,135,136,137]],"type":"Polygon","properties":{"geoid":"0214000","name":"Chistochina"},"id":"0214000"},{"arcs":[[138]],"type":"Polygon","properties":{"geoid":"0269770","name":"Shishmaref"},"id":"0269770"},{"arcs":[[139]],"type":"Polygon","properties":{"geoid":"0202080","name":"Anaktuvuk Pass"},"id":"0202080"},{"arcs":[[140]],"type":"Polygon","properties":{"geoid":"0229290","name":"Goodnews Bay"},"id":"0229290"},{"arcs":[[141]],"type":"Polygon","properties":{"geoid":"0281920","name":"Utqiaġvik"},"id":"0281920"},{"arcs":[[142]],"type":"Polygon","properties":{"geoid":"0246010","name":"McGrath"},"id":"0246010"},{"arcs":[[143]],"type":"Polygon","properties":{"geoid":"0201420","name":"Aleknagik"},"id":"0201420"},{"arcs":[[144]],"type":"Polygon","properties":{"geoid":"0201970","name":"Ambler"},"id":"0201970"},{"arcs":[[145]],"type":"Polygon","properties":{"geoid":"0227530","name":"Galena"},"id":"0227530"},{"arcs":[[146]],"type":"Polygon","properties":{"geoid":"0247000","name":"Marshall"},"id":"0247000"},{"arcs":[[[147,148,149,150]],[[151]]],"type":"MultiPolygon","properties":{"geoid":"0203000","name":"Anchorage"},"id":"0203000"},{"arcs":[[152,-23,153,-110,154,-135]],"type":"Polygon","properties":{"geoid":"0270930","name":"Slana"},"id":"0270930"},{"arcs":[[155,156,157,158]],"type":"Polygon","properties":{"geoid":"0238910","name":"Kenny Lake"},"id":"0238910"},{"arcs":[[159,-132]],"type":"Polygon","properties":{"geoid":"0219750","name":"Dot Lake Village"},"id":"0219750"},{"arcs":[[160]],"type":"Polygon","properties":{"geoid":"0264380","name":"Prudhoe Bay"},"id":"0264380"},{"arcs":[[161]],"type":"Polygon","properties":{"geoid":"0200650","name":"Akhiok"},"id":"0200650"},{"arcs":[[-68,162,163,164,165,166,167,168]],"type":"Polygon","properties":{"geoid":"0285280","name":"Willow"},"id":"0285280"},{"arcs":[[169]],"type":"Polygon","properties":{"geoid":"0252940","name":"Nelson Lagoon"},"id":"0252940"},{"arcs":[[170]],"type":"Polygon","properties":{"geoid":"0282860","name":"Wales"},"id":"0282860"},{"arcs":[[171,172]],"type":"Polygon","properties":{"geoid":"0253270","name":"Newhalen"},"id":"0253270"},{"arcs":[[173]],"type":"Polygon","properties":{"geoid":"0204500","name":"Atqasuk"},"id":"0204500"},{"arcs":[[174]],"type":"Polygon","properties":{"geoid":"0234350","name":"Huslia"},"id":"0234350"},{"arcs":[[175]],"type":"Polygon","properties":{"geoid":"0214880","name":"Circle"},"id":"0214880"},{"arcs":[[176]],"type":"Polygon","properties":{"geoid":"0259650","name":"Pelican"},"id":"0259650"},{"arcs":[[177,178,179]],"type":"Polygon","properties":{"geoid":"0261788","name":"Point MacKenzie"},"id":"0261788"},{"arcs":[[180,181]],"type":"Polygon","properties":{"geoid":"0281320","name":"Upper Kalskag"},"id":"0281320"},{"arcs":[[182,183]],"type":"Polygon","properties":{"geoid":"0239630","name":"King Salmon"},"id":"0239630"},{"arcs":[[184,185,186,187,188]],"type":"Polygon","properties":{"geoid":"0203110","name":"Anchor Point"},"id":"0203110"},{"arcs":[[189,190,191,192]],"type":"Polygon","properties":{"geoid":"0266510","name":"Salamatof"},"id":"0266510"},{"arcs":[[193]],"type":"Polygon","properties":{"geoid":"0262125","name":"Pope-Vannoy Landing"},"id":"0262125"},{"arcs":[[194]],"type":"Polygon","properties":{"geoid":"0203440","name":"Angoon"},"id":"0203440"},{"arcs":[[195]],"type":"Polygon","properties":{"geoid":"0242050","name":"Koyukuk"},"id":"0242050"},{"arcs":[[196]],"type":"Polygon","properties":{"geoid":"0253820","name":"Newtok"},"id":"0253820"},{"arcs":[[197]],"type":"Polygon","properties":{"geoid":"0248590","name":"Mertarvik"},"id":"0248590"},{"arcs":[[198]],"type":"Polygon","properties":{"geoid":"0254920","name":"Nome"},"id":"0254920"},{"arcs":[[-12,199,200,201]],"type":"Polygon","properties":{"geoid":"0218805","name":"Denali Park"},"id":"0218805"},{"arcs":[[-134,202]],"type":"Polygon","properties":{"geoid":"0220020","name":"Dry Creek"},"id":"0220020"},{"arcs":[[-61,203,204,205,206,-107,207]],"type":"Polygon","properties":{"geoid":"0248200","name":"Mendeltna"},"id":"0248200"},{"arcs":[[-192,208,-97,209,210]],"type":"Polygon","properties":{"geoid":"0238420","name":"Kenai"},"id":"0238420"},{"arcs":[[211]],"type":"Polygon","properties":{"geoid":"0218510","name":"Deering"},"id":"0218510"},{"arcs":[[212]],"type":"Polygon","properties":{"geoid":"0251180","name":"Mountain Village"},"id":"0251180"},{"arcs":[[-43,213,214]],"type":"Polygon","properties":{"geoid":"0233140","name":"Homer"},"id":"0233140"},{"arcs":[[215,216]],"type":"Polygon","properties":{"geoid":"0266360","name":"St. Michael"},"id":"0266360"},{"arcs":[[217]],"type":"Polygon","properties":{"geoid":"0234460","name":"Hydaburg"},"id":"0234460"},{"arcs":[[218]],"type":"Polygon","properties":{"geoid":"0257340","name":"Old Harbor"},"id":"0257340"},{"arcs":[[219]],"type":"Polygon","properties":{"geoid":"0216360","name":"Coffman Cove"},"id":"0216360"},{"arcs":[[220]],"type":"Polygon","properties":{"geoid":"0217410","name":"Cordova"},"id":"0217410"},{"arcs":[[221,222,223,224]],"type":"Polygon","properties":{"geoid":"0253930","name":"Nightmute"},"id":"0253930"},{"arcs":[[225]],"type":"Polygon","properties":{"geoid":"0284000","name":"Whale Pass"},"id":"0284000"},{"arcs":[[226,227]],"type":"Polygon","properties":{"geoid":"0213550","name":"Chignik"},"id":"0213550"},{"arcs":[[228]],"type":"Polygon","properties":{"geoid":"0230940","name":"Gustavus"},"id":"0230940"},{"arcs":[[229,230]],"type":"Polygon","properties":{"geoid":"0233360","name":"Hoonah"},"id":"0233360"},{"arcs":[[231,232,233,-117,234,235,236,237,238,239,240,241]],"type":"Polygon","properties":{"geoid":"0224230","name":"Fairbanks"},"id":"0224230"},{"arcs":[[242,243]],"type":"Polygon","properties":{"geoid":"0261120","name":"Pleasant Valley"},"id":"0261120"},{"arcs":[[244]],"type":"Polygon","properties":{"geoid":"0234570","name":"Hyder"},"id":"0234570"},{"arcs":[[245,246]],"type":"Polygon","properties":{"geoid":"0279230","name":"Tununak"},"id":"0279230"},{"arcs":[[247,248]],"type":"Polygon","properties":{"geoid":"0237975","name":"Kasigluk"},"id":"0237975"},{"arcs":[[249,250]],"type":"Polygon","properties":{"geoid":"0201305","name":"Alatna"},"id":"0201305"},{"arcs":[[251]],"type":"Polygon","properties":{"geoid":"0233470","name":"Hooper Bay"},"id":"0233470"},{"arcs":[[[252]],[[253]]],"type":"MultiPolygon","properties":{"geoid":"0246890","name":"Manokotak"},"id":"0246890"},{"arcs":[[254,255]],"type":"Polygon","properties":{"geoid":"0255910","name":"North Pole"},"id":"0255910"},{"arcs":[[256,257,258,259,260,261,262]],"type":"Polygon","properties":{"geoid":"0225000","name":"Farm Loop"},"id":"0225000"},{"arcs":[[263]],"type":"Polygon","properties":{"geoid":"0264930","name":"Red Devil"},"id":"0264930"},{"arcs":[[264,-10]],"type":"Polygon","properties":{"geoid":"0225220","name":"Ferry"},"id":"0225220"},{"arcs":[[265,266,267,268,269]],"type":"Polygon","properties":{"geoid":"0217300","name":"Copper Center"},"id":"0217300"},{"arcs":[[270,271]],"type":"Polygon","properties":{"geoid":"0273950","name":"Sunrise"},"id":"0273950"},{"arcs":[[-168,272,273,274,-178,275]],"type":"Polygon","properties":{"geoid":"0207070","name":"Big Lake"},"id":"0207070"},{"arcs":[[276]],"type":"Polygon","properties":{"geoid":"0258330","name":"Oscarville"},"id":"0258330"},{"arcs":[[277]],"type":"Polygon","properties":{"geoid":"0200760","name":"Akiachak"},"id":"0200760"},{"arcs":[[278,279,-190,280]],"type":"Polygon","properties":{"geoid":"0254050","name":"Nikiski"},"id":"0254050"},{"arcs":[[281]],"type":"Polygon","properties":{"geoid":"0242490","name":"Kwigillingok"},"id":"0242490"},{"arcs":[[282]],"type":"Polygon","properties":{"geoid":"0201560","name":"Aleneva"},"id":"0201560"},{"arcs":[[283,284]],"type":"Polygon","properties":{"geoid":"0285680","name":"Womens Bay"},"id":"0285680"},{"arcs":[[-128,285,286,287]],"type":"Polygon","properties":{"geoid":"0221370","name":"Eielson AFB"},"id":"0221370"},{"arcs":[[288,289]],"type":"Polygon","properties":{"geoid":"0260310","name":"Petersburg"},"id":"0260310"},{"arcs":[[290,291,292,293]],"type":"Polygon","properties":{"geoid":"0261190","name":"Point Baker"},"id":"0261190"},{"arcs":[[294,295,296]],"type":"Polygon","properties":{"geoid":"0272135","name":"South Lakes"},"id":"0272135"},{"arcs":[[297,298,299,300,301]],"type":"Polygon","properties":{"geoid":"0229130","name":"Goldstream"},"id":"0229130"},{"arcs":[[-137,302,303,304]],"type":"Polygon","properties":{"geoid":"0227420","name":"Gakona"},"id":"0227420"},{"arcs":[[305,306,307,308,-94,309]],"type":"Polygon","properties":{"geoid":"0216420","name":"Cohoe"},"id":"0216420"},{"arcs":[[-166,310,311,312,313,314,-274,315]],"type":"Polygon","properties":{"geoid":"0247735","name":"Meadow Lakes"},"id":"0247735"},{"arcs":[[316]],"type":"Polygon","properties":{"geoid":"0243810","name":"Levelock"},"id":"0243810"},{"arcs":[[-188,317,318,-40,-215,319]],"type":"Polygon","properties":{"geoid":"0218925","name":"Diamond Ridge"},"id":"0218925"},{"arcs":[[320]],"type":"Polygon","properties":{"geoid":"0226760","name":"Fort Yukon"},"id":"0226760"},{"arcs":[[321]],"type":"Polygon","properties":{"geoid":"0233910","name":"Hughes"},"id":"0233910"},{"arcs":[[322]],"type":"Polygon","properties":{"geoid":"0253050","name":"Nenana"},"id":"0253050"},{"arcs":[[323]],"type":"Polygon","properties":{"geoid":"0275160","name":"Tanana"},"id":"0275160"},{"arcs":[[324,-71,325]],"type":"Polygon","properties":{"geoid":"0218620","name":"Delta Junction"},"id":"0218620"},{"arcs":[[326]],"type":"Polygon","properties":{"geoid":"0241720","name":"Kotlik"},"id":"0241720"},{"arcs":[[327]],"type":"Polygon","properties":{"geoid":"0265700","name":"Russian Mission"},"id":"0265700"},{"arcs":[[328,329,-263,-297,330]],"type":"Polygon","properties":{"geoid":"0255745","name":"North Lakes"},"id":"0255745"},{"arcs":[[331,332]],"type":"Polygon","properties":{"geoid":"0268340","name":"Seldovia"},"id":"0268340"},{"arcs":[[333]],"type":"Polygon","properties":{"geoid":"0267570","name":"Saxman"},"id":"0267570"},{"arcs":[[334,335]],"type":"Polygon","properties":{"geoid":"0240950","name":"Kodiak"},"id":"0240950"},{"arcs":[[336]],"type":"Polygon","properties":{"geoid":"0243040","name":"Larsen Bay"},"id":"0243040"},{"arcs":[[337]],"type":"Polygon","properties":{"geoid":"0200065","name":"Adak"},"id":"0200065"},{"arcs":[[338]],"type":"Polygon","properties":{"geoid":"0263390","name":"Port Heiden"},"id":"0263390"},{"arcs":[[-167,-316,-273]],"type":"Polygon","properties":{"geoid":"0233800","name":"Houston"},"id":"0233800"},{"arcs":[[339,-248]],"type":"Polygon","properties":{"geoid":"0256680","name":"Nunapitchuk"},"id":"0256680"},{"arcs":[[340]],"type":"Polygon","properties":{"geoid":"0264600","name":"Quinhagak"},"id":"0264600"},{"arcs":[[342,-225,343,-246]],"type":"Polygon","properties":{"geoid":"0278240","name":"Toksook Bay"},"id":"0278240"},{"arcs":[[344]],"type":"Polygon","properties":{"geoid":"0267020","name":"Sand Point"},"id":"0267020"},{"arcs":[[345]],"type":"Polygon","properties":{"geoid":"0203220","name":"Anderson"},"id":"0203220"},{"arcs":[[346]],"type":"Polygon","properties":{"geoid":"0215430","name":"Clark's Point"},"id":"0215430"},{"arcs":[[347]],"type":"Polygon","properties":{"geoid":"0206520","name":"Bethel"},"id":"0206520"},{"arcs":[[-181,348]],"type":"Polygon","properties":{"geoid":"0245460","name":"Lower Kalskag"},"id":"0245460"},{"arcs":[[349]],"type":"Polygon","properties":{"geoid":"0247990","name":"Mekoryuk"},"id":"0247990"},{"arcs":[[350]],"type":"Polygon","properties":{"geoid":"0222250","name":"Elim"},"id":"0222250"},{"arcs":[[351]],"type":"Polygon","properties":{"geoid":"0227640","name":"Gambell"},"id":"0227640"},{"arcs":[[352]],"type":"Polygon","properties":{"geoid":"0267460","name":"Savoonga"},"id":"0267460"},{"arcs":[[353]],"type":"Polygon","properties":{"geoid":"0275930","name":"Teller"},"id":"0275930"},{"arcs":[[354]],"type":"Polygon","properties":{"geoid":"0239960","name":"Kivalina"},"id":"0239960"},{"arcs":[[355]],"type":"Polygon","properties":{"geoid":"0241830","name":"Kotzebue"},"id":"0241830"},{"arcs":[[356]],"type":"Polygon","properties":{"geoid":"0237650","name":"Kasaan"},"id":"0237650"},{"arcs":[[357,358]],"type":"Polygon","properties":{"geoid":"0276260","name":"Tenakee Springs"},"id":"0276260"},{"arcs":[[359,360]],"type":"Polygon","properties":{"geoid":"0262510","name":"Port Alexander"},"id":"0262510"},{"arcs":[[[361]],[[362]],[[363]],[[364]],[[365]],[[366]],[[367]],[[368]],[[369]],[[370]],[[371]],[[372]],[[373]],[[374]]],"type":"MultiPolygon","properties":{"geoid":"0286380","name":"Wrangell"},"id":"0286380"},{"arcs":[[375,-150]],"type":"Polygon","properties":{"geoid":"0284510","name":"Whittier"},"id":"0284510"},{"arcs":[[[376]],[[-361,377]],[[378]],[[379]],[[-358,380]]],"type":"MultiPolygon","properties":{"geoid":"0270540","name":"Sitka"},"id":"0270540"},{"arcs":[[381]],"type":"Polygon","properties":{"geoid":"0261080","name":"Platinum"},"id":"0261080"},{"arcs":[[382]],"type":"Polygon","properties":{"geoid":"0203990","name":"Arctic Village"},"id":"0203990"},{"arcs":[[383]],"type":"Polygon","properties":{"geoid":"0205750","name":"Beaver"},"id":"0205750"},{"arcs":[[384]],"type":"Polygon","properties":{"geoid":"0274610","name":"Takotna"},"id":"0274610"},{"arcs":[[385]],"type":"Polygon","properties":{"geoid":"0282420","name":"Venetie"},"id":"0282420"},{"arcs":[[386,387,388,389,-60,390]],"type":"Polygon","properties":{"geoid":"0213340","name":"Chickaloon"},"id":"0213340"},{"arcs":[[-295,-262,391,392,393]],"type":"Polygon","properties":{"geoid":"0228200","name":"Gateway"},"id":"0228200"},{"arcs":[[394,395,396,-148]],"type":"Polygon","properties":{"geoid":"0240670","name":"Knik River"},"id":"0240670"},{"arcs":[[397,398]],"type":"Polygon","properties":{"geoid":"0243260","name":"Lazy Mountain"},"id":"0243260"},{"arcs":[[-104,399,-66,400]],"type":"Polygon","properties":{"geoid":"0274830","name":"Talkeetna"},"id":"0274830"},{"arcs":[[401]],"type":"Polygon","properties":{"geoid":"0284070","name":"White Mountain"},"id":"0284070"},{"arcs":[[-165,402,-329,403,-311]],"type":"Polygon","properties":{"geoid":"0275077","name":"Tanaina"},"id":"0275077"},{"arcs":[[404]],"type":"Polygon","properties":{"geoid":"0280660","name":"Unalakleet"},"id":"0280660"},{"arcs":[[405]],"type":"Polygon","properties":{"geoid":"0216530","name":"Cold Bay"},"id":"0216530"},{"arcs":[[406]],"type":"Polygon","properties":{"geoid":"0213890","name":"Chisana"},"id":"0213890"},{"arcs":[[-304,407,-77,408]],"type":"Polygon","properties":{"geoid":"0230500","name":"Gulkana"},"id":"0230500"},{"arcs":[[409]],"type":"Polygon","properties":{"geoid":"0245790","name":"McCarthy"},"id":"0245790"},{"arcs":[[-207,410,-108]],"type":"Polygon","properties":{"geoid":"0252915","name":"Nelchina"},"id":"0252915"},{"arcs":[[411,-267,412]],"type":"Polygon","properties":{"geoid":"0270320","name":"Silver Springs"},"id":"0270320"},{"arcs":[[413]],"type":"Polygon","properties":{"geoid":"0275380","name":"Tatitlek"},"id":"0275380"},{"arcs":[[414,-81,415,-205]],"type":"Polygon","properties":{"geoid":"0278297","name":"Tolsona"},"id":"0278297"},{"arcs":[[-269,416,-156,417]],"type":"Polygon","properties":{"geoid":"0285290","name":"Willow Creek"},"id":"0285290"},{"arcs":[[418]],"type":"Polygon","properties":{"geoid":"0252845","name":"Naukati Bay"},"id":"0252845"},{"arcs":[[419]],"type":"Polygon","properties":{"geoid":"0270760","name":"Skagway"},"id":"0270760"},{"arcs":[[420,-230,421,422]],"type":"Polygon","properties":{"geoid":"0284200","name":"Whitestone Logging Camp"},"id":"0284200"},{"arcs":[[423,-300,424,-233,425,-242,426,427]],"type":"Polygon","properties":{"geoid":"0216750","name":"College"},"id":"0216750"},{"arcs":[[428,-243,429,-114]],"type":"Polygon","properties":{"geoid":"0279830","name":"Two Rivers"},"id":"0279830"},{"arcs":[[430,431,432,433]],"type":"Polygon","properties":{"geoid":"0268560","name":"Seward"},"id":"0268560"},{"arcs":[[434]],"type":"Polygon","properties":{"geoid":"0226100","name":"Fort Greely"},"id":"0226100"},{"arcs":[[435]],"type":"Polygon","properties":{"geoid":"0213860","name":"Chiniak"},"id":"0213860"},{"arcs":[[436]],"type":"Polygon","properties":{"geoid":"0234790","name":"Igiugig"},"id":"0234790"},{"arcs":[[437]],"type":"Polygon","properties":{"geoid":"0241280","name":"Kokhanok"},"id":"0241280"},{"arcs":[[438]],"type":"Polygon","properties":{"geoid":"0204430","name":"Atmautluak"},"id":"0204430"},{"arcs":[[439]],"type":"Polygon","properties":{"geoid":"0217850","name":"Crooked Creek"},"id":"0217850"},{"arcs":[[440]],"type":"Polygon","properties":{"geoid":"0241610","name":"Kongiganak"},"id":"0241610"},{"arcs":[[441]],"type":"Polygon","properties":{"geoid":"0271090","name":"Sleetmute"},"id":"0271090"},{"arcs":[[442]],"type":"Polygon","properties":{"geoid":"0273400","name":"Stony River"},"id":"0273400"},{"arcs":[[443,444]],"type":"Polygon","properties":{"geoid":"0217670","name":"Covenant Life"},"id":"0217670"},{"arcs":[[445]],"type":"Polygon","properties":{"geoid":"0223900","name":"Excursion Inlet"},"id":"0223900"},{"arcs":[[446,447,448,449]],"type":"Polygon","properties":{"geoid":"0231050","name":"Haines"},"id":"0231050"},{"arcs":[[450,-449]],"type":"Polygon","properties":{"geoid":"0251455","name":"Mud Bay"},"id":"0251455"},{"arcs":[[451]],"type":"Polygon","properties":{"geoid":"0241500","name":"Koliganek"},"id":"0241500"},{"arcs":[[452,453]],"type":"Polygon","properties":{"geoid":"0279780","name":"Twin Hills"},"id":"0279780"},{"arcs":[[454]],"type":"Polygon","properties":{"geoid":"0260200","name":"Perryville"},"id":"0260200"},{"arcs":[[455,456,457,458,459,460,461,-258,462]],"type":"Polygon","properties":{"geoid":"0209657","name":"Buffalo Soapstone"},"id":"0209657"},{"arcs":[[463,464,-431,465]],"type":"Polygon","properties":{"geoid":"0205585","name":"Bear Creek"},"id":"0205585"},{"arcs":[[466,467]],"type":"Polygon","properties":{"geoid":"0226910","name":"Fox River"},"id":"0226910"},{"arcs":[[468,-467,469,-41,-319]],"type":"Polygon","properties":{"geoid":"0227090","name":"Fritz Creek"},"id":"0227090"},{"arcs":[[470,471,472]],"type":"Polygon","properties":{"geoid":"0227145","name":"Funny River"},"id":"0227145"},{"arcs":[[-272,473]],"type":"Polygon","properties":{"geoid":"0233580","name":"Hope"},"id":"0233580"},{"arcs":[[-210,-102,474,475,476,-307,477]],"type":"Polygon","properties":{"geoid":"0237250","name":"Kalifornsky"},"id":"0237250"},{"arcs":[[478,479,-186]],"type":"Polygon","properties":{"geoid":"0254085","name":"Nikolaevsk"},"id":"0254085"},{"arcs":[[480,481,-464,482]],"type":"Polygon","properties":{"geoid":"0264240","name":"Primrose"},"id":"0264240"},{"arcs":[[-332,483]],"type":"Polygon","properties":{"geoid":"0268370","name":"Seldovia Village"},"id":"0268370"},{"arcs":[[484,-471,485,-99]],"type":"Polygon","properties":{"geoid":"0273070","name":"Sterling"},"id":"0273070"},{"arcs":[[487]],"type":"Polygon","properties":{"geoid":"0245020","name":"Loring"},"id":"0245020"},{"arcs":[[-310,-93,488]],"type":"Polygon","properties":{"geoid":"0215320","name":"Clam Gulch"},"id":"0215320"},{"arcs":[[489,-237,490,-235,-116,491,-130,492,-256,493,-239]],"type":"Polygon","properties":{"geoid":"0205000","name":"Badger"},"id":"0205000"},{"arcs":[[-427,-241,494,495]],"type":"Polygon","properties":{"geoid":"0272230","name":"South Van Horn"},"id":"0272230"},{"arcs":[[-279,496]],"type":"Polygon","properties":{"geoid":"0261825","name":"Point Possession"},"id":"0261825"},{"arcs":[[497]],"type":"Polygon","properties":{"geoid":"0264980","name":"Red Dog Mine"},"id":"0264980"},{"arcs":[[498,499]],"type":"Polygon","properties":{"geoid":"0206245","name":"Beluga"},"id":"0206245"},{"arcs":[[-158,500]],"type":"Polygon","properties":{"geoid":"0278350","name":"Tonsina"},"id":"0278350"},{"arcs":[[-293,501,-291,502]],"type":"Polygon","properties":{"geoid":"0263870","name":"Port Protection"},"id":"0263870"},{"arcs":[[503]],"type":"Polygon","properties":{"geoid":"0220716","name":"Eareckson Station"},"id":"0220716"},{"arcs":[[504]],"type":"Polygon","properties":{"geoid":"0242820","name":"Lake Minchumina"},"id":"0242820"},{"arcs":[[-398,505,-396,506]],"type":"Polygon","properties":{"geoid":"0209710","name":"Butte"},"id":"0209710"},{"arcs":[[507]],"type":"Polygon","properties":{"geoid":"0213450","name":"Chicken"},"id":"0213450"},{"arcs":[[508]],"type":"Polygon","properties":{"geoid":"0246780","name":"Manley Hot Springs"},"id":"0246780"},{"arcs":[[509,-112,510,-298]],"type":"Polygon","properties":{"geoid":"0226870","name":"Fox"},"id":"0226870"},{"arcs":[[511]],"type":"Polygon","properties":{"geoid":"0201390","name":"Alcan Border"},"id":"0201390"},{"arcs":[[512]],"type":"Polygon","properties":{"geoid":"0207620","name":"Birch Creek"},"id":"0207620"},{"arcs":[[-27,513]],"type":"Polygon","properties":{"geoid":"0223790","name":"Evansville"},"id":"0223790"},{"arcs":[[514]],"type":"Polygon","properties":{"geoid":"0285610","name":"Wiseman"},"id":"0285610"},{"arcs":[[-20,515]],"type":"Polygon","properties":{"geoid":"0275050","name":"Tanacross"},"id":"0275050"},{"arcs":[[-287,516,517,518]],"type":"Polygon","properties":{"geoid":"0266550","name":"Salcha"},"id":"0266550"},{"arcs":[[519]],"type":"Polygon","properties":{"geoid":"0272190","name":"South Naknek"},"id":"0272190"},{"arcs":[[520]],"type":"Polygon","properties":{"geoid":"0235890","name":"Ivanof Bay"},"id":"0235890"},{"arcs":[[-79,521,-413,-266,522]],"type":"Polygon","properties":{"geoid":"0275480","name":"Tazlina"},"id":"0275480"},{"arcs":[[523]],"type":"Polygon","properties":{"geoid":"0273290","name":"Stevens Village"},"id":"0273290"},{"arcs":[[-423,524]],"type":"Polygon","properties":{"geoid":"0227700","name":"Game Creek"},"id":"0227700"},{"arcs":[[-299,-511,-118,-234,-425]],"type":"Polygon","properties":{"geoid":"0224980","name":"Farmers Loop"},"id":"0224980"},{"arcs":[[-164,525,-463,-257,-330,-403]],"type":"Polygon","properties":{"geoid":"0225550","name":"Fishhook"},"id":"0225550"},{"arcs":[[526,-284]],"type":"Polygon","properties":{"geoid":"0241210","name":"Kodiak Station"},"id":"0241210"},{"arcs":[[527]],"type":"Polygon","properties":{"geoid":"0204670","name":"Attu Station"},"id":"0204670"},{"arcs":[[528]],"type":"Polygon","properties":{"geoid":"0219060","name":"Diomede"},"id":"0219060"},{"arcs":[[529]],"type":"Polygon","properties":{"geoid":"0209600","name":"Buckland"},"id":"0209600"},{"arcs":[[530]],"type":"Polygon","properties":{"geoid":"0268230","name":"Selawik"},"id":"0268230"},{"arcs":[[531]],"type":"Polygon","properties":{"geoid":"0277140","name":"Thorne Bay"},"id":"0277140"},{"arcs":[[532]],"type":"Polygon","properties":{"geoid":"0261630","name":"Point Hope"},"id":"0261630"},{"arcs":[[-290,533]],"type":"Polygon","properties":{"geoid":"0242160","name":"Kupreanof"},"id":"0242160"},{"arcs":[[534]],"type":"Polygon","properties":{"geoid":"0230060","name":"Grayling"},"id":"0230060"},{"arcs":[[535]],"type":"Polygon","properties":{"geoid":"0256350","name":"Nulato"},"id":"0256350"},{"arcs":[[536]],"type":"Polygon","properties":{"geoid":"0221150","name":"Egegik"},"id":"0221150"},{"arcs":[[537,-312,-404,-331,-296,-394,538,-314]],"type":"Polygon","properties":{"geoid":"0283080","name":"Wasilla"},"id":"0283080"},{"arcs":[[[539]],[[540]]],"type":"MultiPolygon","properties":{"geoid":"0201090","name":"Akutan"},"id":"0201090"},{"arcs":[[541]],"type":"Polygon","properties":{"geoid":"0218950","name":"Dillingham"},"id":"0218950"},{"arcs":[[542]],"type":"Polygon","properties":{"geoid":"0200870","name":"Akiak"},"id":"0200870"},{"arcs":[[-217,543]],"type":"Polygon","properties":{"geoid":"0272960","name":"Stebbins"},"id":"0272960"},{"arcs":[[544]],"type":"Polygon","properties":{"geoid":"0255140","name":"Noorvik"},"id":"0255140"},{"arcs":[[545]],"type":"Polygon","properties":{"geoid":"0204210","name":"Atka"},"id":"0204210"},{"arcs":[[546]],"type":"Polygon","properties":{"geoid":"0282750","name":"Wainwright"},"id":"0282750"},{"arcs":[[[547]],[[548]]],"type":"MultiPolygon","properties":{"geoid":"0260640","name":"Pilot Point"},"id":"0260640"},{"arcs":[[549]],"type":"Polygon","properties":{"geoid":"0236770","name":"Kake"},"id":"0236770"},{"arcs":[[550]],"type":"Polygon","properties":{"geoid":"0212680","name":"Chefornak"},"id":"0212680"},{"arcs":[[-518,551]],"type":"Polygon","properties":{"geoid":"0231765","name":"Harding-Birch Lakes"},"id":"0231765"},{"arcs":[[552,-72,-325,553,554]],"type":"Polygon","properties":{"geoid":"0206850","name":"Big Delta"},"id":"0206850"},{"arcs":[[[555]],[[556]],[[557]]],"type":"MultiPolygon","properties":{"geoid":"0224660","name":"False Pass"},"id":"0224660"},{"arcs":[[558]],"type":"Polygon","properties":{"geoid":"0237540","name":"Karluk"},"id":"0237540"},{"arcs":[[559]],"type":"Polygon","properties":{"geoid":"0221810","name":"Ekwok"},"id":"0221810"},{"arcs":[[560,-457,561,-389,562,-387,563,-461,564,-459]],"type":"Polygon","properties":{"geoid":"0274525","name":"Sutton-Alpine"},"id":"0274525"},{"arcs":[[565]],"type":"Polygon","properties":{"geoid":"0216630","name":"Coldfoot"},"id":"0216630"},{"arcs":[[566]],"type":"Polygon","properties":{"geoid":"0231270","name":"Halibut Cove"},"id":"0231270"},{"arcs":[[-301,-424,567,568]],"type":"Polygon","properties":{"geoid":"0223460","name":"Ester"},"id":"0223460"},{"arcs":[[-101,-487,-486,-473,569,-475]],"type":"Polygon","properties":{"geoid":"0271640","name":"Soldotna"},"id":"0271640"},{"arcs":[[570]],"type":"Polygon","properties":{"geoid":"0203880","name":"Anvik"},"id":"0203880"},{"arcs":[[-447,571]],"type":"Polygon","properties":{"geoid":"0245700","name":"Lutak"},"id":"0245700"},{"arcs":[[572]],"type":"Polygon","properties":{"geoid":"0244030","name":"Lime Village"},"id":"0244030"},{"arcs":[[-433,573]],"type":"Polygon","properties":{"geoid":"0245295","name":"Lowell Point"},"id":"0245295"},{"arcs":[[574]],"type":"Polygon","properties":{"geoid":"0256600","name":"Nunam Iqua"},"id":"0256600"},{"arcs":[[575]],"type":"Polygon","properties":{"geoid":"0268890","name":"Shaktoolik"},"id":"0268890"},{"arcs":[[576]],"type":"Polygon","properties":{"geoid":"0211800","name":"Chalkyitsik"},"id":"0211800"},{"arcs":[[-122,577]],"type":"Polygon","properties":{"geoid":"0266140","name":"St. Mary's"},"id":"0266140"},{"arcs":[[-555,578]],"type":"Polygon","properties":{"geoid":"0284120","name":"Whitestone"},"id":"0284120"},{"arcs":[[-315,-539,-393,579,-179,-275]],"type":"Polygon","properties":{"geoid":"0240645","name":"Knik-Fairview"},"id":"0240645"},{"arcs":[[580]],"type":"Polygon","properties":{"geoid":"0276590","name":"Tetlin"},"id":"0276590"},{"arcs":[[-172,581]],"type":"Polygon","properties":{"geoid":"0235120","name":"Iliamna"},"id":"0235120"},{"arcs":[[-444,582]],"type":"Polygon","properties":{"geoid":"0250800","name":"Mosquito Lake"},"id":"0250800"},{"arcs":[[583]],"type":"Polygon","properties":{"geoid":"0217190","name":"Cooper Landing"},"id":"0217190"},{"arcs":[[-96,584,-479,-185,585]],"type":"Polygon","properties":{"geoid":"0231710","name":"Happy Valley"},"id":"0231710"},{"arcs":[[-477,586,-308]],"type":"Polygon","properties":{"geoid":"0238090","name":"Kasilof"},"id":"0238090"},{"arcs":[[587,588]],"type":"Polygon","properties":{"geoid":"0250190","name":"Moose Pass"},"id":"0250190"},{"arcs":[[589,590]],"type":"Polygon","properties":{"geoid":"0263280","name":"Port Graham"},"id":"0263280"},{"arcs":[[-499,591]],"type":"Polygon","properties":{"geoid":"0279890","name":"Tyonek"},"id":"0279890"},{"arcs":[[592]],"type":"Polygon","properties":{"geoid":"0259540","name":"Pedro Bay"},"id":"0259540"},{"arcs":[[593]],"type":"Polygon","properties":{"geoid":"0229180","name":"Golovin"},"id":"0229180"},{"arcs":[[-260,594]],"type":"Polygon","properties":{"geoid":"0258660","name":"Palmer"},"id":"0258660"},{"arcs":[[595]],"type":"Polygon","properties":{"geoid":"0238970","name":"Ketchikan"},"id":"0238970"},{"arcs":[[596]],"type":"Polygon","properties":{"geoid":"0232550","name":"Hobart Bay"},"id":"0232550"},{"arcs":[[597]],"type":"Polygon","properties":{"geoid":"0220970","name":"Edna Bay"},"id":"0220970"},{"arcs":[[598]],"type":"Polygon","properties":{"geoid":"0265800","name":"St. George"},"id":"0265800"},{"arcs":[[599]],"type":"Polygon","properties":{"geoid":"0252390","name":"Napakiak"},"id":"0252390"},{"arcs":[[-454,600]],"type":"Polygon","properties":{"geoid":"0277690","name":"Togiak"},"id":"0277690"},{"arcs":[[601]],"type":"Polygon","properties":{"geoid":"0239410","name":"King Cove"},"id":"0239410"},{"arcs":[[-588,602,-481,603]],"type":"Polygon","properties":{"geoid":"0217960","name":"Crown Point"},"id":"0217960"},{"arcs":[[604]],"type":"Polygon","properties":{"geoid":"0263170","name":"Port Clarence"},"id":"0263170"},{"arcs":[[605]],"type":"Polygon","properties":{"geoid":"0254700","name":"Noatak"},"id":"0254700"},{"arcs":[[-568,-428,-496,606]],"type":"Polygon","properties":{"geoid":"0212920","name":"Chena Ridge"},"id":"0212920"},{"arcs":[[607]],"type":"Polygon","properties":{"geoid":"0213780","name":"Chignik Lake"},"id":"0213780"},{"arcs":[[-250,608]],"type":"Polygon","properties":{"geoid":"0201860","name":"Allakaket"},"id":"0201860"},{"arcs":[[609]],"type":"Polygon","properties":{"geoid":"0237430","name":"Kaltag"},"id":"0237430"},{"arcs":[[610]],"type":"Polygon","properties":{"geoid":"0258550","name":"Ouzinkie"},"id":"0258550"},{"arcs":[[611]],"type":"Polygon","properties":{"geoid":"0203550","name":"Aniak"},"id":"0203550"},{"arcs":[[-335,612]],"type":"Polygon","properties":{"geoid":"0249200","name":"Mill Bay"},"id":"0249200"},{"arcs":[[-184,613]],"type":"Polygon","properties":{"geoid":"0252060","name":"Naknek"},"id":"0252060"},{"arcs":[[-201,614]],"type":"Polygon","properties":{"geoid":"0210150","name":"Cantwell"},"id":"0210150"},{"arcs":[[-591,615]],"type":"Polygon","properties":{"geoid":"0252210","name":"Nanwalek"},"id":"0252210"},{"arcs":[[-228,616]],"type":"Polygon","properties":{"geoid":"0213670","name":"Chignik Lagoon"},"id":"0213670"}]}}}