{"type":"Topology","arcs":[[[84169,27198],[1566,77],[-111,-1296],[-1212,87],[81,924],[-324,208]],[[22042,8450],[624,-390],[911,324],[550,-1319],[-654,-239],[268,-516],[-963,33],[-736,2107]],[[72233,45729],[748,-93]],[[72981,45636],[1104,-63],[121,770],[-260,572]],[[73946,46915],[904,248],[980,926],[-507,478],[160,759],[-119,689],[1482,209],[631,661],[1093,-73],[513,152],[-292,-1552],[-662,213],[-510,-523],[575,-523],[-92,-695],[390,-673],[1701,-403],[811,100],[908,-424],[-231,-953],[-876,-94],[-471,390],[-484,-390]],[[79850,45437],[-758,-471],[-106,-423],[-3113,201],[-2427,-857]],[[73446,43887],[-382,339]],[[73064,44226],[-761,394],[163,849],[-233,260]],[[68870,13220],[543,-54],[-33,-514],[-442,-30],[-68,598]],[[94179,10611],[597,-34],[-56,-813],[-607,19],[66,828]],[[10856,55376],[979,-99],[246,-539],[-996,358],[-229,280]],[[76290,23577],[664,19],[-66,-411],[-626,37],[28,355]],[[29568,26554],[394,268],[347,-4],[-119,-429],[-622,165]],[[72590,35188],[617,546],[921,153],[-99,-1253],[-980,6],[-459,548]],[[31608,63456],[64,805],[385,159],[-79,725],[673,811],[595,-45],[56,625],[892,-53],[879,757],[202,-1176],[781,-1055],[754,328],[464,-449],[621,-36],[-30,-553],[569,-710],[280,-994],[-1433,832],[-506,-212],[-1141,-52],[77,-973],[1111,-46],[202,-408],[-578,-678],[6,-713],[1740,426],[470,-528],[381,-957],[-833,-20],[-29,-468],[-741,33],[-2067,2451],[-3031,172],[275,472],[-119,743],[-939,60],[49,727]],[[90033,11622],[32,595],[2091,-80],[-121,-1931],[-863,42],[43,802],[-1208,82],[26,490]],[[44402,47602],[67,-193]],[[44469,47409],[-171,-447],[-1331,69],[41,651],[1394,-80]],[[48957,84016],[40,-456]],[[48997,83560],[-542,354],[-78,409],[587,87],[-7,-394]],[[58952,71528],[445,240],[-53,-461],[-392,221]],[[56596,862],[54,733],[284,-26],[-15,-517],[-316,-246],[-7,56]],[[55892,14947],[1115,-71],[-15,-389],[-1056,195],[-44,265]],[[76064,18986],[284,858],[593,-28],[-31,-1150],[-666,-248],[-180,568]],[[22558,68510],[649,224],[-165,-727],[-484,503]],[[77128,54584],[629,223],[-133,-648],[-496,425]],[[75369,23389],[62,233],[187,-334],[-249,101]],[[29625,71006],[836,-12],[-231,-575],[-605,587]],[[70483,26908],[290,417],[287,-452],[-577,35]],[[42984,9046],[778,-101]],[[43762,8945],[-79,-598],[-909,52],[210,647]],[[99144,21642],[445,-210],[-25,-392],[-352,10],[-68,592]],[[23713,39598],[488,74],[352,-786],[636,620],[737,24],[503,-901],[815,-1055],[-2627,-145],[-88,195]],[[24529,37624],[-194,789],[-622,1185]],[[88697,9758],[912,309],[369,-1419],[-1392,68],[111,1042]],[[98332,12711],[536,111],[24,-688],[-598,96],[38,481]],[[82799,2422],[406,196],[540,-446],[442,-848],[-1061,65],[-327,1033]],[[59638,59689],[46,627],[625,-25],[-35,-1181],[-596,39],[-40,540]],[[42174,67192],[483,-432],[133,-542],[-594,72],[-22,902]],[[55142,39941],[-276,-350]],[[54866,39591],[-100,19]],[[54766,39610],[376,331]],[[54534,40478],[51,845]],[[54585,41323],[25,465]],[[54610,41788],[258,3548]],[[54868,45336],[821,-50]],[[55689,45286],[5524,-329],[-50,-714]],[[61163,44243],[-99,-1532],[635,425],[613,-238],[-34,-510],[1212,-111]],[[63490,42277],[-629,-206],[-36,-647],[-924,58],[-103,-1537],[-889,542],[-90,-1227],[-4897,277]],[[55922,39537],[-780,404]],[[55142,39941],[-608,530]],[[54534,40471],[0,7]],[[7786,37981],[-23,760],[523,696],[1006,-695],[-331,-607],[-697,-612],[-478,458]],[[27291,30496],[964,524],[766,-440],[-450,-700],[-1062,80],[-218,536]],[[13055,37440],[835,222],[728,-609],[-1339,-1012],[-224,1399]],[[50290,11535],[850,-9],[854,822],[-110,-1688],[-1656,160],[62,715]],[[0,21690],[514,100],[41,-666],[-533,25],[-22,541]],[[64528,38693],[784,132],[766,-430],[806,-1739],[-1847,86],[88,1670],[-597,281]],[[92301,628],[863,-286],[-900,-342],[-245,283],[282,345]],[[98401,22930],[-1070,1660],[322,278],[1244,-387],[-77,-1239],[-419,-312]],[[30540,53630],[752,-422]],[[31292,53208],[42,-131]],[[31334,53077],[152,94]],[[31486,53171],[-63,-383],[690,-647],[1947,-74]],[[34060,52067],[-10,-117]],[[34050,51950],[-12,-293]],[[34038,51657],[-59,-1902]],[[33979,49755],[0,-2]],[[33979,49753],[-55,-1138],[-1033,28]],[[32891,48643],[-34,-118]],[[32857,48525],[-205,-108]],[[32652,48417],[-70,-94]],[[32582,48323],[-86,-150]],[[32496,48173],[19,-321]],[[32515,47852],[5,-610],[-1118,34],[-813,212],[-203,-432],[-762,21]],[[29624,47077],[-31,-115]],[[29593,46962],[-149,-180]],[[29444,46782],[55,-237]],[[29499,46545],[-47,-246]],[[29452,46299],[-308,-34]],[[29144,46265],[-187,519],[-939,-143]],[[28018,46641],[-138,-58]],[[27880,46583],[-736,-62],[-72,633]],[[27072,47154],[-262,2379],[1655,260],[-239,2184],[-293,1440],[609,407],[132,-780],[1686,85],[180,501]],[[28793,45539],[214,31]],[[29007,45570],[266,46]],[[29273,45616],[251,89]],[[29524,45705],[388,241]],[[29912,45946],[22,555],[1247,184]],[[31181,46685],[322,-1032]],[[31503,45653],[509,-225],[697,117],[10,460]],[[32719,46005],[214,301]],[[32933,46306],[254,-404]],[[33187,45902],[-100,-703],[-1222,-191],[227,-535],[1025,112],[456,293]],[[33573,44878],[6,-395]],[[33579,44483],[-1105,-487]],[[32474,43996],[-389,-392],[99,-629]],[[32184,42975],[-157,-133]],[[32027,42842],[-1711,-83],[-389,-637],[-835,-219],[37,705],[-492,191],[-598,-570]],[[28039,42229],[2,-19]],[[28041,42210],[550,-506]],[[28591,41704],[-1154,-288],[-363,617],[-146,944],[-876,1202],[-26,319],[1123,565],[659,506],[985,-30]],[[26271,44155],[754,-775],[958,228],[-59,370],[-1653,177]],[[13448,57834],[770,-233],[-50,2174],[-679,460],[-3,489],[1209,60],[-145,1295],[1057,274],[71,-694],[1501,342],[136,-976],[-544,-34],[379,-827],[871,0],[300,-1264],[1257,-399],[674,0],[58,-1086],[-497,-351],[1732,-1342],[-1001,-105],[-860,990],[-1021,-216],[-119,535],[-1193,545],[-1380,-176],[-515,-569],[-1224,-40],[-609,215],[-504,720],[329,213]],[[60007,78199],[661,-26],[-254,-710],[-407,736]],[[40850,27301],[595,-315]],[[41445,26986],[606,146]],[[42051,27132],[17,-1]],[[42068,27131],[3,-349],[-1746,-338],[-209,776],[734,81]],[[21347,19901],[1446,831],[670,-688],[-667,-547],[-852,449],[-597,-45]],[[20828,18998],[608,232],[679,-382],[-290,-536],[-809,250],[-188,436]],[[50362,35217],[521,92],[-14,-324],[-507,232]],[[42205,72914],[1346,-14],[-274,-561],[-1106,68],[34,507]],[[72981,45636],[-748,93]],[[73064,44226],[-1284,81]],[[71780,44307],[487,1070],[-454,305]],[[71813,45682],[-93,81]],[[71720,45763],[14,382],[-1316,-85]],[[70418,46060],[-82,29]],[[70336,46089],[-464,669],[314,804],[620,475],[1202,-920],[1938,-202]],[[36289,49355],[386,-668],[777,97]],[[37452,48784],[17,198]],[[37469,48982],[14,777]],[[37483,49759],[409,199],[1716,34]],[[39608,49992],[432,-171],[-32,-1651],[-230,-904],[-1944,87]],[[37834,47353],[390,179],[-279,223]],[[37945,47755],[-21,58]],[[37924,47813],[-15,41]],[[37909,47854],[-872,-2]],[[37037,47852],[-111,3]],[[36926,47855],[-409,228]],[[36517,48083],[-46,245]],[[36471,48328],[187,4]],[[36658,48332],[-240,322]],[[36418,48654],[-129,701]],[[25536,61727],[533,315],[48,614],[940,-116],[71,-617],[-512,-126],[-572,-580],[-508,510]],[[49682,30143],[1,13]],[[49683,30156],[594,-107],[142,1433],[294,-227]],[[50713,31255],[-263,-343],[1707,-129]],[[52157,30783],[1664,-121]],[[53821,30662],[340,-23]],[[54161,30639],[112,-7]],[[54273,30632],[14,-1]],[[54287,30631],[352,-24]],[[54639,30607],[145,-9]],[[54784,30598],[-178,-564]],[[54606,30034],[-665,-493],[-698,18],[-558,-403],[-58,-660],[454,-448]],[[53081,28048],[-184,16]],[[52897,28064],[-1058,-326]],[[51839,27738],[-479,37]],[[51360,27775],[-610,57]],[[50750,27832],[-110,-318]],[[50640,27514],[-897,1192],[451,369],[64,709],[-576,359]],[[41470,19789],[179,-185]],[[41649,19604],[-460,26],[-257,-1119],[-301,-513],[976,-631],[-873,-262],[-617,851],[444,218],[12,868],[-1532,148],[66,845],[540,-21],[11,622],[958,307],[-21,480],[-977,59],[233,454],[830,-518],[49,-1095],[639,13],[101,-547]],[[98296,26286],[1135,-20],[-88,1168],[449,-406],[208,-948],[-1607,93],[-97,113]],[[8762,21098],[623,260],[-37,-608],[-586,348]],[[40552,30995],[50,544]],[[40602,31539],[731,188],[1115,-251],[-36,463]],[[42412,31939],[-60,1119],[2007,-114],[-26,-382],[1219,-450]],[[45552,32112],[-586,63]],[[44966,32175],[-685,-524]],[[44281,31651],[-22,-345],[1417,-56]],[[45676,31250],[-16,-209]],[[45660,31041],[-313,-39]],[[45347,31002],[13,-118]],[[45360,30884],[3,-10]],[[45363,30874],[-14,-183]],[[45349,30691],[-1,-24]],[[45348,30667],[-50,-377]],[[45298,30290],[-114,-1]],[[45184,30289],[-413,-151]],[[44771,30138],[-250,-694],[-529,73]],[[43992,29517],[-264,42]],[[43728,29559],[-250,-175]],[[43478,29384],[-612,-277]],[[42866,29107],[146,2234],[-1197,48],[-51,-747],[-750,-207]],[[41014,30435],[-378,24]],[[40636,30459],[-84,536]],[[43817,30176],[374,341]],[[44191,30517],[-374,-341]],[[43146,39159],[554,853],[876,71],[267,-425],[-162,-2231],[-1107,68],[2,1569],[-430,95]],[[48983,93812],[2496,435],[-90,-1850],[-1245,-780],[-1206,97],[45,2098]],[[50467,77005],[359,-138],[-270,-197],[-89,335]],[[59376,38170],[1199,154],[-228,-811],[-1016,59],[45,598]],[[83463,32809],[391,1],[-80,-277],[-276,15],[-35,261]],[[75280,36074],[2140,-133],[594,-456]],[[78014,35485],[-37,-1032],[-677,31],[-3,560],[-1085,81],[-932,949]],[[12332,42598],[926,-352],[445,-565],[-558,-198],[-813,1115]],[[61163,44243],[3046,-142],[-78,-1279],[-641,-545]],[[8938,32292],[1340,1082],[-478,480],[784,649],[22,581],[1235,-302],[400,468],[609,-501],[1154,-382],[385,-881],[-874,-715],[-1376,-111],[-775,-622],[456,-286],[-501,-543],[-950,323],[-423,662],[-1000,-351],[-8,449]],[[53610,7702],[1004,-76],[-248,-310],[-803,-98],[47,484]],[[67239,30152],[531,-364],[359,-77],[793,-28],[185,30],[106,114],[118,-107],[278,42],[-34,-488],[-631,-58],[-8,-99],[-238,10],[8,132],[185,-7],[144,158],[114,302],[-244,-39],[-885,35],[-798,181],[17,263]],[[24529,37624],[-171,-678],[-862,-306],[-448,628],[-1231,-637],[-359,142],[-1927,-670],[-528,894],[-2187,-123],[-834,411],[-70,813],[1049,-486],[294,643],[1618,-108],[372,-629],[487,672],[716,-263],[-93,-834],[1244,78],[881,303],[584,697],[-624,872],[1273,555]],[[85584,47266],[-428,-540],[-1292,-313],[-348,977],[2068,-124]],[[58077,51845],[462,1061],[1988,1143],[384,-425],[859,-54],[-315,-1019],[-1415,-95],[-671,-393],[-1292,-218]],[[64536,48544],[512,41],[338,-549],[-703,-1],[-147,509]],[[79850,45437],[-77,-910],[573,-114],[-137,-650],[242,-575],[-820,-222],[73,831],[-1698,128],[-583,-1363],[-997,73],[-1068,-631],[-825,-116],[-920,-1063],[-319,598],[-1242,68],[543,732],[738,-175],[113,1839]],[[71398,38277],[197,923],[1069,-75],[252,334],[922,-342],[-61,-1340],[-259,-237],[-1135,511],[-985,226]],[[98383,11159],[724,206],[-53,-818],[-615,40],[-56,572]],[[84470,20128],[725,654],[499,-1003],[-1246,78],[22,271]],[[89972,20450],[1157,511],[793,-1613],[-678,-328],[-970,207],[-302,1223]],[[56263,99196],[5,653],[123,150],[-61,-79],[859,-243],[-3,-580],[619,-330],[-1779,-718],[-314,493],[-697,1],[22,-1013],[471,-666],[-1072,-90],[-5,-710],[-1281,-227],[-6,522],[-969,45],[-715,518],[1103,1805],[166,764],[440,-40],[469,-875],[792,-412],[947,993],[886,39]],[[51841,72052],[490,211],[-31,-417],[-459,206]],[[62978,28622],[222,110],[156,8],[170,-109],[213,223],[185,79],[9,142],[110,917],[643,370],[606,6],[192,712],[463,-23],[-81,-1029],[633,-228],[-60,-1009],[-1427,76],[-703,274],[-747,-508],[-89,-18],[-265,100],[-230,-93]],[[53248,36011],[-141,280]],[[53107,36291],[632,204]],[[53739,36495],[83,-967],[555,-670],[-72,-511],[1250,132],[-39,-548],[611,-42],[62,823],[631,233],[-66,-851],[-495,-257],[17,-515],[626,-43],[-15,-1688],[-931,57],[-272,-1111],[-900,61]],[[54639,30607],[-352,24]],[[54273,30632],[-112,7]],[[53821,30662],[-364,314],[-14,1107],[714,-36],[41,512],[-512,356],[-755,-286],[104,928],[-479,183]],[[52556,33740],[274,910],[777,203],[-50,932],[-309,226]],[[47710,59256],[600,-34]],[[48310,59222],[18,-1]],[[48328,59221],[-111,-137]],[[48217,59084],[-198,-1221],[-1402,233],[1093,1160]],[[34639,24759],[576,-343],[2935,193],[-739,352],[-100,650],[675,505],[958,109],[43,-806],[319,-1113],[-1248,-170],[-352,329],[-975,-219],[-204,-819],[-1155,-13],[25,947],[-500,15],[-258,383]],[[32226,56459],[1804,-101],[862,-2035],[1556,-5],[227,-302],[-98,-1003],[-532,42],[-1055,-624],[-877,260],[129,838],[-181,874],[-998,341],[166,652],[-766,84],[-237,979]],[[31334,53077],[152,94]],[[30540,53630],[769,553],[-17,-975]],[[31970,18447],[600,356],[337,-335],[-45,-679],[-459,-187],[-433,845]],[[30659,10108],[1824,215],[567,-1424],[-1676,-166],[-123,890],[-592,485]],[[74668,7739],[1387,-742],[350,414],[843,-755],[622,118],[1601,1037],[-119,-1592],[788,-43],[-21,-1086],[-1454,651],[-588,-671],[-236,813],[-733,600],[-1128,-136],[38,623],[-1398,141],[48,628]],[[48328,59221],[-18,1]],[[47710,59256],[-914,706],[-198,634],[-1919,60],[-852,-187],[46,677],[1822,-58],[1579,-248],[948,435],[1233,26],[119,-1527],[-558,-735],[-799,45]],[[42180,52184],[93,101]],[[42273,52285],[139,154]],[[42412,52439],[130,141]],[[42542,52580],[782,306],[1504,-237],[2476,-240],[36,-1088],[-222,-1709],[456,-724],[-608,-270]],[[46966,48618],[-82,-186]],[[46884,48432],[-855,16],[-176,236],[-957,449],[-905,186]],[[43991,49319],[-851,588]],[[43140,49907],[37,640],[-948,445],[-537,35]],[[41692,51027],[41,668],[447,489]],[[32267,33776],[447,-33]],[[32714,33743],[412,216]],[[33126,33959],[10,-1]],[[33136,33958],[142,6]],[[33278,33964],[209,171]],[[33487,34135],[1017,62]],[[34504,34197],[-717,-117],[-27,-646],[809,64],[188,559]],[[34757,34057],[1581,-291],[671,-399],[43,-591],[1018,-409],[-609,-1177],[1051,-401]],[[38512,30789],[277,-1278],[421,-466]],[[39210,29045],[-531,-427],[23,-625],[-1654,203],[-1035,517],[323,735],[-1166,-309],[-1286,-918],[-209,1067],[-773,77],[31,654],[1411,-328],[76,783],[-823,25],[-295,830],[-782,351],[-431,795],[178,1301]],[[36365,30369],[845,-693],[-182,-1085],[749,-113],[857,314],[-661,600],[-26,1183],[-1019,22],[-563,-228]],[[44771,30138],[413,151]],[[45298,30290],[50,377]],[[45349,30691],[14,183]],[[45360,30884],[-13,118]],[[45660,31041],[16,209]],[[44281,31651],[685,524]],[[45552,32112],[790,3],[57,766],[1625,-270]],[[48024,32611],[399,-405],[88,-1120],[-378,-590],[1550,-340]],[[49682,30143],[-1249,189],[-263,-801],[-710,25],[-82,-733],[-662,22],[-564,-450],[-189,1081],[-1063,-960],[-834,-33]],[[44066,28483],[38,8]],[[44104,28491],[-24,157]],[[44080,28648],[3,90]],[[44083,28738],[19,526]],[[44102,29264],[-110,253]],[[34504,34197],[-482,152]],[[34022,34349],[73,130]],[[34095,34479],[564,25]],[[34659,34504],[263,-144]],[[34922,34360],[-165,-303]],[[35560,38672],[-607,-164],[-172,345]],[[34781,38853],[779,-181]],[[45490,39857],[303,348],[2683,202],[71,-712],[790,-1713],[-1164,40],[4,-319],[-2182,141],[52,1852],[-557,161]],[[70418,46060],[1302,-297]],[[71813,45682],[-33,-1375]],[[71780,44307],[-4414,311],[169,2265],[1547,-311],[1254,-483]],[[69627,10128],[785,124],[635,-721],[-304,-265],[-472,553],[-644,309]],[[53208,88380],[524,318],[15,1547],[1233,-15],[-26,-2318],[-296,-451],[-578,40],[-872,879]],[[8792,67396],[1127,344],[1006,-1094],[-435,-373],[-585,34],[-1113,1089]],[[23432,53336],[510,537],[648,-506],[305,363],[949,-877],[-158,-474],[-1044,-306],[-674,38],[-536,1225]],[[27880,46583],[138,58]],[[29144,46265],[308,34]],[[29499,46545],[-55,237]],[[29593,46962],[31,115]],[[32515,47852],[-19,321]],[[32582,48323],[70,94]],[[32857,48525],[34,118]],[[33979,49753],[0,2]],[[34038,51657],[12,293]],[[34060,52067],[1677,-71],[292,-1249],[1119,98],[536,765],[-1453,-94],[-80,462],[2801,-107],[-227,734],[1456,836],[627,-13],[1734,-848]],[[42412,52439],[-139,-154]],[[42273,52285],[-93,-101]],[[41692,51027],[-220,-934],[682,-410],[986,224]],[[43991,49319],[517,-144]],[[44508,49175],[-18,-321]],[[44490,48854],[24,-393]],[[44514,48461],[545,-816],[805,66]],[[45864,47711],[700,-45],[320,766]],[[46966,48618],[1118,-317],[785,808],[34,676],[640,399],[1868,-265]],[[51411,49919],[-62,-960],[347,-573],[-1356,-429]],[[50340,47957],[29,-31]],[[50369,47926],[51,-967],[-181,-816]],[[50239,46143],[-261,-547]],[[49978,45596],[-2929,149],[-138,-385]],[[46911,45360],[-1,-10]],[[46910,45350],[-490,-465],[-376,-1502]],[[46044,43383],[-443,-167],[-82,-1156],[819,117]],[[46338,42177],[1369,-189],[631,-350],[-1,-412],[733,-172],[-26,-601],[801,78]],[[49845,40531],[152,56]],[[49997,40587],[1679,471]],[[51676,41058],[426,-422],[570,34],[170,924],[556,598],[619,-34],[593,-370]],[[54585,41323],[-51,-845]],[[54534,40471],[-1814,-238]],[[52720,40233],[-246,-33]],[[52474,40200],[106,-469],[-1846,86],[225,-1148],[-165,-691],[6,-1446],[432,-224]],[[51232,36308],[398,-42]],[[51630,36266],[1212,-42]],[[52842,36224],[406,-213]],[[52556,33740],[-199,-1087],[560,-368],[-45,-984],[-646,43],[-69,-561]],[[50713,31255],[-292,288],[78,1073],[-1567,-175],[-908,170]],[[42412,31939],[-798,-169],[-87,535]],[[41527,32305],[-957,-480],[32,-286]],[[40552,30995],[84,-536]],[[41014,30435],[-64,-1229],[190,-570],[678,-24],[139,1091],[752,-36],[157,-560]],[[43478,29384],[250,175]],[[44102,29264],[-19,-526]],[[44080,28648],[24,-157]],[[44066,28483],[737,-64],[-814,-965],[-214,476],[-1268,4],[-439,-803]],[[42051,27132],[-606,-146]],[[40850,27301],[-920,256],[202,-586],[-1354,79],[-959,-146],[-68,927],[2017,198],[85,750],[-643,266]],[[38512,30789],[-250,945],[448,622],[-626,411],[129,1214],[-723,-520],[-480,365],[-1362,165],[-726,369]],[[34659,34504],[-564,-25]],[[34022,34349],[-535,-214]],[[33278,33964],[-142,-6]],[[33126,33959],[-412,-216]],[[32267,33776],[-151,-696],[-1211,-171],[-109,-353],[-1094,164],[732,1555],[-423,460],[-35,907],[-639,-355],[-972,199],[1302,790],[-976,937],[383,2402],[404,431],[-614,582],[-273,1076]],[[28041,42210],[-2,19]],[[32027,42842],[157,133]],[[32474,43996],[782,-843],[441,482],[-118,848]],[[33573,44878],[-386,1024]],[[32933,46306],[-214,-301]],[[31503,45653],[-322,1032]],[[29912,45946],[-388,-241]],[[29273,45616],[-266,-46]],[[28793,45539],[-742,815],[-1268,-45],[-503,404],[792,441]],[[30583,37743],[159,-376]],[[30742,37367],[149,-262],[1058,-230]],[[31949,36875],[700,199],[40,1629],[-580,-22]],[[32109,38681],[-1707,-120],[181,-818]],[[33109,46431],[516,-865],[423,-3103],[389,-491]],[[34437,41972],[114,-69]],[[34551,41903],[892,-1126]],[[35443,40777],[656,-1062]],[[36099,39715],[2351,-412],[-270,905]],[[38180,40208],[-12,1]],[[38168,40209],[-1759,85],[-165,330]],[[36244,40624],[458,236],[197,3699],[-263,636],[-2137,818]],[[34499,46013],[-350,38]],[[34149,46051],[-1023,391]],[[33126,46442],[-17,-11]],[[33386,40673],[650,-545],[485,77],[-393,773],[-742,-305]],[[35560,38672],[-779,181]],[[36658,48332],[-187,-4]],[[36471,48328],[46,-245]],[[36926,47855],[111,-3]],[[37909,47854],[15,-41]],[[37945,47755],[-111,-402]],[[39608,49992],[-835,187],[-1398,-162],[108,-258]],[[37469,48982],[-17,-198]],[[36289,49355],[-1141,-62],[-37,-830],[1141,-129],[166,320]],[[35214,34728],[706,456],[1387,161],[159,-769],[696,-344],[614,849],[-96,853],[-1193,15],[-81,336],[1387,-150],[-451,1085],[-1147,-172],[-524,-453],[437,-894],[-1552,-326],[-342,-647]],[[41560,44624],[498,-26],[87,-719],[610,-5],[34,1407],[-1229,-657]],[[44469,47409],[-67,193]],[[47481,33943],[547,-455]],[[48028,33488],[102,-76]],[[48130,33412],[52,-31]],[[48182,33381],[187,-114]],[[48369,33267],[13,-8]],[[48382,33259],[326,-200]],[[48708,33059],[379,784]],[[49087,33843],[417,261]],[[49504,34104],[-79,1068],[-825,61],[23,-545],[-1089,-129]],[[47534,34559],[-53,-616]],[[51155,32928],[646,180],[37,563],[-632,42],[-51,-785]],[[50118,45596],[1745,-86]],[[51863,45510],[81,-4]],[[51944,45506],[151,-9]],[[52095,45497],[-440,15]],[[51655,45512],[-588,30]],[[51067,45542],[-35,2]],[[51032,45544],[-916,46]],[[50116,45590],[2,6]],[[50750,27832],[610,-57]],[[51839,27738],[739,-127],[319,453]],[[53081,28048],[747,-718],[-1665,112],[349,-754],[-125,-535],[-1541,-338],[-206,1699]],[[36205,40625],[39,-1]],[[38168,40209],[12,-1]],[[36099,39715],[106,910]],[[48957,84016],[1166,-114],[742,157],[45,678],[1307,193],[486,-217],[0,-572],[-1251,-95],[-43,-724],[895,-233],[0,-677],[-3338,869],[31,279]],[[42984,9046],[-334,887],[513,1754],[-790,49],[13,1393],[933,-587],[541,809],[1458,-109],[-137,-511],[-698,-735],[504,-325],[219,-627],[1304,495],[-68,-908],[-671,-639],[-2798,-90],[-91,-437],[957,-68],[-77,-452]],[[41470,19789],[871,1176],[529,-28],[734,613],[-73,-1612],[-717,-564],[-1165,230]],[[47481,33943],[53,616]],[[49504,34104],[-417,-261]],[[48708,33059],[-326,200]],[[48369,33267],[-187,114]],[[48130,33412],[-102,76]],[[85584,47266],[-78,1124],[1302,-41],[975,-441],[-20,-746],[-561,113],[-1287,-280],[-331,271]],[[68585,33204],[188,554],[594,401],[1194,-47],[-30,-448],[-617,-321],[-1329,-139]],[[28574,27154],[466,-99],[-98,-255],[-241,42],[-127,312]],[[87645,37339],[3,428],[881,-22],[326,-973],[-1119,-195],[-91,762]],[[90075,37624],[490,399],[172,-342],[-662,-57]],[[46910,45350],[1,10]],[[49978,45596],[138,-6]],[[51032,45544],[35,-2]],[[51655,45512],[45,-905],[-1774,265],[-208,-800],[-502,-137],[-496,-854],[439,-276],[1445,-94],[-72,-1112],[960,-80],[184,-461]],[[49997,40587],[-152,-56]],[[46338,42177],[-294,1206]],[[34149,46051],[350,-38]],[[36205,40625],[-762,152]],[[34551,41903],[-114,69]],[[33109,46431],[17,11]],[[93101,4402],[793,-39],[-60,-777],[-476,9],[-257,807]],[[58121,26881],[847,-49],[289,-886],[-963,294],[-173,641]],[[75017,59731],[180,382],[1169,-63],[-13,-655],[538,-1182],[-776,-5],[37,607],[-974,38],[-161,878]],[[59694,20716],[845,-50],[445,531],[157,1029],[509,-64],[913,-613],[286,88],[158,1126],[962,-54],[-93,-467],[467,-385],[771,25],[609,-384],[272,551],[1012,128],[-25,-843],[609,-197],[355,1012],[-261,838],[1214,-297],[105,-937],[-401,-1086],[360,-440],[1292,-71],[-371,-432],[-44,-677],[-1731,86],[-979,-239],[-12,-584],[-1264,-74],[16,-472],[-837,-42],[71,861],[-757,354],[-1131,-44],[83,1040],[-283,265],[-893,-117],[-604,520],[-530,-321],[-1285,-111],[-10,547]],[[20069,73995],[126,887],[743,107],[462,-527],[55,-624],[-479,-504],[-604,19],[-303,642]],[[73005,15050],[479,-22],[172,1087],[1827,-11],[-54,-800],[-544,-429],[-210,-729],[-995,-116],[-605,451],[-70,569]],[[17669,52172],[430,-106],[-373,-249],[-57,355]],[[21390,49777],[670,988],[473,-5],[575,-1510],[-182,-605],[-687,253],[-860,-243],[11,1122]],[[52474,40200],[246,33]],[[55922,39537],[457,-327],[103,-582],[-1204,350],[-615,-242],[-45,-658],[1036,22],[-32,-678],[-879,201],[-446,-261],[210,-655],[-768,-212]],[[53107,36291],[-265,-67]],[[51630,36266],[-398,42]],[[54766,39610],[100,-19]],[[44508,49175],[946,-304],[322,-365],[88,-795]],[[44514,48461],[-24,393]],[[76875,34021],[972,-588],[971,-34],[-5,-560],[-1636,17],[-302,1165]],[[32109,38681],[-160,-1806]],[[30742,37367],[-159,376]],[[25398,23325],[979,1028],[827,-1055],[215,-516],[-1263,0],[-84,553],[-674,-10]],[[88384,3718],[461,241],[294,-670],[-752,30],[-3,399]],[[45151,79458],[863,165],[-59,462],[1634,253],[-134,-686],[593,-839],[-2065,143],[-829,-124],[-3,626]],[[74556,36424],[67,927]],[[74623,37351],[510,32],[2916,-221],[-35,-1677]],[[75280,36074],[-724,350]],[[74556,36424],[-2805,-853],[212,814],[671,-31],[43,807],[753,-79],[1193,269]],[[50369,47926],[-29,31]],[[51411,49919],[1087,-161],[795,223],[33,564],[628,-17],[-16,-1151],[621,-602],[2422,-373],[76,-344],[-689,-1057],[-106,-1583],[-573,-132]],[[54868,45336],[-493,214],[-72,705],[494,503],[-271,462],[-1220,-266],[-721,-1459],[-490,2]],[[51944,45506],[-81,4]],[[50118,45596],[121,547]]],"transform":{"scale":[0.000015488820000000062,0.000013101481014810172],"translate":[-83.61733,39.457057999999996]},"objects":{"in":{"type":"GeometryCollection","geometries":[{"arcs":[[0]],"type":"Polygon","properties":{"geoid":"3972977","name":"Somerset"},"id":"3972977"},{"arcs":[[1]],"type":"Polygon","properties":{"geoid":"3954726","name":"New Holland"},"id":"3954726"},{"arcs":[[2,3,4,5,6,7]],"type":"Polygon","properties":{"geoid":"3954040","name":"Newark"},"id":"3954040"},{"arcs":[[8]],"type":"Polygon","properties":{"geoid":"3975252","name":"Sugar Grove"},"id":"3975252"},{"arcs":[[9]],"type":"Polygon","properties":{"geoid":"3934888","name":"Hemlock"},"id":"3934888"},{"arcs":[[10]],"type":"Polygon","properties":{"geoid":"3950218","name":"Milford Center"},"id":"3950218"},{"arcs":[[11]],"type":"Polygon","properties":{"geoid":"3969204","name":"Rushville"},"id":"3969204"},{"arcs":[[12]],"type":"Polygon","properties":{"geoid":"3958800","name":"Orient"},"id":"3958800"},{"arcs":[[13]],"type":"Polygon","properties":{"geoid":"3926110","name":"Fairfield Beach"},"id":"3926110"},{"arcs":[[14]],"type":"Polygon","properties":{"geoid":"3921434","name":"Delaware"},"id":"3921434"},{"arcs":[[15]],"type":"Polygon","properties":{"geoid":"3971962","name":"Shawnee"},"id":"3971962"},{"arcs":[[16,17]],"type":"Polygon","properties":{"geoid":"3950862","name":"Minerva Park"},"id":"3950862"},{"arcs":[[18,19]],"type":"Polygon","properties":{"geoid":"3924598","name":"Edison"},"id":"3924598"},{"arcs":[[20]],"type":"Polygon","properties":{"geoid":"3973950","name":"Sparta"},"id":"3973950"},{"arcs":[[21]],"type":"Polygon","properties":{"geoid":"3942084","name":"Laurelville"},"id":"3942084"},{"arcs":[[22]],"type":"Polygon","properties":{"geoid":"3901630","name":"Amanda"},"id":"3901630"},{"arcs":[[23]],"type":"Polygon","properties":{"geoid":"3908392","name":"Bremen"},"id":"3908392"},{"arcs":[[24]],"type":"Polygon","properties":{"geoid":"3946830","name":"Magnetic Springs"},"id":"3946830"},{"arcs":[[25]],"type":"Polygon","properties":{"geoid":"3969652","name":"St. Louisville"},"id":"3969652"},{"arcs":[[26]],"type":"Polygon","properties":{"geoid":"3984182","name":"West Rushville"},"id":"3984182"},{"arcs":[[27]],"type":"Polygon","properties":{"geoid":"3965298","name":"Radnor"},"id":"3965298"},{"arcs":[[28]],"type":"Polygon","properties":{"geoid":"3963716","name":"Pleasantville"},"id":"3963716"},{"arcs":[[29,30]],"type":"Polygon","properties":{"geoid":"3944636","name":"Logan Elm Village"},"id":"3944636"},{"arcs":[[31]],"type":"Polygon","properties":{"geoid":"3968448","name":"Rose Farm"},"id":"3968448"},{"arcs":[[32,33]],"type":"Polygon","properties":{"geoid":"3941363","name":"Lake Darby"},"id":"3941363"},{"arcs":[[34]],"type":"Polygon","properties":{"geoid":"3955552","name":"New Straitsville"},"id":"3955552"},{"arcs":[[35]],"type":"Polygon","properties":{"geoid":"3966222","name":"Rendville"},"id":"3966222"},{"arcs":[[36]],"type":"Polygon","properties":{"geoid":"3934594","name":"Haydenville"},"id":"3934594"},{"arcs":[[37]],"type":"Polygon","properties":{"geoid":"3934202","name":"Hartford (Croton)"},"id":"3934202"},{"arcs":[[38]],"type":"Polygon","properties":{"geoid":"3940124","name":"Kilbourne"},"id":"3940124"},{"arcs":[[[39,40,41]],[[42,43,44,45,46,47,48,49,50,51]]],"type":"MultiPolygon","properties":{"geoid":"3961112","name":"Pataskala"},"id":"3961112"},{"arcs":[[52]],"type":"Polygon","properties":{"geoid":"3914288","name":"Choctaw Lake"},"id":"3914288"},{"arcs":[[53]],"type":"Polygon","properties":{"geoid":"3920198","name":"Darbydale"},"id":"3920198"},{"arcs":[[54]],"type":"Polygon","properties":{"geoid":"3941146","name":"Lafayette"},"id":"3941146"},{"arcs":[[55]],"type":"Polygon","properties":{"geoid":"3974916","name":"Stoutsville"},"id":"3974916"},{"arcs":[[56]],"type":"Polygon","properties":{"geoid":"3973768","name":"South Solon"},"id":"3973768"},{"arcs":[[57]],"type":"Polygon","properties":{"geoid":"3940572","name":"Kirkersville"},"id":"3940572"},{"arcs":[[58]],"type":"Polygon","properties":{"geoid":"3909834","name":"Buchtel"},"id":"3909834"},{"arcs":[[59]],"type":"Polygon","properties":{"geoid":"3919456","name":"Crooksville"},"id":"3919456"},{"arcs":[[60,61,62,63,64,65,66,67,68,69,70,71,72,73,74,75,76,77,78,79,80,81,82,83]],"type":"Polygon","properties":{"geoid":"3922694","name":"Dublin"},"id":"3922694"},{"arcs":[[84,85,86,87,88,89,90,91,92,93,94,95,96,97,98,99,100,101],[102]],"type":"Polygon","properties":{"geoid":"3935476","name":"Hilliard"},"id":"3935476"},{"arcs":[[103]],"type":"Polygon","properties":{"geoid":"3948160","name":"Marysville"},"id":"3948160"},{"arcs":[[104]],"type":"Polygon","properties":{"geoid":"3914114","name":"Chesterville"},"id":"3914114"},{"arcs":[[105,106,107,108]],"type":"Polygon","properties":{"geoid":"3944310","name":"Lockbourne"},"id":"3944310"},{"arcs":[[[109]],[[110]]],"type":"MultiPolygon","properties":{"geoid":"3953046","name":"Mount Sterling"},"id":"3953046"},{"arcs":[[111]],"type":"Polygon","properties":{"geoid":"3908532","name":"Brice"},"id":"3908532"},{"arcs":[[112]],"type":"Polygon","properties":{"geoid":"3902582","name":"Ashley"},"id":"3902582"},{"arcs":[[-4,113,-8,114,115,116,117,118,119]],"type":"Polygon","properties":{"geoid":"3931402","name":"Granville"},"id":"3931402"},{"arcs":[[120,121,122,123,124,125,126,127,128,129,130,131,132,133,134]],"type":"Polygon","properties":{"geoid":"3986604","name":"Worthington"},"id":"3986604"},{"arcs":[[135]],"type":"Polygon","properties":{"geoid":"3958940","name":"Ostrander"},"id":"3958940"},{"arcs":[[136,137,138,139,140,141,142,143,144,145,146,147,148,149,150,151,152]],"type":"Polygon","properties":{"geoid":"3911332","name":"Canal Winchester"},"id":"3911332"},{"arcs":[[153,154]],"type":"Polygon","properties":{"geoid":"3973068","name":"South Bloomfield"},"id":"3973068"},{"arcs":[[155]],"type":"Polygon","properties":{"geoid":"3968560","name":"Roseville"},"id":"3968560"},{"arcs":[[156]],"type":"Polygon","properties":{"geoid":"3950008","name":"Midway"},"id":"3950008"},{"arcs":[[157,158,159,160,161,162,163,164,165,166,167,168,169,170,171,172,173,174,175,176,177,178]],"type":"Polygon","properties":{"geoid":"3957862","name":"Obetz"},"id":"3957862"},{"arcs":[[181]],"type":"Polygon","properties":{"geoid":"3906278","name":"Bexley"},"id":"3906278"},{"arcs":[[182]],"type":"Polygon","properties":{"geoid":"3937142","name":"Iberia"},"id":"3937142"},{"arcs":[[183]],"type":"Polygon","properties":{"geoid":"3929050","name":"Fulton"},"id":"3929050"},{"arcs":[[184]],"type":"Polygon","properties":{"geoid":"3925676","name":"Etna"},"id":"3925676"},{"arcs":[[185]],"type":"Polygon","properties":{"geoid":"3930436","name":"Glenford"},"id":"3930436"},{"arcs":[[186,187]],"type":"Polygon","properties":{"geoid":"3976666","name":"Thornport"},"id":"3976666"},{"arcs":[[188]],"type":"Polygon","properties":{"geoid":"3963758","name":"Plumwood"},"id":"3963758"},{"arcs":[[189,-48]],"type":"Polygon","properties":{"geoid":"3905013","name":"Beechwood Trails"},"id":"3905013"},{"arcs":[[190]],"type":"Polygon","properties":{"geoid":"3944674","name":"London"},"id":"3944674"},{"arcs":[[191]],"type":"Polygon","properties":{"geoid":"3976148","name":"Tarlton"},"id":"3976148"},{"arcs":[[192]],"type":"Polygon","properties":{"geoid":"3976764","name":"Thurston"},"id":"3976764"},{"arcs":[[-34,193]],"type":"Polygon","properties":{"geoid":"3983580","name":"West Jefferson"},"id":"3983580"},{"arcs":[[194]],"type":"Polygon","properties":{"geoid":"3947950","name":"Marne"},"id":"3947950"},{"arcs":[[195]],"type":"Polygon","properties":{"geoid":"3939340","name":"Johnstown"},"id":"3939340"},{"arcs":[[196]],"type":"Polygon","properties":{"geoid":"3901154","name":"Alexandria"},"id":"3901154"},{"arcs":[[-6,197]],"type":"Polygon","properties":{"geoid":"3934748","name":"Heath"},"id":"3934748"},{"arcs":[[198]],"type":"Polygon","properties":{"geoid":"3934790","name":"Hebron"},"id":"3934790"},{"arcs":[[199]],"type":"Polygon","properties":{"geoid":"3918770","name":"Corning"},"id":"3918770"},{"arcs":[[200]],"type":"Polygon","properties":{"geoid":"3939508","name":"Junction City"},"id":"3939508"},{"arcs":[[201]],"type":"Polygon","properties":{"geoid":"3954866","name":"New Lexington"},"id":"3954866"},{"arcs":[[202]],"type":"Polygon","properties":{"geoid":"3929162","name":"Galion"},"id":"3929162"},{"arcs":[[203]],"type":"Polygon","properties":{"geoid":"3947558","name":"Marengo"},"id":"3947558"},{"arcs":[[204]],"type":"Polygon","properties":{"geoid":"3903758","name":"Baltimore"},"id":"3903758"},{"arcs":[[205,206,207,-145,208,-143,209,-141,210,211]],"type":"Polygon","properties":{"geoid":"3962498","name":"Pickerington"},"id":"3962498"},{"arcs":[[212,213,214,215]],"type":"Polygon","properties":{"geoid":"3929148","name":"Galena"},"id":"3929148"},{"arcs":[[216]],"type":"Polygon","properties":{"geoid":"3918070","name":"Commercial Point"},"id":"3918070"},{"arcs":[[217]],"type":"Polygon","properties":{"geoid":"3964486","name":"Powell"},"id":"3964486"},{"arcs":[[-61,219]],"type":"Polygon","properties":{"geoid":"3971976","name":"Shawnee Hills"},"id":"3971976"},{"arcs":[[220]],"type":"Polygon","properties":{"geoid":"3920212","name":"Darbyville"},"id":"3920212"},{"arcs":[[221]],"type":"Polygon","properties":{"geoid":"3985414","name":"Williamsport"},"id":"3985414"},{"arcs":[[222]],"type":"Polygon","properties":{"geoid":"3944632","name":"Logan"},"id":"3944632"},{"arcs":[[-215,223,-213,224]],"type":"Polygon","properties":{"geoid":"3975602","name":"Sunbury"},"id":"3975602"},{"arcs":[[225,226,227,228,229,230,231,232,233]],"type":"Polygon","properties":{"geoid":"3983342","name":"Westerville"},"id":"3983342"},{"arcs":[[234,235,236,237,238,239,240,241,242,243],[244]],"type":"Polygon","properties":{"geoid":"3932592","name":"Grove City"},"id":"3932592"},{"arcs":[[245,-171,246,-169,247,-167,248,-165,249,-163,250,-161,251,252,-137,253,254,255,256,257,258,-173]],"type":"Polygon","properties":{"geoid":"3932606","name":"Groveport"},"id":"3932606"},{"arcs":[[259,260,261,262,263,-241]],"type":"Polygon","properties":{"geoid":"3979100","name":"Urbancrest"},"id":"3979100"},{"arcs":[[264,265]],"type":"Polygon","properties":{"geoid":"3979282","name":"Valleyview"},"id":"3979282"},{"arcs":[[266]],"type":"Polygon","properties":{"geoid":"3984742","name":"Whitehall"},"id":"3984742"},{"arcs":[[-119,267,-117,268,269]],"type":"Polygon","properties":{"geoid":"3931434","name":"Granville South"},"id":"3931434"},{"arcs":[[270]],"type":"Polygon","properties":{"geoid":"3967804","name":"Rockbridge"},"id":"3967804"},{"arcs":[[271]],"type":"Polygon","properties":{"geoid":"3911334","name":"Candlewood Lake"},"id":"3911334"},{"arcs":[[272]],"type":"Polygon","properties":{"geoid":"3965676","name":"Raymond"},"id":"3965676"},{"arcs":[[273]],"type":"Polygon","properties":{"geoid":"3954320","name":"New California"},"id":"3954320"},{"arcs":[[[-83,274,-81,275,-79,276,-77,277,-75,278,-73,279,-71,280,-69,281,-67,282,-65,283,-228,284,285,-234,286,-232,287,288,289,290,291,-230,292,293,294,295,296,297,298,299,300,301,302,303,304,-44,305,-52,306,307,308,309,310,311,-212,312,-139,313,-252,-160,314,315,-158,316,-178,317,-176,318,-174,-259,319,-257,320,-255,321,-108,322,-106,323,-243,324,-263,325,-261,326,-239,327,-237,328,-235,329,-101,330,-99,331,-97,332,-95,333,-93,334,-91,335,-89,336,-87,337,-85,338],[339,340,341,342],[343,344,345,346,347,348,349,350,351,352,353],[354],[-265,355],[-134,356,357,-131,358,-129,359,-127,360,-125,361,-123,362,-121,363],[364],[365],[366,-18],[-182],[-267],[367,368,369,370,371,372,373,374,375,376],[-112],[377]],[[378,379,380,381,382,383,384,385]]],"type":"MultiPolygon","properties":{"geoid":"3918000","name":"Columbus"},"id":"3918000"},{"arcs":[[-152,386,-150,387,-148,388]],"type":"Polygon","properties":{"geoid":"3944086","name":"Lithopolis"},"id":"3944086"},{"arcs":[[389,-350,390,-348,391]],"type":"Polygon","properties":{"geoid":"3931304","name":"Grandview Heights"},"id":"3931304"},{"arcs":[[392,-19]],"type":"Polygon","properties":{"geoid":"3952738","name":"Mount Gilead"},"id":"3952738"},{"arcs":[[-30,393]],"type":"Polygon","properties":{"geoid":"3915070","name":"Circleville"},"id":"3915070"},{"arcs":[[-154,394]],"type":"Polygon","properties":{"geoid":"3902680","name":"Ashville"},"id":"3902680"},{"arcs":[[395,-376,396,-374,397,-372,398,-370,399,-368]],"type":"Polygon","properties":{"geoid":"3906670","name":"Blacklick Estates"},"id":"3906670"},{"arcs":[[400]],"type":"Polygon","properties":{"geoid":"3933292","name":"Hanover"},"id":"3933292"},{"arcs":[[401]],"type":"Polygon","properties":{"geoid":"3950400","name":"Millersport"},"id":"3950400"},{"arcs":[[402]],"type":"Polygon","properties":{"geoid":"3933740","name":"Harrisburg"},"id":"3933740"},{"arcs":[[403]],"type":"Polygon","properties":{"geoid":"3909596","name":"Brownsville"},"id":"3909596"},{"arcs":[[404]],"type":"Polygon","properties":{"geoid":"3931458","name":"Gratiot"},"id":"3931458"},{"arcs":[[-300,405,-298,406,-385,407,-383,408,-304,409,-302,410]],"type":"Polygon","properties":{"geoid":"3929106","name":"Gahanna"},"id":"3929106"},{"arcs":[[-353,411,-351,-390,412,-346,413,-344,414]],"type":"Polygon","properties":{"geoid":"3979002","name":"Upper Arlington"},"id":"3979002"},{"arcs":[[415]],"type":"Polygon","properties":{"geoid":"3953410","name":"Murray City"},"id":"3953410"},{"arcs":[[416]],"type":"Polygon","properties":{"geoid":"3912252","name":"Carroll"},"id":"3912252"},{"arcs":[[417]],"type":"Polygon","properties":{"geoid":"3979114","name":"Utica"},"id":"3979114"},{"arcs":[[418]],"type":"Polygon","properties":{"geoid":"3941720","name":"Lancaster"},"id":"3941720"},{"arcs":[[419]],"type":"Polygon","properties":{"geoid":"3966936","name":"Richwood"},"id":"3966936"},{"arcs":[[-126,-361]],"type":"Polygon","properties":{"geoid":"3967440","name":"Riverlea"},"id":"3967440"},{"arcs":[[420]],"type":"Polygon","properties":{"geoid":"3935126","name":"Hide-A-Way Hills"},"id":"3935126"},{"arcs":[[421]],"type":"Polygon","properties":{"geoid":"3978834","name":"Unionville Center"},"id":"3978834"},{"arcs":[[422]],"type":"Polygon","properties":{"geoid":"3963030","name":"Plain City"},"id":"3963030"},{"arcs":[[423,-307,-51,-50,424,-207,425,-311,426,-309],[-42,427,-40]],"type":"Polygon","properties":{"geoid":"3966390","name":"Reynoldsburg"},"id":"3966390"},{"arcs":[[-289,428,-291,429]],"type":"Polygon","properties":{"geoid":"3936624","name":"Huber Ridge"},"id":"3936624"},{"arcs":[[430]],"type":"Polygon","properties":{"geoid":"3976680","name":"Thornville"},"id":"3976680"},{"arcs":[[431,-341,432,-343]],"type":"Polygon","properties":{"geoid":"3943792","name":"Lincoln Village"},"id":"3943792"},{"arcs":[[-413,-392,-347]],"type":"Polygon","properties":{"geoid":"3947474","name":"Marble Cliff"},"id":"3947474"},{"arcs":[[433]],"type":"Polygon","properties":{"geoid":"3921784","name":"Derby"},"id":"3921784"},{"arcs":[[434]],"type":"Polygon","properties":{"geoid":"3912056","name":"Carbon Hill"},"id":"3912056"},{"arcs":[[435]],"type":"Polygon","properties":{"geoid":"3912084","name":"Cardington"},"id":"3912084"},{"arcs":[[436,437,-187,438]],"type":"Polygon","properties":{"geoid":"3933362","name":"Harbor Hills"},"id":"3933362"},{"arcs":[[-437,439]],"type":"Polygon","properties":{"geoid":"3909890","name":"Buckeye Lake"},"id":"3909890"},{"arcs":[[440,-294,441,-46,442,-381,443,-379,444,-296]],"type":"Polygon","properties":{"geoid":"3953970","name":"New Albany"},"id":"3953970"}]}}}