{"type":"Topology","arcs":[[[98382,11029],[724,207],[-53,-821],[-616,41],[-55,573]],[[48948,84025],[40,-457]],[[48988,83568],[-733,555],[700,297],[-7,-395]],[[58944,71513],[445,240],[-53,-461],[-392,221]],[[90030,11493],[32,596],[2092,-81],[-121,-1934],[-863,42],[43,804],[-1209,82],[26,491]],[[50353,35132],[521,93],[-14,-325],[-507,232]],[[88694,9625],[913,309],[369,-1421],[-1393,68],[111,1044]],[[22568,68494],[545,283],[-112,-773],[-433,490]],[[8777,67373],[1126,345],[1007,-1096],[-435,-374],[-585,34],[-1113,1091]],[[87642,37259],[3,429],[881,-23],[326,-975],[-1119,-195],[-91,764]],[[70330,46025],[82,-29]],[[70412,45996],[1303,-298]],[[71715,45698],[92,-80]],[[71807,45618],[-33,-1378]],[[71774,44240],[-4414,312],[169,2269],[1547,-312],[1254,-484]],[[55884,14824],[1191,-121],[-31,-368],[-1116,224],[-44,265]],[[53601,7565],[1005,-76],[-248,-310],[-804,-98],[47,484]],[[59630,59652],[47,628],[625,-25],[-35,-1184],[-596,39],[-41,542]],[[72228,45665],[748,-94]],[[72976,45571],[1103,-62],[122,771],[-260,573]],[[73941,46853],[904,248],[980,928],[-507,479],[41,1451],[1483,210],[630,661],[1607,80],[-292,-1555],[-662,213],[-27,-1745],[390,-674],[1695,-403],[817,100],[910,-423],[-233,-956],[-876,-95],[-471,391],[-484,-391]],[[79846,45372],[-758,-472],[-28,-428],[-3192,206],[-2427,-859]],[[73441,43819],[-382,340]],[[73059,44159],[-761,394],[163,851],[-233,261]],[[56254,45353],[4,1]],[[56258,45354],[653,450]],[[56911,45804],[29,450]],[[56940,46254],[2031,-113],[-372,-1101]],[[58599,45040],[-2259,140]],[[56340,45180],[-86,173]],[[8744,20987],[625,245],[-14,-542],[-611,297]],[[30647,9976],[1824,216],[567,-1428],[-1676,-166],[-123,892],[-592,486]],[[32256,33689],[446,-33]],[[32702,33656],[413,216]],[[33115,33872],[32,-2]],[[33147,33870],[119,7]],[[33266,33877],[210,172]],[[33476,34049],[339,215]],[[33815,34264],[678,-153]],[[34493,34111],[-717,-117],[-28,-648],[810,65],[163,525]],[[34721,33936],[1587,-274],[690,-383],[43,-592],[1018,-410],[-505,-963],[948,-618]],[[38502,30696],[242,-1270],[456,-477]],[[39200,28949],[-550,-437],[42,-611],[-1655,198],[-1878,944],[-68,-852],[-1218,-67],[-209,1069],[-1956,203],[417,550],[2007,-162],[276,597],[-1280,46],[163,811],[-783,351],[-431,796],[179,1304]],[[36354,30275],[474,-167],[-21,-633],[1009,-470],[-54,-686],[861,377],[-661,601],[83,1383],[-1691,-405]],[[44392,47541],[67,-193]],[[44459,47348],[-171,-448],[-1338,69],[48,652],[1394,-80]],[[59999,78197],[662,-27],[-96,-526],[-566,553]],[[50458,77000],[359,-138],[-269,-197],[-90,335]],[[84165,27099],[1566,76],[-110,-1298],[-1212,88],[81,925],[-325,209]],[[31474,53121],[-152,-94]],[[31322,53027],[152,94]],[[31280,53158],[-752,423]],[[30528,53581],[738,546],[14,-969]],[[68769,13097],[663,-35],[-53,-542],[-467,-34],[-143,611]],[[28276,51552],[-370,1859],[622,434],[109,-788],[509,-117],[1202,139],[180,502]],[[31280,53158],[42,-131]],[[31474,53121],[-63,-384],[690,-648],[1948,-74]],[[34049,52015],[-11,-118]],[[34038,51897],[-11,-293]],[[34027,51604],[-113,-3068],[-1035,48]],[[32879,48584],[-24,-117]],[[32855,48467],[-214,-110]],[[32641,48357],[-70,-94]],[[32571,48263],[-87,-149]],[[32484,48114],[20,-322]],[[32504,47792],[5,-612],[-1119,35],[-813,212],[-203,-433],[-762,21]],[[29612,47015],[-32,-115]],[[29580,46900],[-149,-181]],[[29431,46719],[56,-237]],[[29487,46482],[-47,-246]],[[29440,46236],[-308,-34]],[[29132,46202],[-188,520],[-938,-144]],[[28006,46578],[-138,-57]],[[27868,46521],[-737,-63],[-71,634]],[[27060,47092],[-262,2384],[1655,260],[-177,1816]],[[29613,70990],[836,-12],[-231,-576],[-605,588]],[[25385,23218],[979,1030],[1042,-1574],[-1263,0],[-84,554],[-674,-10]],[[61156,44176],[3047,-142],[-79,-1282],[-641,-546]],[[63483,42206],[-1212,111],[34,511],[-613,239],[-635,-426],[99,1535]],[[7771,37902],[-23,761],[522,698],[1007,-697],[-332,-608],[-697,-613],[-477,459]],[[59368,38091],[1253,154],[-284,-788],[-1012,63],[43,571]],[[42974,8912],[778,-101]],[[43752,8811],[-79,-599],[-909,52],[210,648]],[[99143,21532],[445,-211],[-25,-393],[-353,10],[-67,594]],[[22029,8315],[624,-391],[911,325],[550,-1322],[-1349,-723],[-736,2111]],[[72585,35103],[616,548],[922,153],[-99,-1255],[-980,5],[-459,549]],[[90072,37545],[491,399],[172,-342],[-663,-57]],[[31959,18331],[599,357],[337,-337],[-45,-679],[-459,-188],[-432,847]],[[17656,52119],[435,-108],[-382,-254],[-53,362]],[[29556,26453],[394,269],[347,-4],[-119,-430],[-622,165]],[[31541,62697],[85,1089],[340,1332],[674,812],[594,-45],[57,626],[599,321],[810,-50],[1345,-1801],[754,329],[464,-450],[621,-36],[-30,-554],[569,-712],[280,-995],[-1433,833],[-506,-212],[-1141,-52],[77,-975],[1111,-46],[202,-408],[-578,-680],[6,-715],[837,-74],[696,734],[677,-762],[381,-958],[-346,-522],[-1146,65],[-2178,2456],[-3032,173],[302,858],[-798,44],[-293,375]],[[94177,10480],[598,-34],[-57,-815],[-607,19],[66,830]],[[98321,12470],[546,225],[24,-689],[-599,96],[29,368]],[[70356,26815],[412,411],[162,-530],[-574,119]],[[76286,23470],[663,20],[-66,-413],[-625,38],[28,355]],[[51827,72261],[495,-12],[-31,-418],[-471,-50],[7,480]],[[67232,30058],[532,-357],[359,-85],[793,-28],[185,30],[11,114],[213,-107],[278,42],[-35,-485],[-630,-62],[-7,-99],[-239,10],[6,98],[187,28],[144,157],[114,303],[-244,-39],[-885,36],[-798,181],[16,263]],[[48948,84025],[1166,-115],[742,158],[45,679],[1308,193],[485,-217],[1,-573],[-1251,-96],[-62,-722],[913,-236],[0,-678],[-3338,871],[31,279]],[[50632,27415],[109,319]],[[50741,27734],[610,-72]],[[51351,27662],[478,-38]],[[51829,27624],[757,14],[302,328]],[[52888,27966],[184,-16]],[[53072,27950],[748,-719],[-1666,112],[358,-646],[-322,-840],[-1353,-144],[-205,1702]],[[50281,11405],[850,-9],[884,822],[-140,-1689],[-1656,160],[62,716]],[[41460,19675],[179,-186]],[[41639,19489],[-461,13],[-557,-1621],[976,-632],[-727,-316],[-764,906],[445,218],[12,870],[-1533,148],[66,846],[551,603],[959,307],[-21,482],[-978,58],[233,455],[831,-518],[49,-1098],[639,14],[101,-549]],[[75012,59693],[180,383],[1169,-63],[-13,-656],[538,-1184],[-776,-5],[37,607],[-974,39],[-161,879]],[[64522,38615],[1138,23],[19,-1313],[1224,-198],[-26,-553],[-1846,87],[87,1672],[-596,282]],[[32215,56415],[2059,-105],[-49,-866],[570,-492],[86,-677],[1556,-5],[227,-303],[-98,-1005],[-532,43],[-1056,-626],[-877,261],[129,840],[-180,875],[-999,342],[167,653],[-766,84],[-237,981]],[[45481,39781],[303,349],[2683,203],[71,-713],[790,-1717],[-1164,39],[4,-319],[-2182,142],[51,1855],[-556,161]],[[72514,40483],[610,137]],[[73124,40620],[-213,-1237],[922,-343],[-61,-1342],[-259,-238],[-1135,512],[-997,48],[208,1104],[1069,-76],[241,903],[-385,532]],[[10861,55319],[951,-84],[216,-555],[-932,313],[-235,326]],[[58113,26781],[847,-49],[289,-888],[-963,295],[-173,642]],[[64451,48457],[590,69],[339,-550],[-704,-1],[-225,482]],[[12874,37248],[1002,334],[728,-610],[-1340,-1014],[-390,1290]],[[47472,33856],[53,617]],[[47525,34473],[1089,129],[-24,547],[826,-62],[79,-1069]],[[49495,34018],[-417,-262]],[[49078,33756],[-368,-794]],[[48710,32962],[-337,209]],[[48373,33171],[-13,8]],[[48360,33179],[-347,225]],[[48013,33404],[-541,452]],[[74551,36342],[67,928]],[[74618,37270],[510,33],[2916,-221],[-34,-1681]],[[78010,35401],[-594,457],[-2141,134]],[[75275,35992],[-724,350]],[[78010,35401],[-37,-1033],[-677,30],[-4,561],[-1085,81],[-932,952]],[[12324,42552],[920,-377],[444,-566],[-673,-192],[-123,509],[-568,626]],[[58069,51792],[462,1063],[1988,1146],[384,-426],[860,-54],[-315,-1022],[-1415,-94],[-672,-394],[-1292,-219]],[[50360,47865],[5,28]],[[50365,47893],[994,-85],[328,519],[-346,574],[64,993]],[[51405,49894],[613,-206],[1266,236]],[[53284,49924],[34,582],[628,-28],[127,-1522],[729,174],[917,-625],[82,1329],[-644,33],[44,738],[1284,-25],[-68,-1082],[627,-32],[99,1444],[2295,-115],[-646,-1366],[-466,-399],[28,-504],[-512,-877],[-792,349],[-278,-1269],[168,-475]],[[56911,45804],[-653,-450]],[[56254,45353],[-562,-133]],[[55692,45220],[-832,51]],[[54860,45271],[-494,215],[-71,706],[494,504],[-271,463],[-1220,-268],[-717,-1447],[-796,4]],[[51785,45448],[-1666,83]],[[50119,45531],[50,552]],[[50169,46083],[-135,882],[673,-43],[-347,943]],[[77114,54480],[639,280],[-134,-649],[-505,369]],[[85580,47205],[-77,1125],[1302,-40],[975,-442],[-20,-748],[-561,114],[-1287,-281],[-332,272]],[[62972,28525],[221,110],[157,8],[169,-109],[213,223],[186,80],[8,142],[110,919],[644,371],[605,5],[193,710],[463,-20],[-82,-1028],[634,-231],[-61,-1011],[-1427,76],[-703,275],[-747,-508],[-89,-19],[-265,100],[-229,-93]],[[76059,18871],[284,860],[593,-29],[-31,-1152],[-665,-249],[-181,570]],[[74551,36342],[-1182,-250],[-1623,-605],[211,816],[672,-32],[43,809],[1946,190]],[[51785,45448],[-139,-1]],[[51646,45447],[-588,30]],[[51058,45477],[-35,2]],[[51023,45479],[-916,46]],[[50107,45525],[12,6]],[[27868,46521],[138,57]],[[29132,46202],[308,34]],[[29487,46482],[-56,237]],[[29580,46900],[32,115]],[[32504,47792],[-20,322]],[[32571,48263],[70,94]],[[32855,48467],[24,117]],[[34027,51604],[11,293]],[[34049,52015],[1677,-71],[292,-1251],[1119,97],[374,740],[-1291,-68],[-80,464],[2801,-108],[-225,698],[410,361],[907,117],[765,384],[1784,-803]],[[42582,52575],[-180,-188]],[[42402,52387],[-139,-153]],[[42263,52234],[-93,-102]],[[42170,52132],[-447,-490],[-41,-669]],[[41682,50973],[-218,-981],[581,-342],[1084,201]],[[43129,49851],[852,-589]],[[43981,49262],[517,-144]],[[44498,49118],[-17,-322]],[[44481,48796],[23,-394]],[[44504,48402],[545,-818],[805,66]],[[45854,47650],[700,-45],[321,767]],[[46875,48372],[81,187]],[[46956,48559],[1119,-317],[274,599],[62,1117],[794,-203],[641,353],[232,-565],[708,464],[619,-113]],[[50365,47893],[-5,-28]],[[50169,46083],[-200,-552]],[[49969,45531],[-2929,150],[-58,-784],[-571,-78],[-376,-1505]],[[46035,43314],[-459,-172],[-67,-1153],[819,117]],[[46328,42106],[1370,-189],[630,-764],[749,-256],[-43,-519],[802,79]],[[49836,40457],[148,55]],[[49984,40512],[1683,473]],[[51667,40985],[426,-423],[570,34],[170,926],[557,599],[1216,-408]],[[54606,41713],[-30,-463]],[[54576,41250],[-50,-846]],[[54526,40404],[0,-7]],[[54526,40397],[-1816,-252]],[[52710,40145],[-257,-31]],[[52453,40114],[118,-459],[-1846,87],[225,-1151],[-209,-1280],[54,-819],[427,-281]],[[51222,36211],[400,-12]],[[51622,36199],[1212,-57]],[[52834,36142],[405,-214]],[[53239,35928],[310,-226],[49,-934],[-776,-204],[-274,-912]],[[52548,33652],[-194,-1010],[555,-447],[-45,-986],[-647,43],[-68,-562]],[[52149,30690],[-1708,129],[264,344]],[[50705,31163],[-301,287]],[[50404,31450],[-473,436]],[[49931,31886],[-109,68]],[[49822,31954],[-168,-512]],[[49654,31442],[-769,358],[-877,677]],[[48008,32477],[7,205],[-1626,111],[-57,-768],[-790,-3]],[[45542,32022],[-1219,451],[27,383],[-2009,113],[61,-1121]],[[42402,31848],[-799,-169],[-522,384],[-501,-393]],[[40580,31670],[-39,-768]],[[40541,30902],[85,-537]],[[40626,30365],[377,-23]],[[41003,30342],[-64,-1232],[191,-571],[677,-24],[140,1093],[887,-114],[22,-483]],[[42856,29011],[612,277]],[[43468,29288],[250,176]],[[43718,29464],[264,-42]],[[43982,29422],[111,-253]],[[44093,29169],[1,-775],[-250,-154],[382,-65],[12,182],[556,-35],[-815,-967],[-619,353],[-863,128],[-439,-805]],[[42058,27031],[-17,1]],[[42041,27032],[-603,-126]],[[41438,26906],[-599,295]],[[40839,27201],[-920,257],[203,-587],[-1355,79],[-750,-211],[-277,993],[2018,199],[85,751],[-643,267]],[[38502,30696],[-248,976],[445,594],[-626,412],[64,932],[-1070,630],[-171,-785],[-1985,819]],[[34911,34274],[-263,144]],[[34648,34418],[-564,-25]],[[34084,34393],[-74,-130]],[[34010,34263],[-195,1]],[[33815,34264],[-339,-215]],[[33266,33877],[-119,-7]],[[33115,33872],[-413,-216]],[[32256,33689],[-152,-697],[-1211,-171],[-109,-354],[-1094,164],[732,1558],[-424,461],[-34,914],[-639,-361],[-972,199],[1302,791],[-977,939],[384,2407],[-698,241],[-194,1294],[408,558]],[[28578,41632],[-436,446]],[[28142,42078],[-110,34]],[[28032,42112],[-4,27]],[[28028,42139],[-2,19]],[[28026,42158],[599,571],[492,-191],[-37,-706],[835,219],[40,459],[1128,261],[932,1]],[[32015,42772],[157,133]],[[32172,42905],[-98,630],[388,394]],[[32462,43929],[782,-845],[430,538],[-106,794]],[[33568,44416],[-6,396]],[[33562,44812],[-386,1026]],[[33176,45838],[-255,405]],[[32921,46243],[-213,-302]],[[32708,45941],[-10,-461],[-1207,108]],[[31491,45588],[-322,1034]],[[31169,46622],[-1247,-184],[-22,-556]],[[29900,45882],[-388,-241]],[[29512,45641],[-251,-89]],[[29261,45552],[-266,-46]],[[28995,45506],[-214,-32]],[[28781,45474],[-478,82],[-264,735],[-1269,-45],[-501,420],[791,426]],[[30571,37663],[159,-377]],[[30730,37286],[149,-262],[1058,-231]],[[31937,36793],[701,200]],[[32638,36993],[39,1632],[-580,-22]],[[32097,38603],[-1713,-121],[187,-819]],[[33097,46368],[517,-867],[422,-3109],[390,-492]],[[34426,41900],[113,-69]],[[34539,41831],[893,-1127]],[[35432,40704],[685,-1079]],[[36117,39625],[2322,-401],[-282,908],[-1759,92],[-165,326]],[[36233,40550],[465,236],[190,3706],[-263,637],[-2138,820]],[[34487,45949],[-350,39]],[[34137,45988],[-1023,391]],[[33114,46379],[-17,-11]],[[33375,40599],[649,-546],[92,851],[-741,-305]],[[34770,38776],[172,-346],[606,164]],[[35548,38594],[-778,182]],[[36400,48597],[60,-328]],[[36460,48269],[46,-246]],[[36506,48023],[409,-228]],[[36915,47795],[111,-3]],[[37026,47792],[872,2]],[[37898,47794],[15,-41]],[[37913,47753],[21,-58]],[[37934,47695],[-111,-404]],[[37823,47291],[1945,-86],[254,905],[7,1655],[-432,171]],[[39597,49936],[-835,187],[-985,-99],[-305,-322]],[[37472,49702],[-14,-778]],[[37458,48924],[-17,-198]],[[37441,48726],[-777,-97],[-395,670]],[[36269,49299],[-1132,-64],[-37,-831],[1141,-129],[159,322]],[[35185,34646],[723,453],[1548,56],[4,-666],[691,-344],[615,851],[-96,855],[-1194,15],[-81,337],[1387,-151],[-451,1088],[-1166,-154],[-505,-472],[33,-618],[-440,-459],[-708,-146],[-360,-645]],[[36968,46317],[321,406],[1215,-112],[67,305],[-1274,103],[-329,-702]],[[41549,44558],[860,-1106],[450,695],[-80,1069],[-1230,-658]],[[44459,47348],[-67,193]],[[43074,38921],[492,66],[-2,-1572],[1108,-68],[161,2236],[-267,425],[-876,-71],[-616,-1016]],[[48013,33404],[347,-225]],[[48373,33171],[337,-209]],[[49078,33756],[417,262]],[[47525,34473],[-53,-617]],[[51146,32840],[646,180],[37,564],[-632,41],[-51,-785]],[[77316,6030],[-8,-14]],[[77308,6016],[-421,-284]],[[76887,5732],[-658,138]],[[76229,5870],[367,504],[720,-344]],[[76824,38137],[592,811],[963,188],[181,-437],[-159,-828],[-878,-189],[-699,455]],[[45141,79458],[863,165],[-58,463],[1634,254],[-134,-688],[593,-840],[-2065,143],[-830,-124],[-3,627]],[[19982,73972],[199,901],[514,115],[404,-1162],[-56,-689],[-940,517],[-121,318]],[[49969,45531],[138,-6]],[[51023,45479],[35,-2]],[[51646,45447],[45,-906],[-1774,265],[-212,-861],[-498,-78],[-469,-858],[412,-274],[1445,-94],[-72,-1115],[865,-52],[279,-489]],[[49984,40512],[-148,-55]],[[46328,42106],[-293,1208]],[[44761,30044],[413,152]],[[45174,30196],[114,1]],[[45288,30197],[50,377]],[[45338,30574],[1,24]],[[45339,30598],[11,185]],[[45350,30783],[1,8]],[[45351,30791],[-13,118]],[[45338,30909],[312,40]],[[45650,30949],[17,209]],[[45667,31158],[-1418,56],[22,346]],[[44271,31560],[685,525]],[[44956,32085],[586,-63]],[[48008,32477],[406,-361],[88,-1122],[-379,-591],[1551,-341]],[[49674,30062],[-1,-13]],[[49673,30049],[-1249,189],[-264,-802],[-709,25],[-83,-735],[-661,22],[-565,-451],[-188,1084],[-1064,-962],[-244,-74],[-534,30],[-19,794]],[[43982,29422],[529,-74],[250,696]],[[41460,19675],[308,361],[-406,1145],[1699,58],[533,201],[-73,-1615],[-717,-565],[-1165,229]],[[42974,8912],[-334,889],[513,1757],[-790,49],[13,1396],[933,-589],[541,811],[1458,-109],[-136,-512],[-699,-737],[504,-326],[220,-627],[1303,495],[-67,-909],[-672,-640],[-2798,-91],[-91,-437],[957,-68],[-77,-453]],[[41438,26906],[603,126]],[[42058,27031],[3,-349],[-1746,-339],[-209,777],[733,81]],[[37934,47695],[279,-224],[-390,-180]],[[34137,45988],[350,-39]],[[36233,40550],[-58,2]],[[36175,40552],[-743,152]],[[34539,41831],[-113,69]],[[33097,46368],[17,11]],[[34493,34111],[-483,152]],[[34084,34393],[564,25]],[[34911,34274],[-190,-338]],[[93099,4259],[793,-39],[-60,-779],[-476,9],[-257,809]],[[42194,72902],[1347,-14],[-274,-563],[-1107,69],[34,508]],[[77308,6016],[8,14]],[[76229,5870],[-215,962],[387,441],[842,-755],[622,117],[1601,1039],[-119,-1594],[789,-44],[-21,-1088],[-1454,652],[-589,-672],[-236,815],[-949,-11]],[[48208,59045],[111,138]],[[48319,59183],[-18,1]],[[48301,59184],[-601,34]],[[47700,59218],[-913,706],[-198,636],[-1920,61],[-852,-188],[46,678],[1823,-58],[1579,-249],[948,437],[1233,25],[119,-1529],[-558,-737],[-799,45]],[[56255,99234],[5,654],[0,111],[62,-40],[-10,-230],[869,-14],[-3,-581],[619,-331],[-1779,-719],[-314,494],[-697,1],[22,-1015],[471,-667],[-1073,-90],[-5,-711],[-1281,-228],[-5,523],[-969,45],[-715,519],[634,1106],[5,568],[897,364],[1433,-793],[948,994],[886,40]],[[98295,26185],[1135,-20],[-88,1170],[449,-407],[208,-949],[-1608,92],[-96,114]],[[98400,22822],[-1070,1663],[321,279],[1247,-318],[-79,-1311],[-419,-313]],[[8968,32191],[1293,1097],[-478,481],[791,639],[17,591],[1235,-302],[400,469],[610,-501],[1149,-382],[390,-885],[-660,-705],[-1536,-69],[-830,-676],[460,-289],[92,-567],[-1550,339],[-350,698],[-1033,62]],[[37441,48726],[17,198]],[[37472,49702],[410,200],[1715,34]],[[37913,47753],[-15,41]],[[37026,47792],[-111,3]],[[36506,48023],[-46,246]],[[36400,48597],[-131,702]],[[44498,49118],[946,-305],[323,-366],[87,-797]],[[44504,48402],[-23,394]],[[23700,39522],[488,75],[352,-789],[637,622],[736,24],[503,-902],[815,-1058],[-2614,-151],[-101,201]],[[24516,37544],[-816,1978]],[[32097,38603],[-160,-1810]],[[30730,37286],[-159,377]],[[49822,31954],[109,-68]],[[50404,31450],[301,-287]],[[52149,30690],[662,-52],[569,-406],[432,337]],[[53812,30569],[341,-23]],[[54153,30546],[112,-7]],[[54265,30539],[14,-1]],[[54279,30538],[352,-24]],[[54631,30514],[141,-57]],[[54772,30457],[138,-539],[-356,-534],[-1320,80],[-557,-404],[-58,-661],[453,-449]],[[52888,27966],[-1059,-342]],[[51351,27662],[-610,72]],[[50632,27415],[-898,1195],[451,369],[65,711],[-577,359]],[[49674,30062],[594,-108],[107,827],[-721,661]],[[36175,40552],[-58,-927]],[[48974,93840],[2496,435],[-90,-1854],[-1245,-781],[-1206,97],[45,2103]],[[42164,67168],[483,-432],[133,-544],[-594,73],[-22,903]],[[27279,30403],[964,524],[766,-441],[-450,-701],[-1062,81],[-218,537]],[[88381,3574],[461,241],[294,-671],[-752,30],[-3,400]],[[69621,9996],[785,124],[635,-723],[-304,-265],[-472,554],[-644,310]],[[23419,53286],[509,538],[649,-506],[305,363],[949,-879],[-158,-475],[-1044,-306],[-674,38],[-536,1227]],[[85580,47205],[-427,-542],[-1293,-313],[-348,979],[2068,-124]],[[89970,20338],[1157,511],[793,-1616],[-678,-328],[-971,207],[-301,1226]],[[76931,33915],[693,-617],[-204,-528],[-515,-105],[26,1250]],[[56588,712],[54,734],[284,-26],[-15,-518],[-316,-246],[-7,56]],[[48301,59184],[18,-1]],[[48208,59045],[-239,-613],[782,-337],[-1530,-581],[-233,492],[-703,-57],[291,803],[525,-164],[599,630]],[[42170,52132],[93,102]],[[42263,52234],[139,153]],[[42582,52575],[732,260],[1583,-242],[1538,-90],[976,-189],[-302,-2758],[456,-739],[-609,-258]],[[46875,48372],[-858,17],[-174,237],[-1095,561],[-767,75]],[[43129,49851],[38,641],[-1485,481]],[[79846,45372],[-78,-912],[574,-114],[-137,-651],[242,-576],[-820,-223],[73,833],[-1698,129],[-584,-1366],[-996,73],[-1069,-633],[-831,-126],[-729,-928],[-669,-258]],[[72514,40483],[43,621],[-511,314],[543,734],[739,-175],[113,1842]],[[55134,39865],[-276,-350]],[[54858,39515],[-100,19]],[[54758,39534],[376,331]],[[54526,40404],[50,846]],[[54606,41713],[254,3558]],[[55692,45220],[648,-40]],[[58599,45040],[2607,-149],[-50,-715]],[[63483,42206],[-629,-206],[-36,-649],[-924,58],[-103,-1540],[-889,544],[-90,-1230],[-4898,278]],[[55914,39461],[-780,404]],[[55134,39865],[-608,532]],[[59687,20604],[845,-50],[466,807],[-184,627],[829,65],[913,-614],[286,88],[159,1128],[962,-54],[-94,-468],[467,-385],[771,24],[609,-384],[272,551],[1012,129],[-24,-845],[609,-197],[94,1853],[1214,-297],[105,-939],[-401,-1088],[360,-440],[1293,-72],[-372,-433],[-44,-678],[-1730,94],[-980,-248],[-23,-588],[-1254,-71],[17,-473],[-837,-41],[71,862],[-749,272],[-1140,39],[84,1041],[-284,266],[-1549,-163],[-1043,215],[-721,-81],[-9,548]],[[52453,40114],[257,31]],[[55914,39461],[458,-322],[-520,-552]],[[55852,38587],[-238,-1245],[-879,202],[-445,-251],[209,-667],[-769,-213]],[[53730,36413],[-631,-204]],[[53099,36209],[-265,-67]],[[51622,36199],[-400,12]],[[55852,38587],[-603,37]],[[55249,38624],[603,-37]],[[54758,39534],[100,-19]],[[55249,38624],[-594,34],[-45,-659],[673,16],[-34,609]],[[72976,45571],[-748,94]],[[73059,44159],[-1285,81]],[[71774,44240],[488,1072],[-455,306]],[[71715,45698],[14,383],[-1317,-85]],[[70330,46025],[-464,671],[314,806],[621,475],[1201,-922],[1939,-202]],[[13193,57452],[615,-227],[395,400],[-49,2113],[-721,474],[-49,444],[1297,92],[-206,1091],[266,399],[1317,124],[318,-701],[740,317],[185,-988],[-377,-681],[1084,-188],[306,-1265],[1259,-460],[666,41],[128,-1124],[-573,-288],[1737,-1348],[-977,-103],[-887,969],[-1106,-87],[-63,419],[-896,191],[-130,548],[-867,-124],[-1027,-475],[-141,-353],[-1212,-18],[-616,214],[-416,594]],[[84395,19977],[797,693],[499,-1004],[-1296,311]],[[53239,35928],[-140,281]],[[53730,36413],[90,-1011],[549,-629],[-72,-512],[1250,132],[572,-591],[84,1099],[610,-57],[-67,-843],[-656,-581],[805,-229],[-15,-1691],[-375,-255],[-59,-1328],[-688,520],[-986,20]],[[54631,30514],[-352,24]],[[54265,30539],[-112,7]],[[53812,30569],[-363,315],[-11,1122],[710,-49],[42,513],[-512,356],[-756,-287],[104,931],[-478,182]],[[25527,61654],[529,355],[46,613],[628,-100],[-126,-759],[-573,-581],[-504,472]],[[34628,24655],[576,-344],[705,-23],[980,220],[511,349],[-111,1091],[631,383],[1013,115],[212,-2266],[-1507,-246],[-1801,-803],[-476,177],[25,948],[-500,15],[-258,384]],[[20813,18882],[608,237],[433,-310],[476,380],[-619,924],[1022,507],[720,-692],[-991,-619],[-648,-1114],[-811,246],[-190,441]],[[75182,23218],[182,64],[-59,195],[121,39],[118,-170],[-206,-174],[-156,46]],[[83459,32720],[392,1],[-81,-277],[-276,14],[-35,262]],[[53200,88397],[523,318],[16,1550],[1233,-15],[-26,-2322],[-642,-450],[-1104,919]],[[4,21562],[495,108],[42,-656],[-541,41],[4,507]],[[60319,14478],[380,251],[431,1017],[1820,-336],[-6,-717],[-642,-936],[-735,35],[-1248,686]],[[68579,33116],[188,555],[594,401],[1194,-46],[-415,-955],[-1561,45]],[[28995,45506],[266,46]],[[29512,45641],[388,241]],[[31169,46622],[322,-1034]],[[32708,45941],[213,302]],[[33176,45838],[-101,-705],[-1222,-191],[227,-536],[1025,113],[457,293]],[[33568,44416],[-1106,-487]],[[32172,42905],[-157,-133]],[[28026,42158],[2,-19]],[[28032,42112],[110,-34]],[[28578,41632],[-1153,-288],[-364,617],[-146,946],[-876,1205],[-26,320],[1783,1072],[985,-30]],[[26258,44088],[755,-777],[957,229],[-58,370],[-1654,178]],[[24516,37544],[-171,-679],[-546,-305],[-400,1352],[-365,-725],[-1244,-630],[-342,135],[-1934,-673],[-87,427],[-1951,-143],[-17,519],[-2449,-135],[-141,493],[861,772],[1255,-420],[252,644],[2332,100],[861,-429],[-94,-835],[1245,79],[886,303],[586,699],[-619,863],[1266,566]],[[28561,27055],[467,-100],[-98,-255],[-242,42],[-127,313]],[[92017,125],[302,347],[757,113],[-325,-585],[-734,125]],[[40580,31670],[1858,-285],[-36,463]],[[44956,32085],[-685,-525]],[[45667,31158],[-17,-209]],[[45338,30909],[13,-118]],[[45350,30783],[-11,-185]],[[45338,30574],[-50,-377]],[[45174,30196],[-413,-152]],[[43718,29464],[-250,-176]],[[42856,29011],[146,2238],[-1197,49],[-51,-749],[-751,-207]],[[40626,30365],[-85,537]],[[82796,2275],[406,197],[540,-448],[441,-849],[-1061,65],[-326,1035]],[[20920,49141],[703,782],[412,757],[558,-236],[391,-849],[1075,545],[382,-563],[-933,-126],[-571,-650],[-712,38],[-859,-243],[-446,545]],[[73000,14928],[479,-23],[172,1089],[1827,-10],[-54,-803],[-544,-429],[-205,-747],[-1000,-99],[-605,451],[-70,571]],[[34770,38776],[778,-182]]],"transform":{"scale":[0.000015486364863648606,0.000013076580765807666],"translate":[-83.617069,39.459038]},"objects":{"in":{"type":"GeometryCollection","geometries":[{"arcs":[[0]],"type":"Polygon","properties":{"geoid":"3918770","name":"Corning"},"id":"3918770"},{"arcs":[[1,2]],"type":"Polygon","properties":{"geoid":"3924598","name":"Edison"},"id":"3924598"},{"arcs":[[3]],"type":"Polygon","properties":{"geoid":"3973950","name":"Sparta"},"id":"3973950"},{"arcs":[[4]],"type":"Polygon","properties":{"geoid":"3971962","name":"Shawnee"},"id":"3971962"},{"arcs":[[5]],"type":"Polygon","properties":{"geoid":"3908532","name":"Brice"},"id":"3908532"},{"arcs":[[6]],"type":"Polygon","properties":{"geoid":"3955552","name":"New Straitsville"},"id":"3955552"},{"arcs":[[7]],"type":"Polygon","properties":{"geoid":"3946830","name":"Magnetic Springs"},"id":"3946830"},{"arcs":[[8]],"type":"Polygon","properties":{"geoid":"3965676","name":"Raymond"},"id":"3965676"},{"arcs":[[9]],"type":"Polygon","properties":{"geoid":"3909596","name":"Brownsville"},"id":"3909596"},{"arcs":[[10,11,12,13,14]],"type":"Polygon","properties":{"geoid":"3931434","name":"Granville South"},"id":"3931434"},{"arcs":[[15]],"type":"Polygon","properties":{"geoid":"3901630","name":"Amanda"},"id":"3901630"},{"arcs":[[16]],"type":"Polygon","properties":{"geoid":"3976148","name":"Tarlton"},"id":"3976148"},{"arcs":[[17]],"type":"Polygon","properties":{"geoid":"3934202","name":"Hartford (Croton)"},"id":"3934202"},{"arcs":[[18,19,20,21,22,23]],"type":"Polygon","properties":{"geoid":"3954040","name":"Newark"},"id":"3954040"},{"arcs":[[24,25,26,27,28,29]],"type":"Polygon","properties":{"geoid":"3939088","name":"Jersey"},"id":"3939088"},{"arcs":[[30]],"type":"Polygon","properties":{"geoid":"3950008","name":"Midway"},"id":"3950008"},{"arcs":[[31]],"type":"Polygon","properties":{"geoid":"3985414","name":"Williamsport"},"id":"3985414"},{"arcs":[[32,33,34,35,36,37,38,39,40,41,42],[43]],"type":"Polygon","properties":{"geoid":"3932592","name":"Grove City"},"id":"3932592"},{"arcs":[[44,45]],"type":"Polygon","properties":{"geoid":"3950862","name":"Minerva Park"},"id":"3950862"},{"arcs":[[46]],"type":"Polygon","properties":{"geoid":"3914114","name":"Chesterville"},"id":"3914114"},{"arcs":[[47]],"type":"Polygon","properties":{"geoid":"3929050","name":"Fulton"},"id":"3929050"},{"arcs":[[48]],"type":"Polygon","properties":{"geoid":"3972977","name":"Somerset"},"id":"3972977"},{"arcs":[[51,52]],"type":"Polygon","properties":{"geoid":"3971976","name":"Shawnee Hills"},"id":"3971976"},{"arcs":[[53]],"type":"Polygon","properties":{"geoid":"3975252","name":"Sugar Grove"},"id":"3975252"},{"arcs":[[54,-52,55,-50,56,57,58,59,60,61,62,63,64,65,66,67,68,69,70,71,72,73,74]],"type":"Polygon","properties":{"geoid":"3922694","name":"Dublin"},"id":"3922694"},{"arcs":[[75]],"type":"Polygon","properties":{"geoid":"3965298","name":"Radnor"},"id":"3965298"},{"arcs":[[76]],"type":"Polygon","properties":{"geoid":"3921784","name":"Derby"},"id":"3921784"},{"arcs":[[77,78]],"type":"Polygon","properties":{"geoid":"3905013","name":"Beechwood Trails"},"id":"3905013"},{"arcs":[[79]],"type":"Polygon","properties":{"geoid":"3914288","name":"Choctaw Lake"},"id":"3914288"},{"arcs":[[80]],"type":"Polygon","properties":{"geoid":"3925676","name":"Etna"},"id":"3925676"},{"arcs":[[81,82]],"type":"Polygon","properties":{"geoid":"3944636","name":"Logan Elm Village"},"id":"3944636"},{"arcs":[[83]],"type":"Polygon","properties":{"geoid":"3968448","name":"Rose Farm"},"id":"3968448"},{"arcs":[[84]],"type":"Polygon","properties":{"geoid":"3954726","name":"New Holland"},"id":"3954726"},{"arcs":[[85]],"type":"Polygon","properties":{"geoid":"3926110","name":"Fairfield Beach"},"id":"3926110"},{"arcs":[[86]],"type":"Polygon","properties":{"geoid":"3931458","name":"Gratiot"},"id":"3931458"},{"arcs":[[87]],"type":"Polygon","properties":{"geoid":"3920212","name":"Darbyville"},"id":"3920212"},{"arcs":[[88]],"type":"Polygon","properties":{"geoid":"3978834","name":"Unionville Center"},"id":"3978834"},{"arcs":[[89]],"type":"Polygon","properties":{"geoid":"3958800","name":"Orient"},"id":"3958800"},{"arcs":[[90]],"type":"Polygon","properties":{"geoid":"3921434","name":"Delaware"},"id":"3921434"},{"arcs":[[91]],"type":"Polygon","properties":{"geoid":"3934888","name":"Hemlock"},"id":"3934888"},{"arcs":[[92]],"type":"Polygon","properties":{"geoid":"3966222","name":"Rendville"},"id":"3966222"},{"arcs":[[93]],"type":"Polygon","properties":{"geoid":"3963716","name":"Pleasantville"},"id":"3963716"},{"arcs":[[94]],"type":"Polygon","properties":{"geoid":"3969204","name":"Rushville"},"id":"3969204"},{"arcs":[[95]],"type":"Polygon","properties":{"geoid":"3947558","name":"Marengo"},"id":"3947558"},{"arcs":[[96]],"type":"Polygon","properties":{"geoid":"3976764","name":"Thurston"},"id":"3976764"},{"arcs":[[97,-2]],"type":"Polygon","properties":{"geoid":"3952738","name":"Mount Gilead"},"id":"3952738"},{"arcs":[[98,99,100,101,102,103]],"type":"Polygon","properties":{"geoid":"3944086","name":"Lithopolis"},"id":"3944086"},{"arcs":[[104]],"type":"Polygon","properties":{"geoid":"3974916","name":"Stoutsville"},"id":"3974916"},{"arcs":[[105,106]],"type":"Polygon","properties":{"geoid":"3973068","name":"South Bloomfield"},"id":"3973068"},{"arcs":[[107]],"type":"Polygon","properties":{"geoid":"3979114","name":"Utica"},"id":"3979114"},{"arcs":[[108]],"type":"Polygon","properties":{"geoid":"3940572","name":"Kirkersville"},"id":"3940572"},{"arcs":[[109]],"type":"Polygon","properties":{"geoid":"3964486","name":"Powell"},"id":"3964486"},{"arcs":[[110]],"type":"Polygon","properties":{"geoid":"3984742","name":"Whitehall"},"id":"3984742"},{"arcs":[[111,112]],"type":"Polygon","properties":{"geoid":"3934790","name":"Hebron"},"id":"3934790"},{"arcs":[[113]],"type":"Polygon","properties":{"geoid":"3950218","name":"Milford Center"},"id":"3950218"},{"arcs":[[114]],"type":"Polygon","properties":{"geoid":"3912252","name":"Carroll"},"id":"3912252"},{"arcs":[[115]],"type":"Polygon","properties":{"geoid":"3901154","name":"Alexandria"},"id":"3901154"},{"arcs":[[116]],"type":"Polygon","properties":{"geoid":"3941146","name":"Lafayette"},"id":"3941146"},{"arcs":[[117,118,119,120,121,122,123,124]],"type":"Polygon","properties":{"geoid":"3906670","name":"Blacklick Estates"},"id":"3906670"},{"arcs":[[125,126,127,128]],"type":"Polygon","properties":{"geoid":"3933362","name":"Harbor Hills"},"id":"3933362"},{"arcs":[[-128,129]],"type":"Polygon","properties":{"geoid":"3976666","name":"Thornport"},"id":"3976666"},{"arcs":[[130]],"type":"Polygon","properties":{"geoid":"3963758","name":"Plumwood"},"id":"3963758"},{"arcs":[[131]],"type":"Polygon","properties":{"geoid":"3939340","name":"Johnstown"},"id":"3939340"},{"arcs":[[132,133,134,135,-27,136,-25,137,138,139,140,141,142]],"type":"Polygon","properties":{"geoid":"3953970","name":"New Albany"},"id":"3953970"},{"arcs":[[143]],"type":"Polygon","properties":{"geoid":"3969652","name":"St. Louisville"},"id":"3969652"},{"arcs":[[144]],"type":"Polygon","properties":{"geoid":"3933292","name":"Hanover"},"id":"3933292"},{"arcs":[[145]],"type":"Polygon","properties":{"geoid":"3903758","name":"Baltimore"},"id":"3903758"},{"arcs":[[146]],"type":"Polygon","properties":{"geoid":"3908392","name":"Bremen"},"id":"3908392"},{"arcs":[[-126,147]],"type":"Polygon","properties":{"geoid":"3909890","name":"Buckeye Lake"},"id":"3909890"},{"arcs":[[[-141,148,149,150,151,152]],[[-74,153,-72,154,-70,155,-68,156,-66,157,-64,158,-62,159,-60,160,-58,161,162,163,164,165,166,167,168,169,170,171,172,173,174,-134,175,-143,176,177,178,179,180,181,182,183,184,185,186,187,188,189,190,191,192,193,194,195,196,197,198,199,200,201,202,203,204,205,206,207,208,209,210,211,212,213,214,215,-42,216,217,218,219,220,221,-37,222,-35,223,-33,224,225,226,227,228,229,230,231,232,233,234,235,236,237,238,239,240,241,242,243,244],[245,246,247,248,249],[250,251,252,253,254,255,256,257,258],[259],[260,261],[262,263,264,265,266,267,268,269,270,271,272,273,274,275],[276],[277],[278],[279,-46],[280],[-111],[-125,281,-123,282,-121,283,-119,284],[-6],[285]]],"type":"MultiPolygon","properties":{"geoid":"3918000","name":"Columbus"},"id":"3918000"},{"arcs":[[286,287,288,289]],"type":"Polygon","properties":{"geoid":"3983776","name":"West Logan"},"id":"3983776"},{"arcs":[[290]],"type":"Polygon","properties":{"geoid":"3938276","name":"Jacksontown"},"id":"3938276"},{"arcs":[[291]],"type":"Polygon","properties":{"geoid":"3912084","name":"Cardington"},"id":"3912084"},{"arcs":[[292]],"type":"Polygon","properties":{"geoid":"3966936","name":"Richwood"},"id":"3966936"},{"arcs":[[-281]],"type":"Polygon","properties":{"geoid":"3906278","name":"Bexley"},"id":"3906278"},{"arcs":[[-178,293,-152,294,-150,295,-182,296,-180,297]],"type":"Polygon","properties":{"geoid":"3929106","name":"Gahanna"},"id":"3929106"},{"arcs":[[298,299,300,301,302,303,304,305,306,307,308,309,-201,310,311,312,-211,313]],"type":"Polygon","properties":{"geoid":"3932606","name":"Groveport"},"id":"3932606"},{"arcs":[[-106,314]],"type":"Polygon","properties":{"geoid":"3902680","name":"Ashville"},"id":"3902680"},{"arcs":[[-82,315]],"type":"Polygon","properties":{"geoid":"3915070","name":"Circleville"},"id":"3915070"},{"arcs":[[-215,316,-213,317]],"type":"Polygon","properties":{"geoid":"3944310","name":"Lockbourne"},"id":"3944310"},{"arcs":[[318,-270]],"type":"Polygon","properties":{"geoid":"3967440","name":"Riverlea"},"id":"3967440"},{"arcs":[[-258,319,-256,320,321,-253,322,-251,323]],"type":"Polygon","properties":{"geoid":"3979002","name":"Upper Arlington"},"id":"3979002"},{"arcs":[[324,-220,325,-218,326,-40]],"type":"Polygon","properties":{"geoid":"3979100","name":"Urbancrest"},"id":"3979100"},{"arcs":[[327]],"type":"Polygon","properties":{"geoid":"3953410","name":"Murray City"},"id":"3953410"},{"arcs":[[328]],"type":"Polygon","properties":{"geoid":"3902582","name":"Ashley"},"id":"3902582"},{"arcs":[[-288,329,-290,330]],"type":"Polygon","properties":{"geoid":"3944632","name":"Logan"},"id":"3944632"},{"arcs":[[331,332,333,334]],"type":"Polygon","properties":{"geoid":"3975602","name":"Sunbury"},"id":"3975602"},{"arcs":[[335]],"type":"Polygon","properties":{"geoid":"3929162","name":"Galion"},"id":"3929162"},{"arcs":[[336]],"type":"Polygon","properties":{"geoid":"3968560","name":"Roseville"},"id":"3968560"},{"arcs":[[337]],"type":"Polygon","properties":{"geoid":"3919456","name":"Crooksville"},"id":"3919456"},{"arcs":[[338]],"type":"Polygon","properties":{"geoid":"3944674","name":"London"},"id":"3944674"},{"arcs":[[-275,339,-273,340,-271,-319,-269,341,-267,342,-265,343,-263,344]],"type":"Polygon","properties":{"geoid":"3986604","name":"Worthington"},"id":"3986604"},{"arcs":[[-170,345,-172,346]],"type":"Polygon","properties":{"geoid":"3936624","name":"Huber Ridge"},"id":"3936624"},{"arcs":[[347,348]],"type":"Polygon","properties":{"geoid":"3941363","name":"Lake Darby"},"id":"3941363"},{"arcs":[[349,-247,350,-250]],"type":"Polygon","properties":{"geoid":"3943792","name":"Lincoln Village"},"id":"3943792"},{"arcs":[[-199,351,-197,352,-195,353,354,355,356,357,358,359,-103,360,-101,361,-99,362,-312,363]],"type":"Polygon","properties":{"geoid":"3911332","name":"Canal Winchester"},"id":"3911332"},{"arcs":[[-322,364,-254]],"type":"Polygon","properties":{"geoid":"3947474","name":"Marble Cliff"},"id":"3947474"},{"arcs":[[365]],"type":"Polygon","properties":{"geoid":"3937142","name":"Iberia"},"id":"3937142"},{"arcs":[[366]],"type":"Polygon","properties":{"geoid":"3940124","name":"Kilbourne"},"id":"3940124"},{"arcs":[[367]],"type":"Polygon","properties":{"geoid":"3920198","name":"Darbydale"},"id":"3920198"},{"arcs":[[368]],"type":"Polygon","properties":{"geoid":"3912056","name":"Carbon Hill"},"id":"3912056"},{"arcs":[[369]],"type":"Polygon","properties":{"geoid":"3967804","name":"Rockbridge"},"id":"3967804"},{"arcs":[[370]],"type":"Polygon","properties":{"geoid":"3954320","name":"New California"},"id":"3954320"},{"arcs":[[371]],"type":"Polygon","properties":{"geoid":"3947950","name":"Marne"},"id":"3947950"},{"arcs":[[372]],"type":"Polygon","properties":{"geoid":"3954866","name":"New Lexington"},"id":"3954866"},{"arcs":[[373]],"type":"Polygon","properties":{"geoid":"3976680","name":"Thornville"},"id":"3976680"},{"arcs":[[374]],"type":"Polygon","properties":{"geoid":"3942084","name":"Laurelville"},"id":"3942084"},{"arcs":[[-334,375,-332,376]],"type":"Polygon","properties":{"geoid":"3929148","name":"Galena"},"id":"3929148"},{"arcs":[[377,378,-163,379,-174,380,-168,381,-166]],"type":"Polygon","properties":{"geoid":"3983342","name":"Westerville"},"id":"3983342"},{"arcs":[[-22,382,-112,383]],"type":"Polygon","properties":{"geoid":"3934748","name":"Heath"},"id":"3934748"},{"arcs":[[[384,385,386]],[[387,-184,388,-139,389,-29,390,-79,391,392,393,-186]]],"type":"MultiPolygon","properties":{"geoid":"3961112","name":"Pataskala"},"id":"3961112"},{"arcs":[[394]],"type":"Polygon","properties":{"geoid":"3941720","name":"Lancaster"},"id":"3941720"},{"arcs":[[395,-187,-394,-393,396,397,398,399,-191,400,-189],[-387,403,-385],[404]],"type":"Polygon","properties":{"geoid":"3966390","name":"Reynoldsburg"},"id":"3966390"},{"arcs":[[-20,405,-24,406,407,-13,408,-11,409]],"type":"Polygon","properties":{"geoid":"3931402","name":"Granville"},"id":"3931402"},{"arcs":[[410]],"type":"Polygon","properties":{"geoid":"3948160","name":"Marysville"},"id":"3948160"},{"arcs":[[411]],"type":"Polygon","properties":{"geoid":"3939508","name":"Junction City"},"id":"3939508"},{"arcs":[[412,-399,413,-359,414,-357,415,-355,416,-193]],"type":"Polygon","properties":{"geoid":"3962498","name":"Pickerington"},"id":"3962498"},{"arcs":[[417]],"type":"Polygon","properties":{"geoid":"3958940","name":"Ostrander"},"id":"3958940"},{"arcs":[[418]],"type":"Polygon","properties":{"geoid":"3918070","name":"Commercial Point"},"id":"3918070"},{"arcs":[[419]],"type":"Polygon","properties":{"geoid":"3953046","name":"Mount Sterling"},"id":"3953046"},{"arcs":[[420]],"type":"Polygon","properties":{"geoid":"3984182","name":"West Rushville"},"id":"3984182"},{"arcs":[[421]],"type":"Polygon","properties":{"geoid":"3930436","name":"Glenford"},"id":"3930436"},{"arcs":[[422]],"type":"Polygon","properties":{"geoid":"3911334","name":"Candlewood Lake"},"id":"3911334"},{"arcs":[[423]],"type":"Polygon","properties":{"geoid":"3973768","name":"South Solon"},"id":"3973768"},{"arcs":[[424]],"type":"Polygon","properties":{"geoid":"3932928","name":"Hamburg"},"id":"3932928"},{"arcs":[[425]],"type":"Polygon","properties":{"geoid":"3950400","name":"Millersport"},"id":"3950400"},{"arcs":[[-244,426,-242,427,-240,428,-238,429,-236,430,-234,431,-232,432,-230,433,-228,434,-226,435],[436]],"type":"Polygon","properties":{"geoid":"3935476","name":"Hilliard"},"id":"3935476"},{"arcs":[[-349,437]],"type":"Polygon","properties":{"geoid":"3983580","name":"West Jefferson"},"id":"3983580"},{"arcs":[[438]],"type":"Polygon","properties":{"geoid":"3933740","name":"Harrisburg"},"id":"3933740"},{"arcs":[[439]],"type":"Polygon","properties":{"geoid":"3909834","name":"Buchtel"},"id":"3909834"},{"arcs":[[-204,440,-202,-310,441,-308,442,-306,443,-304,444,-302,445,-300,446,-314,-210,447,-208,448,-206,449]],"type":"Polygon","properties":{"geoid":"3957862","name":"Obetz"},"id":"3957862"},{"arcs":[[450]],"type":"Polygon","properties":{"geoid":"3934594","name":"Haydenville"},"id":"3934594"},{"arcs":[[451]],"type":"Polygon","properties":{"geoid":"3963030","name":"Plain City"},"id":"3963030"},{"arcs":[[-321,-255,-365]],"type":"Polygon","properties":{"geoid":"3931304","name":"Grandview Heights"},"id":"3931304"},{"arcs":[[452]],"type":"Polygon","properties":{"geoid":"3935126","name":"Hide-A-Way Hills"},"id":"3935126"},{"arcs":[[-261,453]],"type":"Polygon","properties":{"geoid":"3979282","name":"Valleyview"},"id":"3979282"}]}}}