{"type":"Topology","arcs":[[[41161,43311],[21,405]],[[41182,43716],[589,-173]],[[41771,43543],[-27,-455]],[[41744,43088],[-595,37]],[[41149,43125],[12,186]],[[38945,52764],[1084,142]],[[40029,52906],[28,-471]],[[40057,52435],[-1128,-27]],[[38929,52408],[16,356]],[[35895,43145],[738,167]],[[36633,43312],[112,-447]],[[36745,42865],[-838,-212]],[[35907,42653],[-12,492]],[[44776,58131],[1370,-86]],[[46146,58045],[1149,-55]],[[47295,57990],[-133,-1015]],[[47162,56975],[-1095,64]],[[46067,57039],[-1821,92]],[[44246,57131],[530,1000]],[[34552,41896],[25,461]],[[34577,42357],[913,-230]],[[35490,42127],[998,-208]],[[36488,41919],[-321,-471]],[[36167,41448],[-303,-445],[-1729,89]],[[34135,41092],[417,804]],[[40800,50534],[700,-52]],[[41500,50482],[-5,-82]],[[41495,50400],[-55,-775]],[[41440,49625],[-144,9]],[[41296,49634],[-553,32]],[[40743,49666],[57,868]],[[39533,45320],[344,303]],[[39877,45623],[606,187]],[[40483,45810],[832,-56]],[[41315,45754],[-29,-672]],[[41286,45082],[14,-451]],[[41300,44631],[-69,-9]],[[41231,44622],[-1434,-199]],[[39797,44423],[-301,203]],[[39496,44626],[37,694]],[[75486,54554],[795,-2122]],[[76281,52432],[-1118,74]],[[75163,52506],[323,2048]],[[41619,53708],[351,-17]],[[41970,53691],[1137,-141]],[[43107,53550],[-27,-412]],[[43080,53138],[-1507,-184]],[[41573,52954],[46,754]],[[39829,57347],[777,-40]],[[40606,57307],[-127,-662]],[[40479,56645],[-1360,-333]],[[39119,56312],[-60,1067]],[[39059,57379],[770,-32]],[[39521,41127],[410,1183]],[[39931,42310],[268,159]],[[40199,42469],[52,-427]],[[40251,42042],[134,-577]],[[40385,41465],[623,-606],[-59,-942]],[[40949,39917],[-942,80]],[[40007,39997],[-486,1130]],[[41286,45082],[671,159]],[[41957,45241],[-24,-520]],[[41933,44721],[-633,-90]],[[38907,51886],[22,522]],[[40057,52435],[-19,-609]],[[40038,51826],[-1131,60]],[[48432,42496],[755,-107]],[[49187,42389],[1097,-1183]],[[50284,41206],[-1878,276]],[[48406,41482],[-45,329]],[[48361,41811],[71,685]],[[30707,57777],[2034,-143]],[[32741,57634],[484,-1302],[-29,-1013]],[[33196,55319],[-134,-20]],[[33062,55299],[-187,678],[-903,61],[-1071,654]],[[30901,56692],[-194,1085]],[[41958,47198],[26,61]],[[41984,47259],[911,20]],[[42895,47279],[934,-52]],[[43829,47227],[86,-652]],[[43915,46575],[-153,-692]],[[43762,45883],[-757,-88]],[[43005,45795],[-1334,414]],[[41671,46209],[287,989]],[[49187,42389],[1307,-96]],[[50494,42293],[1180,-80]],[[51674,42213],[18,-1497]],[[51692,40716],[-1319,86],[-555,-421]],[[49818,40381],[466,825]],[[8170,84569],[6234,86],[10465,133],[-25,-4666]],[[24844,80122],[-35,-1838]],[[24809,78284],[-586,1265],[-2918,-802],[-1138,-117],[-4165,-1868],[-3235,505],[-2306,880],[-564,-422],[-1075,83],[-612,-1064],[-775,254]],[[7435,76998],[735,7571]],[[46121,43757],[14,-1]],[[46135,43756],[364,-510]],[[46499,43246],[106,-150]],[[46605,43096],[-186,-37]],[[46419,43059],[-565,230]],[[45854,43289],[267,468]],[[48014,43632],[716,284]],[[48730,43916],[387,-13]],[[49117,43903],[-185,-823]],[[48932,43080],[-934,63]],[[47998,43143],[16,489]],[[48932,43080],[592,-33]],[[49524,43047],[-337,-658]],[[48432,42496],[-434,647]],[[42143,40246],[1152,-67],[-72,-1090]],[[43223,39089],[-562,32]],[[42661,39121],[-518,1125]],[[47317,41013],[1044,798]],[[48406,41482],[-369,-517]],[[48037,40965],[-607,40]],[[47430,41005],[-113,8]],[[38206,57418],[853,-39]],[[39119,56312],[-35,-756]],[[39084,55556],[-961,13]],[[38123,55569],[-189,1279],[272,570]],[[39435,48202],[911,6]],[[40346,48208],[31,-426]],[[40377,47782],[-841,-76]],[[39536,47706],[-101,496]],[[45598,43305],[256,-16]],[[46419,43059],[-861,-225]],[[45558,42834],[40,471]],[[41296,49634],[-55,-638]],[[41241,48996],[-633,35]],[[40608,49031],[135,635]],[[40014,46922],[410,-20]],[[40424,46902],[18,-632]],[[40442,46270],[-313,16]],[[40129,46286],[-115,636]],[[42101,48799],[707,-20]],[[42808,48779],[-35,-545]],[[42773,48234],[-600,-281]],[[42173,47953],[-218,23]],[[41955,47976],[146,823]],[[71734,26446],[538,6504]],[[72272,32950],[216,2258]],[[72488,35208],[4654,-308]],[[77142,34900],[-470,-6547],[2344,-155],[-125,-1560]],[[78891,26638],[-395,-4921]],[[78496,21717],[-7108,499]],[[71388,22216],[346,4230]],[[47129,44645],[584,-18]],[[47713,44627],[-81,-970]],[[47632,43657],[-324,22]],[[47308,43679],[-255,17]],[[47053,43696],[76,949]],[[34524,43862],[817,48]],[[35341,43910],[-37,-838]],[[35304,43072],[-156,-9]],[[35148,43063],[-397,-23]],[[34751,43040],[-219,-14]],[[34532,43026],[-48,720]],[[34484,43746],[40,116]],[[49524,43047],[493,858]],[[50017,43905],[602,7]],[[50619,43912],[-74,-944]],[[50545,42968],[-51,-675]],[[32782,43756],[454,-754]],[[33236,43002],[-358,-238]],[[32878,42764],[-288,60]],[[32590,42824],[192,932]],[[39216,46841],[450,66]],[[39666,46907],[62,-379]],[[39728,46528],[-769,34]],[[38959,46562],[257,279]],[[41771,43543],[339,-20]],[[42110,43523],[1204,-72]],[[43314,43451],[-33,-661]],[[43281,42790],[-950,263]],[[42331,43053],[-587,35]],[[46040,51495],[796,-46]],[[46836,51449],[54,-1778]],[[46890,49671],[-838,39]],[[46052,49710],[-12,1785]],[[43915,46575],[473,548],[1045,-60]],[[45433,47063],[315,-1005]],[[45748,46058],[-107,-18]],[[45641,46040],[-1051,-100]],[[44590,45940],[-312,-22]],[[44278,45918],[-521,-47]],[[43757,45871],[5,12]],[[35852,43939],[767,44]],[[36619,43983],[14,-671]],[[35895,43145],[-140,-32]],[[35755,43113],[97,826]],[[72300,53798],[1349,-845],[1502,-626]],[[75151,52327],[-35,-414]],[[75116,51913],[-1181,-318]],[[73935,51595],[-1989,-217]],[[71946,51378],[-477,487],[419,1802],[412,131]],[[41890,49598],[727,-39]],[[42617,49559],[267,-297]],[[42884,49262],[-76,-483]],[[42101,48799],[-271,15]],[[41830,48814],[60,784]],[[27626,44238],[1513,98],[67,1339]],[[29206,45675],[977,-441],[245,-814],[1249,86]],[[31677,44506],[-221,-826]],[[31456,43680],[-787,-40]],[[30669,43640],[-2558,-133],[-485,731]],[[32434,70953],[951,-793],[1651,-409]],[[35036,69751],[16,-327]],[[35052,69424],[-1536,337],[-1197,-338]],[[32319,69423],[115,1530]],[[38806,46079],[772,-76]],[[39578,46003],[-29,-420]],[[39549,45583],[-743,264]],[[38806,45847],[0,232]],[[39070,47727],[467,-27]],[[39537,47700],[61,-374]],[[39598,47326],[62,-384]],[[39660,46942],[6,-35]],[[39216,46841],[-146,886]],[[44166,49838],[1450,-110]],[[45616,49728],[-72,-967]],[[45544,48761],[-1473,496]],[[44071,49257],[95,581]],[[50545,42968],[805,159]],[[51350,43127],[1036,118]],[[52386,43245],[106,-388]],[[52492,42857],[-818,-644]],[[45816,53355],[685,-49]],[[46501,53306],[524,-158]],[[47025,53148],[62,-1724]],[[47087,51424],[-251,25]],[[46040,51495],[-224,1860]],[[35304,43072],[451,41]],[[35907,42653],[-350,-242]],[[35557,42411],[-409,652]],[[39779,46212],[350,74]],[[40442,46270],[41,-460]],[[39877,45623],[-90,543]],[[39787,46166],[-8,46]],[[44740,44062],[25,362]],[[44765,44424],[592,-38]],[[45357,44386],[-25,-343]],[[45332,44043],[-52,-718]],[[45280,43325],[-590,39]],[[44690,43364],[50,698]],[[35794,47842],[1371,-73]],[[37165,47769],[-21,-405]],[[37144,47364],[-1908,-294]],[[35236,47070],[-4,-2]],[[35232,47068],[-226,400]],[[35006,47468],[788,374]],[[31677,44506],[1092,76]],[[32769,44582],[13,-826]],[[32782,43756],[-1242,-71]],[[31540,43685],[-84,-5]],[[18891,64939],[2340,624]],[[21231,65563],[538,-38],[3023,1280]],[[24792,66805],[62,-1452],[3446,-5]],[[28300,65348],[1225,-11],[29,-1624]],[[29554,63713],[-3966,-4890]],[[25588,58823],[-4717,3725]],[[20871,62548],[-2652,2142],[672,249]],[[30212,49398],[2547,-1334]],[[32759,48064],[78,-624]],[[32837,47440],[-2181,94]],[[30656,47534],[-444,1864]],[[43945,51611],[800,-47]],[[44745,51564],[-440,-611]],[[44305,50953],[-683,134]],[[43622,51087],[323,524]],[[34413,52705],[997,-40],[92,-648]],[[35502,52017],[-519,-320]],[[34983,51697],[-622,64]],[[34361,51761],[52,944]],[[45332,44043],[629,-22]],[[45961,44021],[160,-264]],[[45598,43305],[-310,19]],[[45288,43324],[-8,1]],[[52128,43943],[85,3]],[[52213,43946],[464,11]],[[52677,43957],[853,21]],[[53530,43978],[-76,-1187]],[[53454,42791],[-962,66]],[[52386,43245],[-258,698]],[[40769,46254],[1189,944]],[[41671,46209],[-902,45]],[[40247,53783],[96,1715]],[[40343,55498],[1146,-61]],[[41489,55437],[-209,-375]],[[41280,55062],[-388,-1321]],[[40892,53741],[-645,42]],[[41136,42928],[13,197]],[[41744,43088],[-33,-571]],[[41711,42517],[-600,26]],[[41111,42543],[25,385]],[[46135,43756],[440,-29]],[[46575,43727],[478,-31]],[[47308,43679],[-31,-486]],[[47277,43193],[-778,53]],[[41431,55059],[661,100]],[[42092,55159],[-446,-422]],[[41646,54737],[-215,322]],[[34204,50800],[1796,-69]],[[36000,50731],[-327,-1299]],[[35673,49432],[-1365,19]],[[34308,49451],[-98,461]],[[34210,49912],[-6,888]],[[40296,49048],[312,-17]],[[41241,48996],[-5,-152]],[[41236,48844],[6,-530]],[[41242,48314],[-905,49]],[[40337,48363],[-10,164]],[[40327,48527],[-31,521]],[[35029,68936],[1292,20]],[[36321,68956],[-306,-631]],[[36015,68325],[-1004,274]],[[35011,68599],[18,337]],[[39597,60182],[994,-49]],[[40591,60133],[-180,-1239]],[[40411,58894],[-737,0]],[[39674,58894],[-77,1288]],[[34864,38494],[972,-34]],[[35836,38460],[-41,-600]],[[35795,37860],[-956,110]],[[34839,37970],[25,524]],[[40158,51362],[1391,-117]],[[41549,51245],[-14,-231]],[[41535,51014],[-35,-532]],[[40800,50534],[-610,296]],[[40190,50830],[-26,436]],[[40164,51266],[-6,96]],[[41216,44305],[947,22]],[[42163,44327],[-14,-195]],[[42149,44132],[69,-301]],[[42218,43831],[-108,-308]],[[41182,43716],[34,589]],[[35680,57514],[496,-20]],[[36176,57494],[228,-925]],[[36404,56569],[-547,-19]],[[35857,56550],[-177,964]],[[50558,27768],[7066,-529]],[[57624,27239],[-964,-11880]],[[56660,15359],[-77,-1082]],[[56583,14277],[-6840,521]],[[49743,14798],[526,6511],[-198,12],[487,6447]],[[32758,39330],[34,1296],[621,211]],[[33413,40837],[957,-457]],[[34370,40380],[-820,-769],[258,-1846]],[[33808,37765],[-1049,-1522]],[[32759,36243],[-1,3087]],[[39829,43816],[1353,-100]],[[41161,43311],[-1332,505]],[[37979,52807],[966,-43]],[[38907,51886],[-639,31]],[[38268,51917],[-289,890]],[[41236,48844],[594,-30]],[[41955,47976],[-445,25]],[[41510,48001],[-268,313]],[[63553,27123],[551,-1113]],[[64104,26010],[-241,-108]],[[63863,25902],[-727,215],[417,1006]],[[75116,51913],[1085,-144]],[[76201,51769],[-41,-408]],[[76160,51361],[-1105,-301]],[[75055,51060],[61,853]],[[31393,43082],[1197,-258]],[[32590,42824],[-70,-299]],[[32520,42525],[-1250,73]],[[31270,42598],[123,484]],[[41933,44721],[257,36]],[[42190,44757],[-27,-430]],[[41216,44305],[15,317]],[[38170,52990],[784,231]],[[38954,53221],[983,488]],[[39937,53709],[92,-803]],[[37979,52807],[191,183]],[[35808,48380],[394,555]],[[36202,48935],[984,-640]],[[37186,48295],[-21,-526]],[[35794,47842],[14,538]],[[42773,48234],[191,-112]],[[42964,48122],[-69,-843]],[[41984,47259],[189,694]],[[36688,51490],[559,457]],[[37247,51947],[148,-814]],[[37395,51133],[-344,-62]],[[37051,51071],[-499,17]],[[36552,51088],[136,402]],[[75151,52327],[12,179]],[[76281,52432],[265,-618]],[[76546,51814],[-345,-45]],[[39829,57347],[582,1547]],[[40411,58894],[1418,-58],[1252,-381]],[[43081,58455],[244,-1281]],[[43325,57174],[-205,10]],[[43120,57184],[-1256,61]],[[41864,57245],[-1258,62]],[[38465,49751],[638,-32]],[[39103,49719],[148,-682]],[[39251,49037],[-613,110]],[[38638,49147],[-47,461]],[[38591,49608],[-126,143]],[[43760,18015],[538,-424]],[[44298,17591],[-598,-515]],[[43700,17076],[60,939]],[[41440,49625],[450,-27]],[[32520,42525],[-28,-442]],[[32492,42083],[-589,31]],[[31903,42114],[-676,45]],[[31227,42159],[43,439]],[[41315,45754],[745,-69]],[[42060,45685],[-103,-444]],[[39251,49037],[1045,11]],[[40327,48527],[-1225,-78]],[[39102,48449],[-464,698]],[[36745,42865],[35,-122]],[[36780,42743],[-7,-442]],[[36773,42301],[-285,-382]],[[35490,42127],[67,284]],[[44841,45488],[600,110]],[[45441,45598],[-84,-1212]],[[44765,44424],[76,1064]],[[47713,44627],[1017,-711]],[[48014,43632],[-382,25]],[[41862,57199],[-373,-1762]],[[40343,55498],[1519,1701]],[[52674,40199],[4524,-2595]],[[57198,37604],[-77,-1045],[-3530,230],[147,1855],[-1205,67]],[[52533,38711],[141,1488]],[[38756,54147],[252,-11]],[[39008,54136],[918,-344]],[[39926,53792],[11,-83]],[[38954,53221],[-198,926]],[[37354,46120],[355,-15]],[[37709,46105],[800,-44],[264,-849]],[[38773,45212],[37,-478]],[[38810,44734],[-1518,478]],[[37292,45212],[62,908]],[[42287,42416],[44,637]],[[43281,42790],[-424,-577]],[[42857,42213],[-570,203]],[[38773,45212],[33,635]],[[39549,45583],[-16,-263]],[[39496,44626],[-605,-97]],[[38891,44529],[-81,205]],[[30188,47549],[468,-15]],[[32837,47440],[-33,-1282]],[[32804,46158],[-2589,-540]],[[30215,45618],[390,645],[-417,1286]],[[6924,41125],[364,1273],[1514,5593],[-382,20],[79,696]],[[8499,48707],[997,-1133],[52,-1247],[580,-398],[1025,-1575],[1505,-1061],[-235,-792]],[[12423,42501],[-2511,-209],[310,-573]],[[10222,41719],[-1107,-133]],[[9115,41586],[-2191,-461]],[[39301,32778],[3447,-185]],[[42748,32593],[1178,-65]],[[43926,32528],[-250,-4393],[1571,-83],[-446,-1386],[-975,-967],[-1988,152],[-323,-838],[253,-1102],[-855,-298]],[[40913,23613],[-1410,1760]],[[39503,25373],[-215,1230],[418,689],[-670,456],[974,709],[-733,3262],[24,1059]],[[66646,55915],[5761,-331]],[[72407,55584],[-30,-334]],[[72377,55250],[-77,-1452]],[[71946,51378],[-1789,121]],[[70157,51499],[-3739,1036]],[[66418,52535],[228,3380]],[[32741,57634],[1851,-72]],[[34592,57562],[-34,-1090]],[[34558,56472],[-14,-487],[1979,-64]],[[36523,55921],[76,-418]],[[36599,55503],[-522,-52]],[[36077,55451],[-2881,-132]],[[35060,39528],[776,-1068]],[[34864,38494],[196,1034]],[[38326,51358],[1838,-92]],[[40190,50830],[-1329,100],[126,-692]],[[38987,50238],[-635,-175]],[[38352,50063],[-26,1295]],[[41540,52462],[33,492]],[[43080,53138],[-58,-947]],[[43022,52191],[-1491,124]],[[41531,52315],[9,147]],[[35673,49432],[529,-497]],[[35808,48380],[-1532,221]],[[34276,48601],[32,850]],[[46291,60518],[472,-50],[845,-1109],[-313,-1369]],[[46146,58045],[145,2473]],[[47341,39846],[1177,-718],[630,968]],[[49148,40096],[145,53]],[[49293,40149],[525,232]],[[51692,40716],[93,-6]],[[51785,40710],[939,-56]],[[52724,40654],[-50,-455]],[[52533,38711],[-55,-1287]],[[52478,37424],[-1745,135],[-69,-806]],[[50664,36753],[-1424,706],[-815,702]],[[48425,38161],[-1143,902]],[[47282,39063],[59,783]],[[39660,46942],[354,-20]],[[39779,46212],[-51,316]],[[9115,41586],[-255,-2031],[3069,-364]],[[11929,39191],[92,14]],[[12021,39205],[585,-622],[1077,447]],[[13683,39030],[2064,858]],[[15747,39888],[233,-550],[2039,72],[1449,438]],[[19468,39848],[5244,266]],[[24712,40114],[432,-6735]],[[25144,33379],[-8,-235]],[[25136,33144],[-1304,-1270],[-2138,438],[-1999,-901]],[[19695,31411],[-1726,-1212],[-1240,511],[-467,799],[-1651,174],[-2198,2629],[-439,1764],[-743,-92],[-2963,664],[-304,777],[-2132,67]],[[5832,37492],[1092,3633]],[[8499,48707],[218,2059]],[[8717,50766],[7849,795],[1629,-3689]],[[18195,47872],[205,-1503],[-1196,-631],[200,-2511],[1608,-360]],[[19012,42867],[393,-1307],[63,-1712]],[[15747,39888],[-1048,1630],[-851,-264],[122,1335],[-1547,-88]],[[35036,69751],[974,651]],[[36010,70402],[311,-1446]],[[35029,68936],[23,488]],[[48318,48986],[2392,1036],[1041,1159]],[[51751,51181],[2625,-147]],[[54376,51034],[-122,-1739]],[[54254,49295],[-2757,177],[-31,-775],[-1145,-208]],[[50321,48489],[-2026,124]],[[48295,48613],[23,373]],[[40199,42469],[905,-46]],[[41104,42423],[-24,-389]],[[41080,42034],[-829,8]],[[41104,42423],[7,120]],[[41711,42517],[160,-78]],[[41871,42439],[-633,-554]],[[41238,41885],[-158,149]],[[40769,52558],[771,-96]],[[41531,52315],[-39,-574]],[[41492,51741],[-1253,76]],[[40239,51817],[530,741]],[[78597,16148],[1488,732],[-66,410]],[[80019,17290],[5387,-337],[-99,-2107],[6409,-411]],[[91716,14435],[-382,-5055],[-123,-1627],[-4246,300],[-2692,188],[-238,-2757]],[[84035,5484],[-525,366],[-1656,-316],[-1318,1798],[-912,61],[52,1419],[-400,883]],[[79276,9695],[1041,-659],[537,140],[921,1167],[-400,993],[175,721],[-561,2272],[-624,1329],[-2067,147]],[[78298,15805],[299,343]],[[44506,53793],[195,922]],[[44701,54715],[907,-423]],[[45608,54292],[208,-937]],[[45816,53355],[-767,-82]],[[45049,53273],[-639,-86]],[[44410,53187],[96,606]],[[39003,38403],[1799,-512]],[[40802,37891],[1184,-64]],[[41986,37827],[2191,-65]],[[44177,37762],[-303,-1176],[158,-886]],[[44032,35700],[73,-1017],[-1176,33],[-674,-1445],[493,-678]],[[39301,32778],[-264,1000],[412,554],[-862,3512],[416,559]],[[45433,47063],[44,631]],[[45477,47694],[711,388]],[[46188,48082],[1628,-323]],[[47816,47759],[408,-149]],[[48224,47610],[577,-324],[84,-984]],[[48885,46302],[-3137,-244]],[[34370,40380],[1071,-247]],[[35441,40133],[-381,-605]],[[34839,37970],[-1031,-205]],[[37117,46816],[386,-22]],[[37503,46794],[206,-689]],[[37354,46120],[-685,344]],[[36669,46464],[448,352]],[[25268,44085],[2358,153]],[[30669,43640],[-326,-1435],[884,-46]],[[31903,42114],[-3615,-2412]],[[28288,39702],[-1415,-209],[81,813],[-1015,1125],[8,538]],[[25947,41969],[306,274],[-985,1842]],[[73080,65404],[6041,-311]],[[79121,65093],[-594,-9126]],[[78527,55967],[-1247,1074],[-661,-321],[-1412,454],[-1085,-529],[-1554,1022],[-161,-2083]],[[66646,55915],[356,5510],[5796,-320],[282,4299]],[[73160,43323],[-83,-1219]],[[73077,42104],[-651,-393],[-4330,253]],[[68096,41964],[527,1039],[799,-40],[3738,360]],[[49770,46447],[2463,702],[1873,-6]],[[54106,47143],[-49,-826]],[[54057,46317],[-2539,-338]],[[51518,45979],[-597,-80]],[[50921,45899],[-763,-103]],[[50158,45796],[-453,-71]],[[49705,45725],[65,722]],[[44431,73851],[289,4125]],[[44720,77976],[67,1104],[6672,-365]],[[51459,78715],[10692,-545]],[[62151,78170],[-295,-4544],[-54,-826],[-6042,335]],[[55760,73135],[-11335,631],[6,85]],[[39102,48449],[-1159,185]],[[37943,48634],[-92,408]],[[37851,49042],[740,566]],[[76546,51814],[599,-23]],[[77145,51791],[525,-784]],[[77670,51007],[-365,-742],[-1189,71]],[[76116,50336],[44,1025]],[[74347,50495],[708,565]],[[76116,50336],[-828,51]],[[75288,50387],[-941,108]],[[29554,63713],[60,-2927]],[[29614,60786],[51,-2424]],[[29665,58362],[4,-513]],[[29669,57849],[-14,-2666]],[[29655,55183],[-514,5]],[[29141,55188],[-1699,44]],[[27442,55232],[-3756,87]],[[23686,55319],[-230,1402],[1410,1040],[722,1062]],[[28288,39702],[575,-432],[3441,-119],[454,179]],[[32759,36243],[-44,-3211]],[[32715,33032],[-2019,48]],[[30696,33080],[-5552,299]],[[24712,40114],[-79,1026],[1314,829]],[[45441,45598],[8,1]],[[45449,45599],[544,-340]],[[45993,45259],[-636,-873]],[[58102,33768],[6835,-382]],[[64937,33386],[-200,-4374]],[[64737,29012],[-1169,48],[229,-821]],[[63797,28239],[-781,-629],[-784,-49]],[[62232,27561],[-1561,1021],[-107,-1131]],[[60564,27451],[-998,-329],[-1942,117]],[[57624,27239],[478,6529]],[[29228,49699],[880,-245]],[[30108,49454],[104,-56]],[[30188,47549],[-545,-15]],[[29643,47534],[161,1039],[-576,1126]],[[30907,49535],[1582,176]],[[32489,49711],[270,-1647]],[[30108,49454],[799,81]],[[39578,46003],[209,163]],[[43314,43451],[256,-16]],[[43570,43435],[68,-4]],[[43638,43431],[495,-735]],[[44133,42696],[150,-420]],[[44283,42276],[358,-1056]],[[44641,41220],[14,-23]],[[44655,41197],[-1857,98]],[[42798,41295],[59,918]],[[42964,48122],[1130,-149]],[[44094,47973],[-265,-746]],[[39829,43816],[-455,-77]],[[39374,43739],[423,684]],[[44776,58131],[534,1774],[-1186,60]],[[44124,59965],[555,801],[1612,-248]],[[38826,79367],[247,3754],[3584,456],[12,2434],[8,2545]],[[42677,88556],[3542,-43],[-7,-1081],[2301,-47],[-116,-3056],[1078,-284],[2253,-169]],[[51728,83876],[-269,-5161]],[[44720,77976],[-5972,287]],[[38748,78263],[78,1104]],[[60408,50666],[5836,-326]],[[66244,50340],[-4269,-2452],[-137,-2831]],[[61838,45057],[-2205,110]],[[59633,45167],[568,2355],[207,3144]],[[35006,47468],[-730,1133]],[[49002,55762],[1036,-60]],[[50038,55702],[114,-1777]],[[50152,53925],[-599,-260]],[[49553,53665],[-1285,-515]],[[48268,53150],[-51,1541],[785,1071]],[[35888,46615],[781,-151]],[[37292,45212],[-944,412],[-460,991]],[[41871,42439],[416,-23]],[[42798,41295],[-583,33]],[[42215,41328],[-1173,72]],[[41042,41400],[196,485]],[[33511,52302],[941,1268]],[[34452,53570],[-39,-865]],[[34361,51761],[-630,46]],[[33731,51807],[-220,495]],[[44177,37762],[208,1260]],[[44385,39022],[2897,41]],[[48425,38161],[-54,-445]],[[48371,37716],[-2007,-304],[-455,-1759]],[[45909,35653],[-1877,47]],[[37135,47172],[1332,-105],[96,-487]],[[38563,46580],[-1060,214]],[[37117,46816],[18,356]],[[41916,53956],[1264,743]],[[43180,54699],[-34,-518]],[[43146,54181],[-39,-631]],[[41970,53691],[-54,265]],[[36885,53936],[1133,-64]],[[38018,53872],[152,-882]],[[38268,51917],[8,-8]],[[38276,51909],[-1029,38]],[[37247,51947],[-257,1410]],[[36990,53357],[-105,579]],[[33214,67118],[1797,1481]],[[36015,68325],[1452,-32],[717,643]],[[38184,68936],[134,-310]],[[38318,68626],[-304,-2746]],[[38014,65880],[-4722,213]],[[33292,66093],[-78,1025]],[[30696,33080],[-1008,-442]],[[29688,32638],[785,-1141],[944,-135]],[[31417,31362],[-227,-1143],[-619,-978],[1680,-1001],[-400,-795]],[[31851,27445],[-2644,-29],[792,-1677],[-5311,307]],[[24688,26046],[448,7098]],[[45272,19410],[-70,-1396]],[[45202,18014],[-904,-423]],[[43760,18015],[-390,162]],[[43370,18177],[393,1013],[886,-277],[623,497]],[[50728,29970],[1110,-63],[147,1075],[2165,-187],[36,1376],[547,-31],[228,1808]],[[54961,33948],[3141,-177]],[[58102,33771],[0,-3]],[[50558,27768],[170,2202]],[[39968,42391],[153,380]],[[40121,42771],[1015,157]],[[39931,42310],[37,81]],[[47929,45504],[1776,221]],[[50158,45796],[-141,-1891]],[[49117,43903],[-1188,1601]],[[53085,42026],[916,123]],[[54001,42149],[575,-2],[-107,-1605]],[[54469,40542],[-768,51]],[[53701,40593],[-616,1433]],[[79126,50071],[811,-123],[435,1019],[3317,545],[-517,870],[-1048,-249]],[[82124,52133],[127,410],[-1791,1200],[-792,111],[-93,916]],[[79575,54770],[4404,-280],[5800,-177]],[[89779,54313],[-109,-2358],[-386,-8388],[-2020,69]],[[87264,43636],[-3855,178],[299,5396],[-4631,264]],[[79077,49474],[49,597]],[[45993,45259],[-32,-1238]],[[78449,54851],[1126,-81]],[[82124,52133],[-4979,-342]],[[77145,51791],[74,826],[780,607],[450,1627]],[[33125,79604],[5701,-237]],[[38748,78263],[-431,-6906]],[[38317,71357],[-2623,102]],[[35694,71459],[-1561,119]],[[34133,71578],[-1644,107],[-55,-732]],[[32434,70953],[-862,2263],[1037,-66],[516,6454]],[[29614,60786],[1837,177],[710,-278]],[[32161,60685],[236,-2023]],[[32397,58662],[-821,78],[-1576,-588],[-335,210]],[[42820,50331],[120,613]],[[42940,50944],[47,720]],[[42987,51664],[458,-28]],[[43445,51636],[500,-25]],[[43622,51087],[-626,-1076]],[[42996,50011],[-264,-3]],[[42732,50008],[88,323]],[[40892,53741],[727,-33]],[[40769,52558],[123,1183]],[[44154,44081],[586,-19]],[[44690,43364],[-1052,67]],[[43638,43431],[-51,667]],[[43587,44098],[567,-17]],[[52724,40654],[977,-61]],[[54469,40542],[1140,-74],[104,-1085],[2761,-196]],[[58474,39187],[-160,-2246]],[[58314,36941],[-1116,663]],[[29669,57849],[1038,-72]],[[30901,56692],[-222,-993],[-1024,-516]],[[43552,60702],[133,2084]],[[43685,62786],[2851,-151]],[[46536,62635],[1416,-89]],[[47952,62546],[-28,-1280],[736,-1397],[-591,-1115],[1834,-227],[-197,-1694]],[[49706,56833],[-900,47]],[[48806,56880],[-1644,95]],[[44124,59965],[-677,-946]],[[43447,59019],[105,1683]],[[45641,46040],[-192,-441]],[[44841,45488],[-251,452]],[[48712,95104],[89,4339],[556,556],[3477,-27],[4016,-71],[2336,-13],[3801,-119],[63,-3204],[-1155,22],[53,-2161]],[[61948,94426],[-9775,181],[-73,-2697]],[[52100,91910],[-3459,18],[71,3176]],[[48371,37716],[-95,-1204],[-1605,-1149],[-581,-796]],[[46090,34567],[-181,1086]],[[38210,69432],[4053,2273],[629,899],[1539,1247]],[[55760,73135],[-357,-5374]],[[55403,67761],[-6069,326]],[[49334,68087],[-5275,265]],[[44059,68352],[-3400,165]],[[40659,68517],[-2341,109]],[[38184,68936],[26,496]],[[34577,42357],[174,683]],[[65503,37157],[-157,-2708]],[[65346,34449],[-3031,152],[-1012,595],[93,1619],[2315,-115],[1792,457]],[[48432,42496],[-879,89]],[[47553,42585],[-276,608]],[[49334,68087],[-449,-1314],[-308,-2122],[-1130,-1503],[-911,-513]],[[43685,62786],[374,5566]],[[35441,40133],[1317,-319]],[[36758,39814],[942,-538]],[[37700,39276],[-936,-1481],[-969,65]],[[77142,34900],[4020,-274],[846,1026],[1507,310],[1563,-569],[1688,-30],[2514,638],[1086,-278],[838,334]],[[91204,36057],[-156,-2068],[1926,-122]],[[92974,33867],[-18,-1386],[-1214,-747],[-318,-782],[501,-805],[-119,-1133]],[[91806,29014],[-1096,-576]],[[90710,28438],[-2544,41],[-422,-1137],[-1216,-331]],[[86528,27011],[-2167,261],[-583,421],[-1233,17],[-1375,-337],[-1142,-680],[-1137,-55]],[[40424,46902],[-26,441]],[[40398,47343],[936,-47]],[[41334,47296],[650,-37]],[[40769,46254],[-327,16]],[[39084,55556],[-76,-1420]],[[38756,54147],[-815,262]],[[37941,54409],[182,1160]],[[43022,52191],[-35,-527]],[[42987,51664],[-1495,77]],[[44133,42696],[1155,628]],[[45558,42834],[11,-629]],[[45569,42205],[-298,5]],[[45271,42210],[-988,66]],[[45569,42205],[800,179]],[[46369,42384],[242,-1324]],[[46611,41060],[-1343,90]],[[45268,41150],[3,1060]],[[51728,83876],[39,759],[1328,157],[86,3320],[1203,-41]],[[54384,88071],[7645,-102]],[[62029,87969],[-2,-2065],[592,71],[-296,-4419],[-172,-3386]],[[53530,43978],[1752,43]],[[55282,44021],[1382,29]],[[56664,44050],[-31,-1451]],[[56633,42599],[-2588,167]],[[54045,42766],[-591,25]],[[37777,61713],[237,4167]],[[40659,68517],[430,-641],[-203,-2909],[-1155,68],[-52,-1026],[1536,-54],[-543,-2209],[-81,-1613]],[[39597,60182],[-1891,85]],[[37706,60267],[71,1446]],[[58314,36941],[-212,-3170]],[[54961,33948],[-2733,204]],[[52228,34152],[250,3272]],[[51206,43924],[922,19]],[[51350,43127],[-144,797]],[[36599,55503],[286,-1567]],[[36885,53936],[-2021,251]],[[34864,54187],[1213,1264]],[[40479,56645],[-587,-1125]],[[39892,55520],[-808,36]],[[63797,28239],[598,-1141]],[[64395,27098],[-842,25]],[[63553,27123],[-1321,438]],[[38018,53872],[-77,537]],[[35795,37860],[-276,-4952]],[[35519,32908],[-2804,124]],[[33731,51807],[473,-1007]],[[34210,49912],[-481,779],[-1534,300]],[[32195,50991],[-217,947]],[[31978,51938],[1533,364]],[[37134,41233],[1649,-348],[738,242]],[[40007,39997],[-1004,-1594]],[[39003,38403],[-1303,873]],[[36758,39814],[376,1419]],[[37777,61713],[-2440,-13],[-30,-1185],[-615,28]],[[34692,60543],[-1727,98]],[[32965,60641],[327,5452]],[[44745,51564],[1295,-69]],[[46052,49710],[-436,18]],[[44166,49838],[139,1115]],[[39892,55520],[451,-22]],[[40247,53783],[-321,9]],[[79126,50071],[-224,934],[-1232,2]],[[76516,13286],[603,323],[1179,2196]],[[79276,9695],[-842,-348],[-1471,539]],[[76963,9886],[-543,2334],[96,1066]],[[61596,15074],[1827,-91],[156,3303]],[[63579,18286],[7453,-426],[356,4356]],[[78496,21717],[-329,-4309],[1852,-118]],[[78597,16148],[-3360,330],[-1171,-259],[-852,-1477]],[[73214,14742],[-1639,129],[-812,-506]],[[70763,14365],[-2870,-1790],[-3226,-733],[-948,-572]],[[63719,11270],[-968,1316],[-422,1685],[-733,803]],[[42884,49262],[1187,-5]],[[44071,49257],[23,-1284]],[[73935,51595],[1120,-535]],[[74347,50495],[-1592,-605],[-680,353],[-1621,-206]],[[70454,50037],[-297,1462]],[[19012,42867],[3392,219],[656,-110],[1409,936],[799,173]],[[37652,58843],[2022,51]],[[38206,57418],[-48,2]],[[38158,57420],[-506,1423]],[[34133,71578],[903,-1827]],[[55403,67761],[-348,-5652]],[[55055,62109],[-7103,437]],[[31540,43685],[-147,-603]],[[30293,51343],[1685,595]],[[32195,50991],[294,-1280]],[[30907,49535],[-401,454],[-213,1354]],[[32161,60685],[804,-44]],[[34692,60543],[610,-1582]],[[35302,58961],[-625,22]],[[34677,58983],[-2002,76],[-278,-397]],[[37706,60267],[-54,-1424]],[[37652,58843],[-2350,118]],[[56633,42599],[2058,-133]],[[58691,42466],[-217,-3279]],[[54001,42149],[44,617]],[[38317,71357],[-107,-1925]],[[36010,70402],[-316,1057]],[[34552,41896],[-777,198]],[[33775,42094],[757,932]],[[23924,14148],[356,5508]],[[24280,19656],[1066,-1264],[1090,1087],[851,-549],[2270,-411],[1606,556],[1340,-804],[10305,-373]],[[42808,17898],[47,-140]],[[42855,17758],[-1057,-786],[485,-923],[-260,-814]],[[42023,15235],[-2248,-1089],[-186,-2578],[968,-848]],[[40557,10720],[-9997,399],[-6830,331],[194,2698]],[[9184,55508],[13365,-161]],[[22549,55347],[-1282,-1205],[-1083,-2146],[110,-1375],[954,110],[3357,-469]],[[24605,50262],[-99,-2631]],[[24506,47631],[-4504,240],[-1807,1]],[[8717,50766],[467,4742]],[[70763,14365],[-218,-3580],[744,-1238],[2049,631],[1349,-268],[2276,-24]],[[84035,5484],[-330,-3809],[-13799,857],[-191,-1947],[-5612,357]],[[64103,942],[-263,1233],[77,1480],[938,2169],[-1108,298],[218,885],[-353,1273],[912,601],[230,1058],[-1011,-129],[-827,764],[803,696]],[[39301,32778],[-3782,130]],[[12386,71965],[5707,1354],[3688,-594],[2390,45],[613,-395]],[[24784,72375],[8,-5570]],[[21231,65563],[-349,2217],[-421,1004],[-3557,-281],[-253,992],[-885,-80],[-290,-745]],[[15476,68670],[-1086,912],[-293,722],[-1636,525],[-75,1136]],[[15675,65262],[382,339]],[[16057,65601],[1510,401]],[[17567,66002],[-2,-1407],[-1733,-1697]],[[15832,62898],[-157,2364]],[[51785,40710],[441,1063],[859,253]],[[44166,49838],[-1170,173]],[[40591,60133],[1818,-96],[-106,769],[1249,-104]],[[43447,59019],[-366,-564]],[[49706,56833],[3223,-164]],[[52929,56669],[-52,-1130],[-1188,69]],[[51689,55608],[-1651,94]],[[49002,55762],[-196,1118]],[[43180,54699],[43,745]],[[43223,55444],[552,-10]],[[43775,55434],[895,-56]],[[44670,55378],[31,-663]],[[44506,53793],[-1360,388]],[[28931,47458],[712,76]],[[30215,45618],[-1009,57]],[[29206,45675],[-275,1783]],[[13683,39030],[-1662,175]],[[11929,39191],[-511,849],[399,665],[-1298,531],[-297,483]],[[34829,46879],[1637,-2096],[444,-290]],[[36910,44493],[-1466,-88]],[[35444,44405],[-96,355]],[[35348,44760],[-945,1945]],[[34403,46705],[426,174]],[[78452,54885],[-3,-34]],[[75486,54554],[-191,569]],[[75295,55123],[3157,-238]],[[32492,42083],[921,-1246]],[[32786,45524],[1179,-122],[352,-714],[1031,72]],[[35444,44405],[-920,-543]],[[34484,43746],[-1248,-744]],[[32769,44582],[17,942]],[[37359,44066],[1586,229]],[[38945,44295],[139,-650]],[[39084,43645],[-1204,-225]],[[37880,43420],[-521,646]],[[39598,47326],[800,17]],[[33283,54632],[1205,-198]],[[34488,54434],[-36,-864]],[[33511,52302],[-373,1362],[145,968]],[[33062,55299],[-1219,-702]],[[31843,54597],[-2031,24],[-671,567]],[[45049,53273],[-304,-1709]],[[43445,51636],[734,628],[231,923]],[[44385,39022],[270,2175]],[[44641,41220],[627,-70]],[[46611,41060],[706,-47]],[[47430,41005],[-89,-1159]],[[36000,50731],[-6,513]],[[35994,51244],[558,-156]],[[37051,51071],[218,-1247]],[[37269,49824],[-541,-490],[-1055,98]],[[34558,56472],[1299,78]],[[36404,56569],[119,-648]],[[44670,55378],[1655,-225],[794,899]],[[47119,56052],[-386,-1827]],[[46733,54225],[-1125,67]],[[38276,51909],[50,-551]],[[38352,50063],[113,-312]],[[37851,49042],[-456,2091]],[[33214,67118],[-1040,139]],[[32174,67257],[145,2166]],[[64737,29012],[3030,-131],[-912,-2000]],[[66855,26881],[-914,-424]],[[65941,26457],[-1113,355]],[[64828,26812],[-433,286]],[[43005,45795],[-243,-179]],[[42762,45616],[-702,69]],[[45544,48761],[-67,-1067]],[[42808,17898],[-11,123]],[[42797,18021],[573,156]],[[43700,17076],[-845,682]],[[40385,41465],[657,-65]],[[42215,41328],[-72,-1082]],[[42661,39121],[-198,11]],[[42463,39132],[-302,438],[-1228,105]],[[40933,39675],[16,242]],[[44385,39022],[-1162,67]],[[41495,50400],[1325,-69]],[[42732,50008],[-115,-449]],[[36599,55503],[1524,66]],[[37144,47364],[-9,-192]],[[35888,46615],[-652,455]],[[56664,44050],[88,1288]],[[56752,45338],[2881,-171]],[[61838,45057],[1166,-60],[1650,-1791],[1166,-72]],[[65820,43134],[-48,-1047]],[[65772,42087],[-7081,379]],[[66244,50340],[-424,-7206]],[[44246,57131],[-921,43]],[[38891,44529],[54,-234]],[[37359,44066],[-449,427]],[[34829,46879],[403,189]],[[24605,50262],[-83,638],[2556,-85],[73,843]],[[27151,51658],[328,2]],[[27479,51660],[1159,-1920]],[[28638,49740],[293,-2282]],[[25268,44085],[-476,1203],[204,1031],[-490,1312]],[[38563,46580],[60,-3]],[[38623,46577],[183,-498]],[[76516,13286],[-1622,275],[-1680,1181]],[[46067,57039],[-493,-1376],[-1015,76]],[[44559,55739],[-313,1392]],[[47749,45101],[180,403]],[[47713,44627],[36,474]],[[42940,50944],[-1405,70]],[[41549,51245],[-57,496]],[[48885,46302],[885,145]],[[47749,45101],[-561,309]],[[47188,45410],[-582,-73]],[[46606,45337],[-613,-78]],[[40337,48363],[9,-155]],[[39435,48202],[-386,-34]],[[39049,48168],[53,281]],[[48393,50095],[77,1254]],[[48470,51349],[1387,-68]],[[49857,51281],[1894,-100]],[[48318,48986],[75,1109]],[[36019,51998],[589,-24],[382,1383]],[[36688,51490],[-669,508]],[[72858,39462],[219,2642]],[[73077,42104],[2740,-181],[-30,-406],[11337,-680]],[[87124,40837],[4395,-288],[-315,-4492]],[[72488,35208],[370,4254]],[[50321,48489],[-81,-1231],[-470,-811]],[[48224,47610],[71,1003]],[[73160,43323],[50,1459],[757,868]],[[73967,45650],[316,678],[1008,-65],[219,2104],[2618,-187],[774,-493],[175,1787]],[[87264,43636],[-140,-2799]],[[55403,67761],[14361,-772],[2497,-138],[-72,-1399],[891,-48]],[[66646,55915],[-5643,343]],[[61003,56258],[404,720],[117,2009],[-587,33],[146,2387],[-1240,53],[-410,414],[-4378,235]],[[54515,53153],[208,3420]],[[54723,56573],[6280,-315]],[[66418,52535],[-174,-2195]],[[60408,50666],[-3937,236]],[[56471,50902],[-2095,132]],[[54376,51034],[139,2119]],[[38623,46577],[336,-15]],[[33196,55319],[87,-687]],[[31978,51938],[-336,1469],[201,1190]],[[24688,26046],[-80,-1333]],[[24608,24713],[-5172,313]],[[19436,25026],[259,6385]],[[44154,44081],[124,1837]],[[47188,45410],[-59,-765]],[[46575,43727],[31,1610]],[[50152,53925],[1557,48]],[[51709,53973],[1537,-774],[1269,-46]],[[49857,51281],[-304,2384]],[[48037,40965],[444,26]],[[48481,40991],[667,-895]],[[36780,42743],[1128,499]],[[37908,43242],[-135,-979]],[[37773,42263],[-1000,38]],[[41280,55062],[151,-3]],[[41646,54737],[270,-781]],[[52929,56669],[1794,-96]],[[51709,53973],[-20,1635]],[[61948,94426],[1188,3],[71,-6469],[-1178,9]],[[54384,88071],[49,2188],[-1788,25],[14,1080],[-559,546]],[[46890,49671],[-17,-231]],[[46873,49440],[-19,-990],[-666,-368]],[[65503,37157],[269,4930]],[[65772,42087],[2324,-123]],[[68096,41964],[-1237,-2414],[-122,-1871],[1769,-101],[110,1622],[1787,-100],[2455,362]],[[72272,32950],[-6985,420]],[[65287,33370],[59,1079]],[[46605,43096],[427,-571]],[[47032,42525],[-663,-141]],[[32397,58662],[344,-1028]],[[41864,57245],[-2,-46]],[[37186,48295],[31,576]],[[37217,48871],[726,-237]],[[39049,48168],[21,-441]],[[28638,49740],[590,-41]],[[39374,43739],[-290,-94]],[[37908,43242],[-28,178]],[[39374,43739],[747,-968]],[[39968,42391],[-1643,196],[-552,-324]],[[55055,62109],[-332,-5536]],[[91806,29014],[1817,-418],[1036,-526],[1600,237],[359,-348]],[[96618,27959],[-57,-860],[3438,-221],[-944,-12914],[-487,45],[-5823,362]],[[92745,14371],[414,1817],[-116,865],[690,805],[-1308,1231],[-466,1200],[-1998,2301]],[[89961,22590],[494,1955],[1305,1681],[-8,574],[-1131,118],[89,1520]],[[52228,34152],[-1168,98],[-50,-640]],[[51010,33610],[-550,449],[204,2694]],[[78527,55967],[-75,-1082]],[[75295,55123],[-2918,127]],[[32878,42764],[897,-670]],[[34135,41092],[-722,-255]],[[64402,24066],[1283,24],[-455,952]],[[65230,25042],[803,349]],[[66033,25391],[2563,-381],[654,493],[128,1091]],[[69378,26594],[2356,-148]],[[63579,18286],[122,2147],[626,-27],[75,3660]],[[39536,47706],[1,-6]],[[50619,43912],[587,12]],[[63863,25902],[-277,-129]],[[63586,25773],[-1309,-847],[-1127,-3],[175,2219],[-761,309]],[[36167,41448],[967,-215]],[[47032,42525],[521,60]],[[40933,39675],[-131,-1784]],[[73967,45650],[-1770,1010]],[[72197,46660],[599,528],[1280,2044],[1212,1155]],[[32804,46158],[1599,547]],[[32786,45524],[18,634]],[[42463,39132],[-477,-1305]],[[40038,51826],[93,-4]],[[40131,51822],[27,-460]],[[48481,40991],[812,-842]],[[64828,26812],[-109,-480]],[[64719,26332],[-366,-683]],[[64353,25649],[-249,361]],[[43120,57184],[790,-846],[-135,-904]],[[43223,55444],[-1131,-285]],[[54254,49295],[-148,-2152]],[[47816,47759],[-359,896]],[[47457,48655],[158,800],[778,640]],[[35502,52017],[517,-19]],[[35994,51244],[-1011,453]],[[64719,26332],[988,-192]],[[65707,26140],[326,-749]],[[65230,25042],[-877,607]],[[42762,45616],[-313,-824]],[[42449,44792],[-259,-35]],[[51010,33610],[-119,-1527]],[[50891,32083],[-4640,291]],[[46251,32374],[-521,1376],[360,817]],[[41510,48001],[-176,-705]],[[40398,47343],[-21,439]],[[18891,64939],[-1324,1063]],[[16057,65601],[-14,1671],[380,515],[-947,883]],[[72197,46660],[-1862,-641],[119,4018]],[[378,30457],[3630,-315],[1421,5881],[403,1469]],[[19436,25026],[-7606,398],[-4266,336],[-7564,540],[378,4157]],[[43926,32528],[2325,-154]],[[50891,32083],[-163,-2113]],[[49743,14798],[-4703,283]],[[45040,15081],[162,2933]],[[45272,19410],[147,2159],[-4109,163]],[[41310,21732],[-514,751],[117,1130]],[[46873,49440],[584,-785]],[[92974,33867],[4035,-213],[-228,-3350],[-163,-2345]],[[20871,62548],[-1687,-1769],[-2131,2257],[-1221,-138]],[[47162,56975],[-43,-923]],[[44670,55378],[-111,361]],[[27479,51660],[1774,77],[1040,-394]],[[34864,54187],[-376,247]],[[27151,51658],[291,3574]],[[43107,53550],[1303,-363]],[[40296,49048],[-38,644]],[[40258,49692],[-60,1010]],[[40198,50702],[-8,128]],[[7187,74333],[248,2665]],[[24809,78284],[-25,-5909]],[[12386,71965],[-3893,1221],[-1441,-260]],[[7052,72926],[135,1407]],[[51796,45165],[1001,166],[-120,-1374]],[[52213,43946],[-417,1219]],[[38158,57420],[-1982,74]],[[35680,57514],[-1064,47]],[[34616,57561],[61,1422]],[[22549,55347],[1137,-28]],[[39503,25373],[-4071,147],[-681,1979],[-2900,-54]],[[31417,31362],[1062,550],[-972,695],[-1819,31]],[[65287,33370],[-350,16]],[[46733,54225],[-232,-919]],[[69378,26594],[-1102,65],[-520,483],[-901,-261]],[[37359,44066],[-740,-83]],[[35852,43939],[-511,-29]],[[42449,44792],[722,96]],[[43171,44888],[416,-790]],[[43587,44098],[-1438,34]],[[47025,53148],[1240,-41]],[[48265,53107],[205,-1758]],[[48470,51349],[-1383,75]],[[42797,18021],[-327,434],[-56,1604],[-1104,1673]],[[42677,88556],[15,6456],[6020,92]],[[42023,15235],[3017,-154]],[[56583,14277],[-565,-6373]],[[56018,7904],[-569,-21],[-10235,636],[-5001,252],[1093,755],[102,784],[-851,410]],[[40198,50702],[-1211,-464]],[[54057,46317],[1238,218],[-13,-2514]],[[53530,43978],[110,1524],[417,815]],[[43570,43435],[-1352,396]],[[40258,49692],[-1155,27]],[[56471,50902],[359,-2522],[-78,-3042]],[[48265,53107],[3,43]],[[64402,24066],[-1270,-200],[454,1907]],[[24844,80122],[1257,-91],[7024,-427]],[[32174,67257],[-1001,62],[-490,-1044],[-2485,-258],[102,-669]],[[86528,27011],[-64,-2548],[941,-1708],[2556,-165]],[[92745,14371],[-1029,64]],[[43171,44888],[586,983]],[[34592,57562],[24,-1]],[[61596,15074],[-4936,285]],[[79121,65093],[10339,-140],[803,-33],[-262,-5310],[-222,-5297]],[[34276,48601],[-1517,-537]],[[51796,45165],[-278,814]],[[51206,43924],[-285,1975]],[[40239,51817],[-108,5]],[[15675,65262],[-2823,-1230],[-1052,-197],[-3228,446],[-1008,-158]],[[7564,64123],[-1303,112],[791,8691]],[[24280,19656],[328,5057]],[[9184,55508],[38,647],[528,7792],[-2186,176]],[[37217,48871],[52,953]],[[65707,26140],[234,317]],[[64103,942],[-1558,124],[-79,-1066],[-6931,488],[483,7416]]],"transform":{"scale":[0.000016291272912729074,0.000013509745097451026],"translate":[-83.65333,39.361565999999996]},"objects":{"in":{"type":"GeometryCollection","geometries":[{"arcs":[[0,1,2,3,4]],"type":"Polygon","properties":{"geoid":"39049005610","name":"56.10"},"id":"39049005610"},{"arcs":[[5,6,7,8]],"type":"Polygon","properties":{"geoid":"39049006822","name":"68.22"},"id":"39049006822"},{"arcs":[[9,10,11,12]],"type":"Polygon","properties":{"geoid":"39049004820","name":"48.20"},"id":"39049004820"},{"arcs":[[13,14,15,16,17,18]],"type":"Polygon","properties":{"geoid":"39041011710","name":"117.10"},"id":"39041011710"},{"arcs":[[19,20,21,22,23,24]],"type":"Polygon","properties":{"geoid":"39049008360","name":"83.60"},"id":"39049008360"},{"arcs":[[25,26,27,28,29,30]],"type":"Polygon","properties":{"geoid":"39049000320","name":"3.20"},"id":"39049000320"},{"arcs":[[31,32,33,34,35,36,37,38,39]],"type":"Polygon","properties":{"geoid":"39049003000","name":"30"},"id":"39049003000"},{"arcs":[[40,41,42]],"type":"Polygon","properties":{"geoid":"39089751600","name":"7516"},"id":"39089751600"},{"arcs":[[43,44,45,46,47]],"type":"Polygon","properties":{"geoid":"39049006931","name":"69.31"},"id":"39049006931"},{"arcs":[[48,49,50,51,52]],"type":"Polygon","properties":{"geoid":"39049007044","name":"70.44"},"id":"39049007044"},{"arcs":[[53,54,55,56,57,58,59]],"type":"Polygon","properties":{"geoid":"39049008821","name":"88.21"},"id":"39049008821"},{"arcs":[[60,61,62,-36]],"type":"Polygon","properties":{"geoid":"39049003600","name":"36"},"id":"39049003600"},{"arcs":[[63,-8,64,65]],"type":"Polygon","properties":{"geoid":"39049010700","name":"107"},"id":"39049010700"},{"arcs":[[66,67,68,69,70]],"type":"Polygon","properties":{"geoid":"39049009372","name":"93.72"},"id":"39049009372"},{"arcs":[[71,72,73,74,75]],"type":"Polygon","properties":{"geoid":"39049006236","name":"62.36"},"id":"39049006236"},{"arcs":[[76,77,78,79,80,81,82,83]],"type":"Polygon","properties":{"geoid":"39049002510","name":"25.10"},"id":"39049002510"},{"arcs":[[84,85,86,87,88,-68]],"type":"Polygon","properties":{"geoid":"39049009374","name":"93.74"},"id":"39049009374"},{"arcs":[[89,90,91,92]],"type":"Polygon","properties":{"geoid":"39159050100","name":"501"},"id":"39159050100"},{"arcs":[[93,94,95,96,97,98]],"type":"Polygon","properties":{"geoid":"39049009331","name":"93.31"},"id":"39049009331"},{"arcs":[[99,100,101,102,103]],"type":"Polygon","properties":{"geoid":"39049009311","name":"93.11"},"id":"39049009311"},{"arcs":[[-103,104,105,-67,106]],"type":"Polygon","properties":{"geoid":"39049009312","name":"93.12"},"id":"39049009312"},{"arcs":[[107,108,109]],"type":"Polygon","properties":{"geoid":"39049008813","name":"88.13"},"id":"39049008813"},{"arcs":[[110,-70,111,112,113]],"type":"Polygon","properties":{"geoid":"39049009326","name":"93.26"},"id":"39049009326"},{"arcs":[[114,-52,115,116,117]],"type":"Polygon","properties":{"geoid":"39049007041","name":"70.41"},"id":"39049007041"},{"arcs":[[118,119,120,121]],"type":"Polygon","properties":{"geoid":"39049001000","name":"10"},"id":"39049001000"},{"arcs":[[122,-98,123,124]],"type":"Polygon","properties":{"geoid":"39049009333","name":"93.33"},"id":"39049009333"},{"arcs":[[-30,125,126,127]],"type":"Polygon","properties":{"geoid":"39049000330","name":"3.30"},"id":"39049000330"},{"arcs":[[128,129,130,131]],"type":"Polygon","properties":{"geoid":"39049001600","name":"16"},"id":"39049001600"},{"arcs":[[132,133,134,135,136]],"type":"Polygon","properties":{"geoid":"39049000920","name":"9.20"},"id":"39049000920"},{"arcs":[[137,138,139,140,141,142,143]],"type":"Polygon","properties":{"geoid":"39045031100","name":"311"},"id":"39045031100"},{"arcs":[[144,145,146,147,148]],"type":"Polygon","properties":{"geoid":"39049009250","name":"92.50"},"id":"39049009250"},{"arcs":[[149,150,151,152,153,154,155]],"type":"Polygon","properties":{"geoid":"39049004610","name":"46.10"},"id":"39049004610"},{"arcs":[[156,157,158,159,-85,-106]],"type":"Polygon","properties":{"geoid":"39049009371","name":"93.71"},"id":"39049009371"},{"arcs":[[160,161,162,163]],"type":"Polygon","properties":{"geoid":"39049008230","name":"82.30"},"id":"39049008230"},{"arcs":[[164,165,166,167]],"type":"Polygon","properties":{"geoid":"39049001810","name":"18.10"},"id":"39049001810"},{"arcs":[[168,169,170,171,172,-3]],"type":"Polygon","properties":{"geoid":"39049005500","name":"55"},"id":"39049005500"},{"arcs":[[173,174,175,176]],"type":"Polygon","properties":{"geoid":"39049007494","name":"74.94"},"id":"39049007494"},{"arcs":[[-81,177,178,179,180,181,182,183]],"type":"Polygon","properties":{"geoid":"39049002600","name":"26"},"id":"39049002600"},{"arcs":[[184,185,-10,186,187]],"type":"Polygon","properties":{"geoid":"39049004700","name":"47"},"id":"39049004700"},{"arcs":[[188,189,190,191,192]],"type":"Polygon","properties":{"geoid":"39089753900","name":"7539"},"id":"39089753900"},{"arcs":[[193,194,195,-133,196,197]],"type":"Polygon","properties":{"geoid":"39049000820","name":"8.20"},"id":"39049000820"},{"arcs":[[198,199,200,201,202]],"type":"Polygon","properties":{"geoid":"39049008141","name":"81.41"},"id":"39049008141"},{"arcs":[[203,204,205,206]],"type":"Polygon","properties":{"geoid":"39041010421","name":"104.21"},"id":"39041010421"},{"arcs":[[207,208,209,210]],"type":"Polygon","properties":{"geoid":"39049002000","name":"20"},"id":"39049002000"},{"arcs":[[211,212,213,214,-165,215]],"type":"Polygon","properties":{"geoid":"39049001121","name":"11.21"},"id":"39049001121"},{"arcs":[[216,217,218,219]],"type":"Polygon","properties":{"geoid":"39049007551","name":"75.51"},"id":"39049007551"},{"arcs":[[220,221,222,223,-86,-160]],"type":"Polygon","properties":{"geoid":"39049009386","name":"93.86"},"id":"39049009386"},{"arcs":[[224,225,226,227,-174,228]],"type":"Polygon","properties":{"geoid":"39049007202","name":"72.02"},"id":"39049007202"},{"arcs":[[-152,229,-187,-13,230,231]],"type":"Polygon","properties":{"geoid":"39049004810","name":"48.10"},"id":"39049004810"},{"arcs":[[232,-131,233,-33,234,235]],"type":"Polygon","properties":{"geoid":"39049002200","name":"22"},"id":"39049002200"},{"arcs":[[236,237,238,239,240,241]],"type":"Polygon","properties":{"geoid":"39049002760","name":"27.60"},"id":"39049002760"},{"arcs":[[242,243,244,245,246,247]],"type":"Polygon","properties":{"geoid":"39049006500","name":"65"},"id":"39049006500"},{"arcs":[[248,249,250,251,-201]],"type":"Polygon","properties":{"geoid":"39049008110","name":"81.10"},"id":"39049008110"},{"arcs":[[252,253,254,255,256,257,258]],"type":"Polygon","properties":{"geoid":"39159050602","name":"506.02"},"id":"39159050602"},{"arcs":[[259,260,261,262]],"type":"Polygon","properties":{"geoid":"39049007933","name":"79.33"},"id":"39049007933"},{"arcs":[[263,264,265,266]],"type":"Polygon","properties":{"geoid":"39049007532","name":"75.32"},"id":"39049007532"},{"arcs":[[267,268,269,270]],"type":"Polygon","properties":{"geoid":"39049006395","name":"63.95"},"id":"39049006395"},{"arcs":[[-240,271,272,-99,-123,273,274]],"type":"Polygon","properties":{"geoid":"39049002770","name":"27.70"},"id":"39049002770"},{"arcs":[[275,276,277,278,279,-223,280]],"type":"Polygon","properties":{"geoid":"39049009385","name":"93.85"},"id":"39049009385"},{"arcs":[[281,-84,282]],"type":"Polygon","properties":{"geoid":"39049001500","name":"15"},"id":"39049001500"},{"arcs":[[283,284,285,286,287]],"type":"Polygon","properties":{"geoid":"39049009900","name":"99"},"id":"39049009900"},{"arcs":[[288,-4,289,290,291]],"type":"Polygon","properties":{"geoid":"39049005620","name":"56.20"},"id":"39049005620"},{"arcs":[[292,293,-148,294,295,-95]],"type":"Polygon","properties":{"geoid":"39049009321","name":"93.21"},"id":"39049009321"},{"arcs":[[296,297,298]],"type":"Polygon","properties":{"geoid":"39049006942","name":"69.42"},"id":"39049006942"},{"arcs":[[299,300,301,302,303]],"type":"Polygon","properties":{"geoid":"39049006310","name":"63.10"},"id":"39049006310"},{"arcs":[[304,-127,305,306,307,308,309]],"type":"Polygon","properties":{"geoid":"39049000710","name":"7.10"},"id":"39049000710"},{"arcs":[[310,311,312,313]],"type":"Polygon","properties":{"geoid":"39041010530","name":"105.30"},"id":"39041010530"},{"arcs":[[314,315,316,317]],"type":"Polygon","properties":{"geoid":"39041011530","name":"115.30"},"id":"39041011530"},{"arcs":[[318,319,320,321]],"type":"Polygon","properties":{"geoid":"39049009712","name":"97.12"},"id":"39049009712"},{"arcs":[[322,323,324,-26,325,326,327]],"type":"Polygon","properties":{"geoid":"39049007740","name":"77.40"},"id":"39049007740"},{"arcs":[[328,329,330,331,-169,-2,332]],"type":"Polygon","properties":{"geoid":"39049005300","name":"53"},"id":"39049005300"},{"arcs":[[333,334,335,336]],"type":"Polygon","properties":{"geoid":"39049006394","name":"63.94"},"id":"39049006394"},{"arcs":[[337,338,339,340,341]],"type":"Polygon","properties":{"geoid":"39045032600","name":"326"},"id":"39045032600"},{"arcs":[[342,343,344,345,346]],"type":"Polygon","properties":{"geoid":"39049009752","name":"97.52"},"id":"39049009752"},{"arcs":[[347,-1,348]],"type":"Polygon","properties":{"geoid":"39049005200","name":"52"},"id":"39049005200"},{"arcs":[[349,-9,-64,350,351]],"type":"Polygon","properties":{"geoid":"39049006821","name":"68.21"},"id":"39049006821"},{"arcs":[[352,-197,-137,353,354,-307]],"type":"Polygon","properties":{"geoid":"39049000910","name":"9.10"},"id":"39049000910"},{"arcs":[[355,356,357]],"type":"Polygon","properties":{"geoid":"39045031700","name":"317"},"id":"39045031700"},{"arcs":[[358,359,360,361]],"type":"Polygon","properties":{"geoid":"39089751000","name":"7510"},"id":"39089751000"},{"arcs":[[362,363,364,365]],"type":"Polygon","properties":{"geoid":"39049008163","name":"81.63"},"id":"39049008163"},{"arcs":[[-37,-63,366,367,-329,368]],"type":"Polygon","properties":{"geoid":"39049003800","name":"38"},"id":"39049003800"},{"arcs":[[369,370,371,-6,-350,372]],"type":"Polygon","properties":{"geoid":"39049006810","name":"68.10"},"id":"39049006810"},{"arcs":[[373,374,375,-243,376]],"type":"Polygon","properties":{"geoid":"39049006430","name":"64.30"},"id":"39049006430"},{"arcs":[[-135,377,378,-78,379]],"type":"Polygon","properties":{"geoid":"39049007511","name":"75.11"},"id":"39049007511"},{"arcs":[[380,381,382,383,384]],"type":"Polygon","properties":{"geoid":"39049006352","name":"63.52"},"id":"39049006352"},{"arcs":[[385,-42,386,387,-359,-190]],"type":"Polygon","properties":{"geoid":"39089751300","name":"7513"},"id":"39089751300"},{"arcs":[[388,389,390,391,392,393,-49]],"type":"Polygon","properties":{"geoid":"39041012400","name":"124"},"id":"39041012400"},{"arcs":[[394,395,396,397,398]],"type":"Polygon","properties":{"geoid":"39049000410","name":"4.10"},"id":"39049000410"},{"arcs":[[399,400,401]],"type":"Polygon","properties":{"geoid":"39129020200","name":"202"},"id":"39129020200"},{"arcs":[[-126,-29,402,-198,-353,-306]],"type":"Polygon","properties":{"geoid":"39049000810","name":"8.10"},"id":"39049000810"},{"arcs":[[-365,403,404,405,406]],"type":"Polygon","properties":{"geoid":"39049008164","name":"81.64"},"id":"39049008164"},{"arcs":[[407,408,-61,-35]],"type":"Polygon","properties":{"geoid":"39049002900","name":"29"},"id":"39049002900"},{"arcs":[[-397,409,-310,410,411]],"type":"Polygon","properties":{"geoid":"39049000500","name":"5"},"id":"39049000500"},{"arcs":[[-231,-12,412,413,414,-22,415]],"type":"Polygon","properties":{"geoid":"39049008322","name":"83.22"},"id":"39049008322"},{"arcs":[[416,417,-238,418]],"type":"Polygon","properties":{"geoid":"39049002740","name":"27.40"},"id":"39049002740"},{"arcs":[[419,-100,420,-146]],"type":"Polygon","properties":{"geoid":"39049009340","name":"93.40"},"id":"39049009340"},{"arcs":[[421,-285,422]],"type":"Polygon","properties":{"geoid":"39049007047","name":"70.47"},"id":"39049007047"},{"arcs":[[423,424,425]],"type":"Polygon","properties":{"geoid":"39045030600","name":"306"},"id":"39045030600"},{"arcs":[[426,427,428,-371,429]],"type":"Polygon","properties":{"geoid":"39049006710","name":"67.10"},"id":"39049006710"},{"arcs":[[430,431,432,433,434]],"type":"Polygon","properties":{"geoid":"39049008500","name":"85"},"id":"39049008500"},{"arcs":[[435,-172,436,437]],"type":"Polygon","properties":{"geoid":"39049008710","name":"87.10"},"id":"39049008710"},{"arcs":[[438,-210,439,-40,440,441,-433]],"type":"Polygon","properties":{"geoid":"39049003200","name":"32"},"id":"39049003200"},{"arcs":[[442,-262,443,444,445]],"type":"Polygon","properties":{"geoid":"39049007954","name":"79.54"},"id":"39049007954"},{"arcs":[[446,447,448,449,450]],"type":"Polygon","properties":{"geoid":"39097040201","name":"402.01"},"id":"39097040201"},{"arcs":[[451,452,453,454,455]],"type":"Polygon","properties":{"geoid":"39129021200","name":"212"},"id":"39129021200"},{"arcs":[[456,457,458,-193,459,460,461]],"type":"Polygon","properties":{"geoid":"39089757700","name":"7577"},"id":"39089757700"},{"arcs":[[462,463,464,465,466,467,-73]],"type":"Polygon","properties":{"geoid":"39049006383","name":"63.83"},"id":"39049006383"},{"arcs":[[468,-319,469]],"type":"Polygon","properties":{"geoid":"39049009711","name":"97.11"},"id":"39049009711"},{"arcs":[[470,-327,471,472,473]],"type":"Polygon","properties":{"geoid":"39049000120","name":"1.20"},"id":"39049000120"},{"arcs":[[474,-47,475,476,477]],"type":"Polygon","properties":{"geoid":"39049006932","name":"69.32"},"id":"39049006932"},{"arcs":[[-302,478,-374,479,480]],"type":"Polygon","properties":{"geoid":"39049006330","name":"63.30"},"id":"39049006330"},{"arcs":[[481,-15,482]],"type":"Polygon","properties":{"geoid":"39041011740","name":"117.40"},"id":"39041011740"},{"arcs":[[483,484,485,-88,486,487,488,-426,489,490,491,492,493]],"type":"Polygon","properties":{"geoid":"39049010200","name":"102"},"id":"39049010200"},{"arcs":[[494,-132,-233,495,-166,-215]],"type":"Polygon","properties":{"geoid":"39049001700","name":"17"},"id":"39049001700"},{"arcs":[[-451,496,497,498,499,500,501,502,503,504,505,506]],"type":"Polygon","properties":{"geoid":"39097041100","name":"411"},"id":"39097041100"},{"arcs":[[507,508,509,510,-501,511,-448]],"type":"Polygon","properties":{"geoid":"39097040202","name":"402.02"},"id":"39097040202"},{"arcs":[[-205,512,513,-311,514]],"type":"Polygon","properties":{"geoid":"39041010100","name":"101"},"id":"39041010100"},{"arcs":[[515,516,517,518,519,520]],"type":"Polygon","properties":{"geoid":"39049007394","name":"73.94"},"id":"39049007394"},{"arcs":[[521,522,523,-56]],"type":"Polygon","properties":{"geoid":"39049005820","name":"58.20"},"id":"39049005820"},{"arcs":[[524,-291,525,526,527,-523]],"type":"Polygon","properties":{"geoid":"39049006000","name":"60"},"id":"39049006000"},{"arcs":[[528,-478,529,530,531]],"type":"Polygon","properties":{"geoid":"39049006924","name":"69.24"},"id":"39049006924"},{"arcs":[[532,533,534,535,536,537]],"type":"Polygon","properties":{"geoid":"39073965500","name":"9655"},"id":"39073965500"},{"arcs":[[538,539,540,541,542,543]],"type":"Polygon","properties":{"geoid":"39049007120","name":"71.20"},"id":"39049007120"},{"arcs":[[544,545,546,547,548,-452,549]],"type":"Polygon","properties":{"geoid":"39049009590","name":"95.90"},"id":"39049009590"},{"arcs":[[550,551,552,553,554,555,-179]],"type":"Polygon","properties":{"geoid":"39049980000","name":"9800"},"id":"39049980000"},{"arcs":[[556,557,-470,-322,558,-345]],"type":"Polygon","properties":{"geoid":"39049009600","name":"96"},"id":"39049009600"},{"arcs":[[559,560,-431,561,562]],"type":"Polygon","properties":{"geoid":"39049001902","name":"19.02"},"id":"39049001902"},{"arcs":[[563,-203,564,-406,565,566,567]],"type":"Polygon","properties":{"geoid":"39049008162","name":"81.62"},"id":"39049008162"},{"arcs":[[568,569,570,-457,571]],"type":"Polygon","properties":{"geoid":"39089754700","name":"7547"},"id":"39089754700"},{"arcs":[[572,573,574]],"type":"Polygon","properties":{"geoid":"39089758300","name":"7583"},"id":"39089758300"},{"arcs":[[575,576,577,578,579,580,581]],"type":"Polygon","properties":{"geoid":"39049007395","name":"73.95"},"id":"39049007395"},{"arcs":[[582,583,584,585,586]],"type":"Polygon","properties":{"geoid":"39117965500","name":"9655"},"id":"39117965500"},{"arcs":[[-398,-412,587,588,589]],"type":"Polygon","properties":{"geoid":"39049007820","name":"78.20"},"id":"39049007820"},{"arcs":[[-360,-388,590,591,592,593]],"type":"Polygon","properties":{"geoid":"39089759000","name":"7590"},"id":"39089759000"},{"arcs":[[594,-361,-594,595,596]],"type":"Polygon","properties":{"geoid":"39089750700","name":"7507"},"id":"39089750700"},{"arcs":[[-257,597,598,599,600,601,602,603,604]],"type":"Polygon","properties":{"geoid":"39159050601","name":"506.01"},"id":"39159050601"},{"arcs":[[-567,605,-347,606,607,608,-503,609]],"type":"Polygon","properties":{"geoid":"39049009800","name":"98"},"id":"39049009800"},{"arcs":[[610,611,612,-418]],"type":"Polygon","properties":{"geoid":"39049002730","name":"27.30"},"id":"39049002730"},{"arcs":[[613,614,615,616,617,618,619]],"type":"Polygon","properties":{"geoid":"39045030900","name":"309"},"id":"39045030900"},{"arcs":[[620,621,-263,-443,622,623]],"type":"Polygon","properties":{"geoid":"39049010602","name":"106.02"},"id":"39049010602"},{"arcs":[[624,625,-260,-622,626]],"type":"Polygon","properties":{"geoid":"39049007931","name":"79.31"},"id":"39049007931"},{"arcs":[[-209,627,-235,-32,-440]],"type":"Polygon","properties":{"geoid":"39049002100","name":"21"},"id":"39049002100"},{"arcs":[[-437,-171,628,629,630,631,632,633,634,635]],"type":"Polygon","properties":{"geoid":"39049008730","name":"87.30"},"id":"39049008730"},{"arcs":[[636,637,-79,-379]],"type":"Polygon","properties":{"geoid":"39049007512","name":"75.12"},"id":"39049007512"},{"arcs":[[-38,-369,-333,-348,638,639]],"type":"Polygon","properties":{"geoid":"39049004000","name":"40"},"id":"39049004000"},{"arcs":[[-483,-14,640,641]],"type":"Polygon","properties":{"geoid":"39041011730","name":"117.30"},"id":"39041011730"},{"arcs":[[642,643,644,-584,645,646]],"type":"Polygon","properties":{"geoid":"39117965300","name":"9653"},"id":"39117965300"},{"arcs":[[647,648,649,650]],"type":"Polygon","properties":{"geoid":"39089756800","name":"7568"},"id":"39089756800"},{"arcs":[[-377,-248,651,-480]],"type":"Polygon","properties":{"geoid":"39049006410","name":"64.10"},"id":"39049006410"},{"arcs":[[652,653,654,655,656]],"type":"Polygon","properties":{"geoid":"39049007207","name":"72.07"},"id":"39049007207"},{"arcs":[[657,-562,-435,658]],"type":"Polygon","properties":{"geoid":"39049008400","name":"84"},"id":"39049008400"},{"arcs":[[-527,659,-438,-636,660,661,662]],"type":"Polygon","properties":{"geoid":"39049008720","name":"87.20"},"id":"39049008720"},{"arcs":[[663,664,-271,665,666]],"type":"Polygon","properties":{"geoid":"39049006372","name":"63.72"},"id":"39049006372"},{"arcs":[[667,668,-493,669,670,671,-548]],"type":"Polygon","properties":{"geoid":"39049009495","name":"94.95"},"id":"39049009495"},{"arcs":[[672,673,-560,674]],"type":"Polygon","properties":{"geoid":"39049007830","name":"78.30"},"id":"39049007830"},{"arcs":[[675,676,677,-45,678]],"type":"Polygon","properties":{"geoid":"39049006945","name":"69.45"},"id":"39049006945"},{"arcs":[[679,680,-373,-352,681,682,683,684]],"type":"Polygon","properties":{"geoid":"39049006950","name":"69.50"},"id":"39049006950"},{"arcs":[[685,-313,686,687,688,689,690]],"type":"Polygon","properties":{"geoid":"39041012200","name":"122"},"id":"39041012200"},{"arcs":[[-504,-609,691,692,693,694,695]],"type":"Polygon","properties":{"geoid":"39129021401","name":"214.01"},"id":"39129021401"},{"arcs":[[696,697,-400,698,699]],"type":"Polygon","properties":{"geoid":"39129020310","name":"203.10"},"id":"39129020310"},{"arcs":[[700,701,702,-620,-338,703]],"type":"Polygon","properties":{"geoid":"39045030800","name":"308"},"id":"39045030800"},{"arcs":[[704,705,-292,-525,-522,-55,706]],"type":"Polygon","properties":{"geoid":"39049005810","name":"58.10"},"id":"39049005810"},{"arcs":[[707,-581,708,-157,-105,-102,709]],"type":"Polygon","properties":{"geoid":"39049009361","name":"93.61"},"id":"39049009361"},{"arcs":[[710,711,712,713]],"type":"Polygon","properties":{"geoid":"39045032800","name":"328"},"id":"39045032800"},{"arcs":[[714,715,716,717,718,719]],"type":"Polygon","properties":{"geoid":"39089758900","name":"7589"},"id":"39089758900"},{"arcs":[[-613,720,-272,-239]],"type":"Polygon","properties":{"geoid":"39049002750","name":"27.50"},"id":"39049002750"},{"arcs":[[721,-716,722,723]],"type":"Polygon","properties":{"geoid":"39089752200","name":"7522"},"id":"39089752200"},{"arcs":[[724,-647,725,726,727,728,729]],"type":"Polygon","properties":{"geoid":"39041011200","name":"112"},"id":"39041011200"},{"arcs":[[730,731,732,-599]],"type":"Polygon","properties":{"geoid":"39041011412","name":"114.12"},"id":"39041011412"},{"arcs":[[733,734,735,736,-267,737,738,739]],"type":"Polygon","properties":{"geoid":"39049007531","name":"75.31"},"id":"39049007531"},{"arcs":[[740,-48,-475,-529,741]],"type":"Polygon","properties":{"geoid":"39049006923","name":"69.23"},"id":"39049006923"},{"arcs":[[742,-242,743,744,745]],"type":"Polygon","properties":{"geoid":"39049008900","name":"89"},"id":"39049008900"},{"arcs":[[746,-713,747,748,749,-424,-489]],"type":"Polygon","properties":{"geoid":"39045033100","name":"331"},"id":"39045033100"},{"arcs":[[750,-76,751,-601]],"type":"Polygon","properties":{"geoid":"39049010400","name":"104"},"id":"39049010400"},{"arcs":[[752,753,754,755,756,757,-16,-482,-642,758,759]],"type":"Polygon","properties":{"geoid":"39041011750","name":"117.50"},"id":"39041011750"},{"arcs":[[-181,760,-611,-417,761]],"type":"Polygon","properties":{"geoid":"39049002710","name":"27.10"},"id":"39049002710"},{"arcs":[[762,763,764]],"type":"Polygon","properties":{"geoid":"39117965000","name":"9650"},"id":"39117965000"},{"arcs":[[-671,765,766]],"type":"Polygon","properties":{"geoid":"39049009440","name":"94.40"},"id":"39049009440"},{"arcs":[[767,-587,768,769,770,771,772,-688,773]],"type":"Polygon","properties":{"geoid":"39041011102","name":"111.02"},"id":"39041011102"},{"arcs":[[-153,-232,-416,-21,774]],"type":"Polygon","properties":{"geoid":"39049008321","name":"83.21"},"id":"39049008321"},{"arcs":[[775,776]],"type":"Polygon","properties":{"geoid":"39045030300","name":"303"},"id":"39045030300"},{"arcs":[[-147,-421,-104,-107,777,778,-295]],"type":"Polygon","properties":{"geoid":"39049009322","name":"93.22"},"id":"39049009322"},{"arcs":[[-771,779,-754,780]],"type":"Polygon","properties":{"geoid":"39041011604","name":"116.04"},"id":"39041011604"},{"arcs":[[781,782,783,-320,-469,-558]],"type":"Polygon","properties":{"geoid":"39049009720","name":"97.20"},"id":"39049009720"},{"arcs":[[784,785,786,787,788,789,-141]],"type":"Polygon","properties":{"geoid":"39127965900","name":"9659"},"id":"39127965900"},{"arcs":[[790,791,792,-77,-282,793,-130]],"type":"Polygon","properties":{"geoid":"39049001400","name":"14"},"id":"39049001400"},{"arcs":[[-117,794,-427,795,796]],"type":"Polygon","properties":{"geoid":"39049006721","name":"67.21"},"id":"39049006721"},{"arcs":[[-477,797,798,-530]],"type":"Polygon","properties":{"geoid":"39049006933","name":"69.33"},"id":"39049006933"},{"arcs":[[799,-274,-125,800,801,802,-632]],"type":"Polygon","properties":{"geoid":"39049009332","name":"93.32"},"id":"39049009332"},{"arcs":[[-802,803,804,805,806]],"type":"Polygon","properties":{"geoid":"39049009337","name":"93.37"},"id":"39049009337"},{"arcs":[[807,808,809,-585,-645]],"type":"Polygon","properties":{"geoid":"39117965400","name":"9654"},"id":"39117965400"},{"arcs":[[810,811,812,813,814,-279]],"type":"Polygon","properties":{"geoid":"39089756201","name":"7562.01"},"id":"39089756201"},{"arcs":[[815,-689,-773,816,-315,817,818]],"type":"Polygon","properties":{"geoid":"39041011550","name":"115.50"},"id":"39041011550"},{"arcs":[[-490,-425,-750,819,-702,820,821]],"type":"Polygon","properties":{"geoid":"39045033000","name":"330"},"id":"39045033000"},{"arcs":[[822,-281,-222,823]],"type":"Polygon","properties":{"geoid":"39049009384","name":"93.84"},"id":"39049009384"},{"arcs":[[-467,824,825,826]],"type":"Polygon","properties":{"geoid":"39049006387","name":"63.87"},"id":"39049006387"},{"arcs":[[-51,827,828,-116]],"type":"Polygon","properties":{"geoid":"39049007043","name":"70.43"},"id":"39049007043"},{"arcs":[[829,830,831,-617]],"type":"Polygon","properties":{"geoid":"39045031500","name":"315"},"id":"39045031500"},{"arcs":[[-796,-430,-370,-681,832]],"type":"Polygon","properties":{"geoid":"39049006910","name":"69.10"},"id":"39049006910"},{"arcs":[[-346,-559,-321,833,834,-607]],"type":"Polygon","properties":{"geoid":"39049009751","name":"97.51"},"id":"39049009751"},{"arcs":[[-667,835,-304,836,837,838]],"type":"Polygon","properties":{"geoid":"39049007951","name":"79.51"},"id":"39049007951"},{"arcs":[[839,-60,840,841,-783,842]],"type":"Polygon","properties":{"geoid":"39049008380","name":"83.80"},"id":"39049008380"},{"arcs":[[-690,-816,843,844,845]],"type":"Polygon","properties":{"geoid":"39041012100","name":"121"},"id":"39041012100"},{"arcs":[[-265,846,-177,847,-217,848]],"type":"Polygon","properties":{"geoid":"39049010100","name":"101"},"id":"39049010100"},{"arcs":[[-829,849,-284,850,-428,-795]],"type":"Polygon","properties":{"geoid":"39049006722","name":"67.22"},"id":"39049006722"},{"arcs":[[-723,-715,851,-592]],"type":"Polygon","properties":{"geoid":"39089752500","name":"7525"},"id":"39089752500"},{"arcs":[[852,-537,853,854]],"type":"Polygon","properties":{"geoid":"39073965400","name":"9654"},"id":"39073965400"},{"arcs":[[855,856,-143,857,-533,858,859,860,861]],"type":"Polygon","properties":{"geoid":"39073964900","name":"9649"},"id":"39073964900"},{"arcs":[[-196,862,863,-637,-378,-134]],"type":"Polygon","properties":{"geoid":"39049007520","name":"75.20"},"id":"39049007520"},{"arcs":[[-460,-192,864,-595,865,866]],"type":"Polygon","properties":{"geoid":"39089753300","name":"7533"},"id":"39089753300"},{"arcs":[[-568,-610,-502,-511,867]],"type":"Polygon","properties":{"geoid":"39097040500","name":"405"},"id":"39097040500"},{"arcs":[[868,-317,-389,-53,-115,869,870]],"type":"Polygon","properties":{"geoid":"39041011561","name":"115.61"},"id":"39041011561"},{"arcs":[[871,-204,-729]],"type":"Polygon","properties":{"geoid":"39041010422","name":"104.22"},"id":"39041010422"},{"arcs":[[-770,872,873,-755,-780]],"type":"Polygon","properties":{"geoid":"39041012300","name":"123"},"id":"39041012300"},{"arcs":[[-202,-252,874,-366,-407,-565]],"type":"Polygon","properties":{"geoid":"39049008132","name":"81.32"},"id":"39049008132"},{"arcs":[[875,-838,876,-625,877]],"type":"Polygon","properties":{"geoid":"39049007922","name":"79.22"},"id":"39049007922"},{"arcs":[[878,-845,879,880,881,-732]],"type":"Polygon","properties":{"geoid":"39041011900","name":"119"},"id":"39041011900"},{"arcs":[[-844,-819,882,883,-880]],"type":"Polygon","properties":{"geoid":"39041011423","name":"114.23"},"id":"39041011423"},{"arcs":[[-814,884,885,-748,-712,886]],"type":"Polygon","properties":{"geoid":"39045032900","name":"329"},"id":"39045032900"},{"arcs":[[887,-774,-687,-312,-514,888,-727]],"type":"Polygon","properties":{"geoid":"39041010200","name":"102"},"id":"39041010200"},{"arcs":[[-154,-775,-20,889,890]],"type":"Polygon","properties":{"geoid":"39049008312","name":"83.12"},"id":"39049008312"},{"arcs":[[891,892,893,894,895,896]],"type":"Polygon","properties":{"geoid":"39129021600","name":"216"},"id":"39129021600"},{"arcs":[[897,898,899,900,-509,901]],"type":"Polygon","properties":{"geoid":"39097040101","name":"401.01"},"id":"39097040101"},{"arcs":[[-861,902,-854,-536,903,904]],"type":"Polygon","properties":{"geoid":"39073965100","name":"9651"},"id":"39073965100"},{"arcs":[[-784,-842,-550,905,-834]],"type":"Polygon","properties":{"geoid":"39049009740","name":"97.40"},"id":"39049009740"},{"arcs":[[906,907,-254,908,909]],"type":"Polygon","properties":{"geoid":"39159050304","name":"503.04"},"id":"39159050304"},{"arcs":[[910,911,912,913]],"type":"Polygon","properties":{"geoid":"39159050400","name":"504"},"id":"39159050400"},{"arcs":[[-714,-747,-488,914]],"type":"Polygon","properties":{"geoid":"39045032701","name":"327.01"},"id":"39045032701"},{"arcs":[[-266,-849,915,-738]],"type":"Polygon","properties":{"geoid":"39049007533","name":"75.33"},"id":"39049007533"},{"arcs":[[916,-760,917,-390,-316]],"type":"Polygon","properties":{"geoid":"39041011540","name":"115.40"},"id":"39041011540"},{"arcs":[[-757,918,919,920,-653,921]],"type":"Polygon","properties":{"geoid":"39049007201","name":"72.01"},"id":"39049007201"},{"arcs":[[922,923,924,925,-539,926,-677]],"type":"Polygon","properties":{"geoid":"39049007114","name":"71.14"},"id":"39049007114"},{"arcs":[[927,-623,-446,928,929]],"type":"Polygon","properties":{"geoid":"39049007953","name":"79.53"},"id":"39049007953"},{"arcs":[[-512,-500,930,-498,931,-449]],"type":"Polygon","properties":{"geoid":"39097040600","name":"406"},"id":"39097040600"},{"arcs":[[932,933,934,935,936]],"type":"Polygon","properties":{"geoid":"39049008241","name":"82.41"},"id":"39049008241"},{"arcs":[[937,-724,-591,-387,-41,938,939]],"type":"Polygon","properties":{"geoid":"39089751900","name":"7519"},"id":"39089751900"},{"arcs":[[-405,940,-343,-606,-566]],"type":"Polygon","properties":{"geoid":"39049008161","name":"81.61"},"id":"39049008161"},{"arcs":[[941,-935,942,-156,943,-161,-250,944]],"type":"Polygon","properties":{"geoid":"39049008210","name":"82.10"},"id":"39049008210"},{"arcs":[[945,946,947,948]],"type":"Polygon","properties":{"geoid":"39049005000","name":"50"},"id":"39049005000"},{"arcs":[[949,-791,-129,-495,-214]],"type":"Polygon","properties":{"geoid":"39049001300","name":"13"},"id":"39049001300"},{"arcs":[[950,951,-664,952]],"type":"Polygon","properties":{"geoid":"39049006371","name":"63.71"},"id":"39049006371"},{"arcs":[[-752,-75,953,954,-602]],"type":"Polygon","properties":{"geoid":"39049010500","name":"105"},"id":"39049010500"},{"arcs":[[-543,955,-264,-737,956]],"type":"Polygon","properties":{"geoid":"39049007113","name":"71.13"},"id":"39049007113"},{"arcs":[[957,-634,958,-806,959,-114,960,-494,-669]],"type":"Polygon","properties":{"geoid":"39049009430","name":"94.30"},"id":"39049009430"},{"arcs":[[961,962,-384,963,964,-301]],"type":"Polygon","properties":{"geoid":"39049006321","name":"63.21"},"id":"39049006321"},{"arcs":[[965,-336,966,-465]],"type":"Polygon","properties":{"geoid":"39049006384","name":"63.84"},"id":"39049006384"},{"arcs":[[967,968,969,-540,-926]],"type":"Polygon","properties":{"geoid":"39049007194","name":"71.94"},"id":"39049007194"},{"arcs":[[970,-474,971,-399,-590,972,-382,-683]],"type":"Polygon","properties":{"geoid":"39049007812","name":"78.12"},"id":"39049007812"},{"arcs":[[-206,-515,-314,-686,973,974]],"type":"Polygon","properties":{"geoid":"39041010520","name":"105.20"},"id":"39041010520"},{"arcs":[[975,976,977,978,-830,-616]],"type":"Polygon","properties":{"geoid":"39045031400","name":"314"},"id":"39045031400"},{"arcs":[[-794,-283,-83,979,980,-408,-34,-234]],"type":"Polygon","properties":{"geoid":"39049002300","name":"23"},"id":"39049002300"},{"arcs":[[-638,-864,-219,981,-551,-178,-80]],"type":"Polygon","properties":{"geoid":"39049007550","name":"75.50"},"id":"39049007550"},{"arcs":[[-894,982,983,-699,-402,984]],"type":"Polygon","properties":{"geoid":"39129020100","name":"201"},"id":"39129020100"},{"arcs":[[985,-662,986,-110,987,988,989,-58]],"type":"Polygon","properties":{"geoid":"39049008811","name":"88.11"},"id":"39049008811"},{"arcs":[[-661,-635,-958,990,-108,-987]],"type":"Polygon","properties":{"geoid":"39049008812","name":"88.12"},"id":"39049008812"},{"arcs":[[991,-740,992,-194,-403,-28]],"type":"Polygon","properties":{"geoid":"39049007710","name":"77.10"},"id":"39049007710"},{"arcs":[[993,-797,-833,-680,-825]],"type":"Polygon","properties":{"geoid":"39049006392","name":"63.92"},"id":"39049006392"},{"arcs":[[994,-675,-563,-658,995,-245]],"type":"Polygon","properties":{"geoid":"39049006600","name":"66"},"id":"39049006600"},{"arcs":[[996,997,-650,998,999,1000,-885,-813]],"type":"Polygon","properties":{"geoid":"39089757400","name":"7574"},"id":"39089757400"},{"arcs":[[1001,-999,-649]],"type":"Polygon","properties":{"geoid":"39089757100","name":"7571"},"id":"39089757100"},{"arcs":[[-918,-759,-641,-19,1002,-391]],"type":"Polygon","properties":{"geoid":"39041011762","name":"117.62"},"id":"39041011762"},{"arcs":[[-246,-996,-659,-434,-442,1003,-946,1004,-933,1005]],"type":"Polygon","properties":{"geoid":"39049004300","name":"43"},"id":"39049004300"},{"arcs":[[-900,1006,1007,1008,1009,-930,-199,-564,1010]],"type":"Polygon","properties":{"geoid":"39049008000","name":"80"},"id":"39049008000"},{"arcs":[[-674,1011,1012,-211,-439,-432,-561]],"type":"Polygon","properties":{"geoid":"39049001901","name":"19.01"},"id":"39049001901"},{"arcs":[[-538,-853,1013,-859]],"type":"Polygon","properties":{"geoid":"39073965300","name":"9653"},"id":"39073965300"},{"arcs":[[-889,-513,-872,-728]],"type":"Polygon","properties":{"geoid":"39041010420","name":"104.20"},"id":"39041010420"},{"arcs":[[-18,1014,1015]],"type":"Polygon","properties":{"geoid":"39049007020","name":"70.20"},"id":"39049007020"},{"arcs":[[1016,-710,-101,-420,1017]],"type":"Polygon","properties":{"geoid":"39049009350","name":"93.50"},"id":"39049009350"},{"arcs":[[-799,-735,1018,-324,1019]],"type":"Polygon","properties":{"geoid":"39049007721","name":"77.21"},"id":"39049007721"},{"arcs":[[-325,-1019,-734,-992,-27]],"type":"Polygon","properties":{"geoid":"39049007722","name":"77.22"},"id":"39049007722"},{"arcs":[[-180,-556,1020,-582,-708,-1017,1021,1022,1023,-612,-761]],"type":"Polygon","properties":{"geoid":"39049009210","name":"92.10"},"id":"39049009210"},{"arcs":[[-411,-309,1024,-119,1025,1026]],"type":"Polygon","properties":{"geoid":"39049000600","name":"6"},"id":"39049000600"},{"arcs":[[1027,1028,1029,-516,1030]],"type":"Polygon","properties":{"geoid":"39049007393","name":"73.93"},"id":"39049007393"},{"arcs":[[1031,-684,-381,1032]],"type":"Polygon","properties":{"geoid":"39049006351","name":"63.51"},"id":"39049006351"},{"arcs":[[1033,1034,1035,-785,-140,1036]],"type":"Polygon","properties":{"geoid":"39127965800","name":"9658"},"id":"39127965800"},{"arcs":[[-520,1037,-1021,-555,1038]],"type":"Polygon","properties":{"geoid":"39049007427","name":"74.27"},"id":"39049007427"},{"arcs":[[1039,1040,-719,1041,-1035,-573]],"type":"Polygon","properties":{"geoid":"39089758600","name":"7586"},"id":"39089758600"},{"arcs":[[1042,-572,1043,1044,-873]],"type":"Polygon","properties":{"geoid":"39089755000","name":"7550"},"id":"39089755000"},{"arcs":[[1045,1046,-1044,-462,1047,-648,1048,1049,1050]],"type":"Polygon","properties":{"geoid":"39089755600","name":"7556"},"id":"39089755600"},{"arcs":[[1051,-167,-496,-236,-628,-208,-1013]],"type":"Polygon","properties":{"geoid":"39049001820","name":"18.20"},"id":"39049001820"},{"arcs":[[-954,-74,1052,-953,-839,1053]],"type":"Polygon","properties":{"geoid":"39049006220","name":"62.20"},"id":"39049006220"},{"arcs":[[-505,-696,1054,1055,1056]],"type":"Polygon","properties":{"geoid":"39097041200","name":"412"},"id":"39097041200"},{"arcs":[[-182,-762,-419,-237,-743,1057]],"type":"Polygon","properties":{"geoid":"39049009100","name":"91"},"id":"39049009100"},{"arcs":[[-1023,1058,-149,-294,1059]],"type":"Polygon","properties":{"geoid":"39049009230","name":"92.30"},"id":"39049009230"},{"arcs":[[-224,-280,-815,-887,-711,-915,-487,-87]],"type":"Polygon","properties":{"geoid":"39045032702","name":"327.02"},"id":"39045032702"},{"arcs":[[-655,1060,1061,-1051,-517,-1030,1062]],"type":"Polygon","properties":{"geoid":"39049007210","name":"72.10"},"id":"39049007210"},{"arcs":[[-1022,-1018,-145,-1059]],"type":"Polygon","properties":{"geoid":"39049009240","name":"92.40"},"id":"39049009240"},{"arcs":[[-290,-173,-436,-660,-526]],"type":"Polygon","properties":{"geoid":"39049005900","name":"59"},"id":"39049005900"},{"arcs":[[-113,1063,1064,-484,-961]],"type":"Polygon","properties":{"geoid":"39049009420","name":"94.20"},"id":"39049009420"},{"arcs":[[1065,1066,1067,-414]],"type":"Polygon","properties":{"geoid":"39049008330","name":"83.30"},"id":"39049008330"},{"arcs":[[1068,-299,1069,-679,-44,-741,-287]],"type":"Polygon","properties":{"geoid":"39049006943","name":"69.43"},"id":"39049006943"},{"arcs":[[-920,1070,-1046,-1062,1071]],"type":"Polygon","properties":{"geoid":"39049007203","name":"72.03"},"id":"39049007203"},{"arcs":[[-764,1072,-809,1073]],"type":"Polygon","properties":{"geoid":"39117965100","name":"9651"},"id":"39117965100"},{"arcs":[[-218,-848,-176,1074,1075,-552,-982]],"type":"Polygon","properties":{"geoid":"39049007424","name":"74.24"},"id":"39049007424"},{"arcs":[[-921,-1072,-1061,-654]],"type":"Polygon","properties":{"geoid":"39049007205","name":"72.05"},"id":"39049007205"},{"arcs":[[-776,1076,1077,1078,-1037,-139,1079,1080]],"type":"Polygon","properties":{"geoid":"39045030200","name":"302"},"id":"39045030200"},{"arcs":[[-124,-97,1081,1082,-804,-801]],"type":"Polygon","properties":{"geoid":"39049009334","name":"93.34"},"id":"39049009334"},{"arcs":[[-733,1083,-72,-751,-600]],"type":"Polygon","properties":{"geoid":"39041011411","name":"114.11"},"id":"39041011411"},{"arcs":[[-50,-394,1084,-423,-850,-828]],"type":"Polygon","properties":{"geoid":"39049007048","name":"70.48"},"id":"39049007048"},{"arcs":[[-244,-376,1085,1086,-588,-1027,1087,-216,-168,-1052,-1012,-673,-995]],"type":"Polygon","properties":{"geoid":"39049001122","name":"11.22"},"id":"39049001122"},{"arcs":[[1088,-624,-928,-1010]],"type":"Polygon","properties":{"geoid":"39049010601","name":"106.01"},"id":"39049010601"},{"arcs":[[-441,-39,-640,1089,-947,-1004]],"type":"Polygon","properties":{"geoid":"39049004200","name":"42"},"id":"39049004200"},{"arcs":[[1090,-948,-1090,1091,-705,1092,-1067]],"type":"Polygon","properties":{"geoid":"39049005100","name":"51"},"id":"39049005100"},{"arcs":[[-874,1093,-1071,-919,-756]],"type":"Polygon","properties":{"geoid":"39041011760","name":"117.60"},"id":"39041011760"},{"arcs":[[-788,1094,1095,1096,1097]],"type":"Polygon","properties":{"geoid":"39127966100","name":"9661"},"id":"39127966100"},{"arcs":[[-491,-822,1098,1099]],"type":"Polygon","properties":{"geoid":"39049009450","name":"94.50"},"id":"39049009450"},{"arcs":[[-571,1100,-940,1101,-458]],"type":"Polygon","properties":{"geoid":"39089754102","name":"7541.02"},"id":"39089754102"},{"arcs":[[-364,-163,1102,-890,-25,1103,-941,-404]],"type":"Polygon","properties":{"geoid":"39049008350","name":"83.50"},"id":"39049008350"},{"arcs":[[1104,1105,1106,1107,-144,-857,1108]],"type":"Polygon","properties":{"geoid":"39045031200","name":"312"},"id":"39045031200"},{"arcs":[[-574,-1034,-1079]],"type":"Polygon","properties":{"geoid":"39045030100","name":"301"},"id":"39045030100"},{"arcs":[[-1026,-122,1109,-212,-1088]],"type":"Polygon","properties":{"geoid":"39049001110","name":"11.10"},"id":"39049001110"},{"arcs":[[1110,-824,-221,-159]],"type":"Polygon","properties":{"geoid":"39049009383","name":"93.83"},"id":"39049009383"},{"arcs":[[-618,-832,-358,1111,1112]],"type":"Polygon","properties":{"geoid":"39045031600","name":"316"},"id":"39045031600"},{"arcs":[[-1104,-24,1113,-843,-782,-557,-344]],"type":"Polygon","properties":{"geoid":"39049008370","name":"83.70"},"id":"39049008370"},{"arcs":[[-1083,1114,-778,-71,-111,-960,-805]],"type":"Polygon","properties":{"geoid":"39049009325","name":"93.25"},"id":"39049009325"},{"arcs":[[-59,-990,1115,-545,-841]],"type":"Polygon","properties":{"geoid":"39049008822","name":"88.22"},"id":"39049008822"},{"arcs":[[-596,-593,-852,-720,-1041,1116,1117]],"type":"Polygon","properties":{"geoid":"39089752800","name":"7528"},"id":"39089752800"},{"arcs":[[1118,-936,-942,1119]],"type":"Polygon","properties":{"geoid":"39049008242","name":"82.42"},"id":"39049008242"},{"arcs":[[-989,1120,-546,-1116]],"type":"Polygon","properties":{"geoid":"39049008825","name":"88.25"},"id":"39049008825"},{"arcs":[[-351,-66,1121,1122,-328,-471,-971,-682]],"type":"Polygon","properties":{"geoid":"39049000110","name":"1.10"},"id":"39049000110"},{"arcs":[[1123,-485,-1065]],"type":"Polygon","properties":{"geoid":"39049009410","name":"94.10"},"id":"39049009410"},{"arcs":[[-818,-318,-869,-883]],"type":"Polygon","properties":{"geoid":"39041011520","name":"115.20"},"id":"39041011520"},{"arcs":[[-979,1124,1125,1126,-356,-831]],"type":"Polygon","properties":{"geoid":"39045032000","name":"320"},"id":"39045032000"},{"arcs":[[-286,-422,-1085,-393,1127,-924,1128,-297,-1069]],"type":"Polygon","properties":{"geoid":"39049006990","name":"69.90"},"id":"39049006990"},{"arcs":[[-519,1129,-576,-1038]],"type":"Polygon","properties":{"geoid":"39049007396","name":"73.96"},"id":"39049007396"},{"arcs":[[-1031,-521,-1039,-554,1130,1131]],"type":"Polygon","properties":{"geoid":"39049007426","name":"74.26"},"id":"39049007426"},{"arcs":[[1132,-1033,-385,-963,1133,-269]],"type":"Polygon","properties":{"geoid":"39049006353","name":"63.53"},"id":"39049006353"},{"arcs":[[-1126,1134,1135,-1106,1136]],"type":"Polygon","properties":{"geoid":"39045032200","name":"322"},"id":"39045032200"},{"arcs":[[-981,1137,1138,-367,-62,-409]],"type":"Polygon","properties":{"geoid":"39049002800","name":"28"},"id":"39049002800"},{"arcs":[[-766,-670,-492,-1100,1139,1140,1141]],"type":"Polygon","properties":{"geoid":"39049009497","name":"94.97"},"id":"39049009497"},{"arcs":[[-744,-241,-275,-800,-631]],"type":"Polygon","properties":{"geoid":"39049002780","name":"27.80"},"id":"39049002780"},{"arcs":[[-251,-164,-363,-875]],"type":"Polygon","properties":{"geoid":"39049008120","name":"81.20"},"id":"39049008120"},{"arcs":[[-450,-932,-497]],"type":"Polygon","properties":{"geoid":"39097041000","name":"410"},"id":"39097041000"},{"arcs":[[-308,-355,1142,-792,1143,-120,-1025]],"type":"Polygon","properties":{"geoid":"39049000720","name":"7.20"},"id":"39049000720"},{"arcs":[[-803,-807,-959,-633]],"type":"Polygon","properties":{"geoid":"39049009336","name":"93.36"},"id":"39049009336"},{"arcs":[[-162,-944,-155,-891,-1103]],"type":"Polygon","properties":{"geoid":"39049008311","name":"83.11"},"id":"39049008311"},{"arcs":[[-253,1144,-912,1145,-909]],"type":"Polygon","properties":{"geoid":"39159050303","name":"503.03"},"id":"39159050303"},{"arcs":[[-1045,-1047,-1094]],"type":"Polygon","properties":{"geoid":"39089755300","name":"7553"},"id":"39089755300"},{"arcs":[[-1121,-988,-109,-991,-668,-547]],"type":"Polygon","properties":{"geoid":"39049009520","name":"95.20"},"id":"39049009520"},{"arcs":[[-866,-597,-1118,1146]],"type":"Polygon","properties":{"geoid":"39089753100","name":"7531"},"id":"39089753100"},{"arcs":[[1147,-506,-1057,1148]],"type":"Polygon","properties":{"geoid":"39097041300","name":"413"},"id":"39097041300"},{"arcs":[[-454,1149,-1141,1150,-704,-342,1151,1152,-697,1153,1154]],"type":"Polygon","properties":{"geoid":"39129021100","name":"211"},"id":"39129021100"},{"arcs":[[1155,-1131,-553,-1076]],"type":"Polygon","properties":{"geoid":"39049007425","name":"74.25"},"id":"39049007425"},{"arcs":[[-354,-136,-380,-793,-1143]],"type":"Polygon","properties":{"geoid":"39049000730","name":"7.30"},"id":"39049000730"},{"arcs":[[-860,-1014,-855,-903]],"type":"Polygon","properties":{"geoid":"39073965200","name":"9652"},"id":"39073965200"},{"arcs":[[1156,-1095,-787]],"type":"Polygon","properties":{"geoid":"39127966000","name":"9660"},"id":"39127966000"},{"arcs":[[-913,-1145,-259,1157]],"type":"Polygon","properties":{"geoid":"39159050500","name":"505"},"id":"39159050500"},{"arcs":[[-772,-781,-753,-917,-817]],"type":"Polygon","properties":{"geoid":"39041011560","name":"115.60"},"id":"39041011560"},{"arcs":[[-779,-1115,-1082,-96,-296]],"type":"Polygon","properties":{"geoid":"39049009323","name":"93.23"},"id":"39049009323"},{"arcs":[[-1015,-17,1158,-968,1159]],"type":"Polygon","properties":{"geoid":"39049007193","name":"71.93"},"id":"39049007193"},{"arcs":[[1160,-878,-627,-621,-1089,-1009]],"type":"Polygon","properties":{"geoid":"39049007921","name":"79.21"},"id":"39049007921"},{"arcs":[[-468,-827,1161,-951,-1053]],"type":"Polygon","properties":{"geoid":"39049006386","name":"63.86"},"id":"39049006386"},{"arcs":[[-603,-955,-1054,-876,-1161,-1008,1162]],"type":"Polygon","properties":{"geoid":"39049006230","name":"62.30"},"id":"39049006230"},{"arcs":[[-23,-415,-1068,-1093,-707,-54,-840,-1114]],"type":"Polygon","properties":{"geoid":"39049008340","name":"83.40"},"id":"39049008340"},{"arcs":[[-476,-46,1163,-957,-736,-798]],"type":"Polygon","properties":{"geoid":"39049007112","name":"71.12"},"id":"39049007112"},{"arcs":[[-326,-31,-128,-305,1164,1165,1166]],"type":"Polygon","properties":{"geoid":"39049000310","name":"3.10"},"id":"39049000310"},{"arcs":[[1167,-92,1168,-907,1169,1170]],"type":"Polygon","properties":{"geoid":"39159050200","name":"502"},"id":"39159050200"},{"arcs":[[-1140,-1099,-821,-701,-1151]],"type":"Polygon","properties":{"geoid":"39045030700","name":"307"},"id":"39045030700"},{"arcs":[[1171,-277,1172]],"type":"Polygon","properties":{"geoid":"39049009382","name":"93.82"},"id":"39049009382"},{"arcs":[[-881,-884,-871,1173,-334,1174,1175]],"type":"Polygon","properties":{"geoid":"39041011421","name":"114.21"},"id":"39041011421"},{"arcs":[[1176,-604,-1163,-1007,-899]],"type":"Polygon","properties":{"geoid":"39097040102","name":"401.02"},"id":"39097040102"},{"arcs":[[-608,-835,-906,-456,1177,-694,1178,-692]],"type":"Polygon","properties":{"geoid":"39129021402","name":"214.02"},"id":"39129021402"},{"arcs":[[-820,-749,-886,-1001,-1077,-777,-1081,1179,-614,-703]],"type":"Polygon","properties":{"geoid":"39045030400","name":"304"},"id":"39045030400"},{"arcs":[[-970,1180,-225,-541]],"type":"Polygon","properties":{"geoid":"39049007198","name":"71.98"},"id":"39049007198"},{"arcs":[[-270,-1134,-962,-300,-836,-666]],"type":"Polygon","properties":{"geoid":"39049006340","name":"63.40"},"id":"39049006340"},{"arcs":[[-1180,-1080,-138,-1108,1181,-976,-615]],"type":"Polygon","properties":{"geoid":"39045031000","name":"310"},"id":"39045031000"},{"arcs":[[-298,-1129,-923,-676,-1070]],"type":"Polygon","properties":{"geoid":"39049006944","name":"69.44"},"id":"39049006944"},{"arcs":[[-934,-1005,1182,-185,1183,-150,-943]],"type":"Polygon","properties":{"geoid":"39049004500","name":"45"},"id":"39049004500"},{"arcs":[[-368,-1139,1184,1185,1186,-330]],"type":"Polygon","properties":{"geoid":"39049003700","name":"37"},"id":"39049003700"},{"arcs":[[-726,-646,-583,-768,-888]],"type":"Polygon","properties":{"geoid":"39041011101","name":"111.01"},"id":"39041011101"},{"arcs":[[1187,1188,1189,-227]],"type":"Polygon","properties":{"geoid":"39049007132","name":"71.32"},"id":"39049007132"},{"arcs":[[-362,-865,-191]],"type":"Polygon","properties":{"geoid":"39089753600","name":"7536"},"id":"39089753600"},{"arcs":[[-542,-229,-847,-956]],"type":"Polygon","properties":{"geoid":"39049007199","name":"71.99"},"id":"39049007199"},{"arcs":[[-1154,-700,-984,1190]],"type":"Polygon","properties":{"geoid":"39129020320","name":"203.20"},"id":"39129020320"},{"arcs":[[-765,-1074,-808,-644,1191]],"type":"Polygon","properties":{"geoid":"39117965200","name":"9652"},"id":"39117965200"},{"arcs":[[1192,-1152,-341,1193,1194,-896]],"type":"Polygon","properties":{"geoid":"39129021700","name":"217"},"id":"39129021700"},{"arcs":[[-1167,1195,-472]],"type":"Polygon","properties":{"geoid":"39049000210","name":"2.10"},"id":"39049000210"},{"arcs":[[-901,-1011,-868,-510]],"type":"Polygon","properties":{"geoid":"39097040400","name":"404"},"id":"39097040400"},{"arcs":[[-1184,-188,-230,-151]],"type":"Polygon","properties":{"geoid":"39049004620","name":"46.20"},"id":"39049004620"},{"arcs":[[1196,-811,1197]],"type":"Polygon","properties":{"geoid":"39089756202","name":"7562.02"},"id":"39089756202"},{"arcs":[[-1187,-745,-630,1198,-331]],"type":"Polygon","properties":{"geoid":"39049005410","name":"54.10"},"id":"39049005410"},{"arcs":[[-473,-1196,-1166,1199,-395,-972]],"type":"Polygon","properties":{"geoid":"39049000220","name":"2.20"},"id":"39049000220"},{"arcs":[[-1130,-518,-1050,1200,-997,-812,-1197,-577]],"type":"Polygon","properties":{"geoid":"39089755900","name":"7559"},"id":"39089755900"},{"arcs":[[-656,-1063,-1029,-1189,1201]],"type":"Polygon","properties":{"geoid":"39049007209","name":"72.09"},"id":"39049007209"},{"arcs":[[-69,-89,-486,-1124,-1064,-112]],"type":"Polygon","properties":{"geoid":"39049009373","name":"93.73"},"id":"39049009373"},{"arcs":[[-985,-401,-698,-1153,-1193,-895]],"type":"Polygon","properties":{"geoid":"39129020400","name":"204"},"id":"39129020400"},{"arcs":[[-1112,-357,-1127,-1137,-1105,1202]],"type":"Polygon","properties":{"geoid":"39045032300","name":"323"},"id":"39045032300"},{"arcs":[[-392,-1003,-1016,-1160,-925,-1128]],"type":"Polygon","properties":{"geoid":"39049007010","name":"70.10"},"id":"39049007010"},{"arcs":[[-1169,-91,1203,-730,-207,-975,1204,-255,-908]],"type":"Polygon","properties":{"geoid":"39041012000","name":"120"},"id":"39041012000"},{"arcs":[[-142,-790,1205,-1097,1206,-534,-858]],"type":"Polygon","properties":{"geoid":"39127966300","name":"9663"},"id":"39127966300"},{"arcs":[[-974,-691,-846,-879,-731,-598,-256,-1205]],"type":"Polygon","properties":{"geoid":"39041011413","name":"114.13"},"id":"39041011413"},{"arcs":[[-499,-931]],"type":"Polygon","properties":{"geoid":"39097040700","name":"407"},"id":"39097040700"},{"arcs":[[-183,-1058,-746,-1186,1207]],"type":"Polygon","properties":{"geoid":"39049009000","name":"90"},"id":"39049009000"},{"arcs":[[1208,-1175,-337,-966,-464]],"type":"Polygon","properties":{"geoid":"39049006393","name":"63.93"},"id":"39049006393"},{"arcs":[[-619,-1113,-1203,-1109,-856,1209,-339]],"type":"Polygon","properties":{"geoid":"39045032500","name":"325"},"id":"39045032500"},{"arcs":[[-1101,-570,1210,-717,-722,-938]],"type":"Polygon","properties":{"geoid":"39089754400","name":"7544"},"id":"39089754400"},{"arcs":[[-303,-481,1211,-626,-877,-837]],"type":"Polygon","properties":{"geoid":"39049007952","name":"79.52"},"id":"39049007952"},{"arcs":[[-927,-544,-1164,-678]],"type":"Polygon","properties":{"geoid":"39049007115","name":"71.15"},"id":"39049007115"},{"arcs":[[-980,-82,-184,-1208,-1185,-1138]],"type":"Polygon","properties":{"geoid":"39049002520","name":"25.20"},"id":"39049002520"},{"arcs":[[-1200,-1165,-410,-396]],"type":"Polygon","properties":{"geoid":"39049000420","name":"4.20"},"id":"39049000420"},{"arcs":[[-578,-1198,-278,-1172,1212]],"type":"Polygon","properties":{"geoid":"39049009390","name":"93.90"},"id":"39049009390"},{"arcs":[[-870,-118,-994,-466,-967,-335,-1174]],"type":"Polygon","properties":{"geoid":"39049006391","name":"63.91"},"id":"39049006391"},{"arcs":[[-1102,-939,-43,-386,-189,-459]],"type":"Polygon","properties":{"geoid":"39089754101","name":"7541.01"},"id":"39089754101"},{"arcs":[[-121,-1144,-950,-213,-1110]],"type":"Polygon","properties":{"geoid":"39049001200","name":"12"},"id":"39049001200"},{"arcs":[[-639,-349,-5,-289,-706,-1092]],"type":"Polygon","properties":{"geoid":"39049005700","name":"57"},"id":"39049005700"},{"arcs":[[-1199,-629,-170,-332]],"type":"Polygon","properties":{"geoid":"39049005420","name":"54.20"},"id":"39049005420"},{"arcs":[[-579,-1213,-1173,-276,-823,1213]],"type":"Polygon","properties":{"geoid":"39049009381","name":"93.81"},"id":"39049009381"},{"arcs":[[-1183,-949,-1091,-1066,-413,-11,-186]],"type":"Polygon","properties":{"geoid":"39049004900","name":"49"},"id":"39049004900"},{"arcs":[[-993,-739,-916,-220,-863,-195]],"type":"Polygon","properties":{"geoid":"39049007534","name":"75.34"},"id":"39049007534"},{"arcs":[[-1212,-652,-247,-1006,-937,-1119,-444,-261]],"type":"Polygon","properties":{"geoid":"39049007941","name":"79.41"},"id":"39049007941"},{"arcs":[[-851,-288,-742,-532,1214,-1122,-65,-7,-372,-429]],"type":"Polygon","properties":{"geoid":"39049006921","name":"69.21"},"id":"39049006921"},{"arcs":[[-929,-445,-1120,-945,-249,-200]],"type":"Polygon","properties":{"geoid":"39049008142","name":"81.42"},"id":"39049008142"},{"arcs":[[-952,-1162,-826,-685,-1032,-1133,-268,-665]],"type":"Polygon","properties":{"geoid":"39049006396","name":"63.96"},"id":"39049006396"},{"arcs":[[-1170,-910,-1146,-911,1215,1216]],"type":"Polygon","properties":{"geoid":"39159050301","name":"503.01"},"id":"39159050301"},{"arcs":[[-1055,-695,-1178,-455,-1155,-1191,-983,-893,1217]],"type":"Polygon","properties":{"geoid":"39129021500","name":"215"},"id":"39129021500"},{"arcs":[[-1215,-531,-1020,-323,-1123]],"type":"Polygon","properties":{"geoid":"39049007730","name":"77.30"},"id":"39049007730"},{"arcs":[[-1024,-1060,-293,-94,-273,-721]],"type":"Polygon","properties":{"geoid":"39049009220","name":"92.20"},"id":"39049009220"},{"arcs":[[-914,-1158,-258,-605,-1177,-898,1218,-1216]],"type":"Polygon","properties":{"geoid":"39159050700","name":"507"},"id":"39159050700"},{"arcs":[[-580,-1214,-1111,-158,-709]],"type":"Polygon","properties":{"geoid":"39049009362","name":"93.62"},"id":"39049009362"},{"arcs":[[-1049,-651,-998,-1201]],"type":"Polygon","properties":{"geoid":"39089756500","name":"7565"},"id":"39089756500"},{"arcs":[[-524,-528,-663,-986,-57]],"type":"Polygon","properties":{"geoid":"39049006100","name":"61"},"id":"39049006100"},{"arcs":[[-1179,-693]],"type":"Polygon","properties":{"geoid":"39129021300","name":"213"},"id":"39129021300"},{"arcs":[[-1002,-1048,-461,-867,-1147,-1117,-1040,-575,-1078,-1000]],"type":"Polygon","properties":{"geoid":"39089759100","name":"7591"},"id":"39089759100"},{"arcs":[[-882,-1176,-1209,-463,-1084]],"type":"Polygon","properties":{"geoid":"39041011430","name":"114.30"},"id":"39041011430"},{"arcs":[[-789,-1098,-1206]],"type":"Polygon","properties":{"geoid":"39127966200","name":"9662"},"id":"39127966200"},{"arcs":[[-383,-973,-589,-1087,1219,-964]],"type":"Polygon","properties":{"geoid":"39049007811","name":"78.11"},"id":"39049007811"},{"arcs":[[-672,-767,-1142,-1150,-453,-549]],"type":"Polygon","properties":{"geoid":"39049010300","name":"103"},"id":"39049010300"},{"arcs":[[-969,-1159,-758,-922,-657,-1202,-1188,-226,-1181]],"type":"Polygon","properties":{"geoid":"39049010000","name":"100"},"id":"39049010000"},{"arcs":[[1220,-977,-1182,-1107,-1136]],"type":"Polygon","properties":{"geoid":"39045031300","name":"313"},"id":"39045031300"},{"arcs":[[-978,-1221,-1135,-1125]],"type":"Polygon","properties":{"geoid":"39045032100","name":"321"},"id":"39045032100"},{"arcs":[[-1194,-340,-1210,-862,-905,1221]],"type":"Polygon","properties":{"geoid":"39073965000","name":"9650"},"id":"39073965000"},{"arcs":[[-965,-1220,-1086,-375,-479]],"type":"Polygon","properties":{"geoid":"39049006323","name":"63.23"},"id":"39049006323"},{"arcs":[[-228,-1190,-1028,-1132,-1156,-1075,-175]],"type":"Polygon","properties":{"geoid":"39049007492","name":"74.92"},"id":"39049007492"}]}}}