{"type":"Topology","arcs":[[[27118,10755],[26,84],[-9,90],[47,158],[24,106],[15,40],[20,-65],[2,-70],[13,-76],[6,-90],[-27,-66],[-3,41],[-28,23],[-1,-55],[-49,-128],[-35,-25],[-1,33]],[[27004,14645],[13,-191],[25,-90],[-3,-58],[-21,82],[-14,257]],[[26169,20512],[30,17],[5,-106],[-13,2],[-22,87]],[[26230,23031],[5,-121],[13,-100],[0,-122],[6,-128],[14,-80],[225,-70],[156,-56],[102,-42],[157,-62],[99,-43],[-8,-58],[11,-101],[-2,-115],[11,-125],[34,8],[8,213],[2,226],[-10,118],[2,176],[17,55],[8,97],[31,-77],[21,-22],[12,-59],[19,-4],[26,-59],[20,28],[12,-32]],[[27221,22476],[5,-17],[-4,-189],[2,-144],[5,-67],[10,-446],[20,-548],[9,-125],[6,-242],[25,-423],[33,-472],[22,-305],[72,-746],[38,-326],[13,-240],[-18,-99],[-4,-212],[3,-192],[6,-161],[18,-269],[35,-439],[11,-236],[23,-423],[19,-277],[27,-440],[18,-424],[-1,-369],[-8,-324],[-5,-332],[-8,-321],[-6,-622],[-30,-70],[-18,-297],[-8,-83],[-2,-111],[8,-185],[-17,-95],[-7,-88],[-1,-162],[13,30],[3,131],[25,122],[-41,-442],[-17,46],[5,100],[-6,51],[-33,-2],[-39,-98],[-40,31],[-9,-69],[-51,-45],[-16,79],[-9,124],[6,195],[8,27],[-13,249],[-11,71],[1,52],[-19,153],[-5,140],[-25,118],[-10,67],[-53,205],[-18,-20],[-5,-55],[-31,455],[-9,387],[-10,161],[-39,271],[-32,65],[-5,170],[-11,72],[15,34],[10,-63],[10,259],[-1,133],[-10,37],[8,120],[-14,17],[-6,-78],[-12,-2],[8,-129],[2,-124],[-8,-36],[-21,-13],[-26,251],[-29,316],[-21,320],[-39,351],[-8,42],[-6,128],[20,46],[8,114],[9,27],[18,202],[22,112],[12,140],[-6,119],[-13,16],[-8,-86],[-14,3],[2,130],[-6,65],[-32,93],[-14,-152],[21,-51],[15,-151],[-9,-82],[-5,-159],[-27,5],[-15,161],[-10,60],[-7,121],[6,150],[10,80],[4,231],[-7,92],[13,100],[15,330],[9,91],[6,169],[-7,223],[6,38],[-17,100],[7,118],[-13,68],[3,89],[10,65],[-20,180],[0,104],[-15,35],[4,84],[-9,73],[-46,36],[-16,-84],[-8,152],[3,73],[-21,80],[-19,249],[-20,32],[-5,60],[-24,110],[-3,236],[-25,119],[-13,30],[-13,105],[0,68],[-26,196],[-30,105],[-38,110],[-28,131],[-37,-58],[-22,24],[-27,-92],[-8,-94],[7,-87],[-2,-82],[-22,8],[-8,49],[-23,-36],[-33,-127],[-64,-209],[-9,94],[-17,-118],[-27,-5],[-32,-37],[-15,-43],[-21,9],[5,224],[-18,190],[-11,76],[-29,64],[-24,150],[-29,91],[-21,110],[-48,177],[-40,104],[-49,98],[-28,37],[-72,42],[-32,-6],[-60,-53],[-56,-72],[-44,-12],[-57,-78]],[[25529,21658],[4,83],[11,18],[10,139],[16,46],[-18,95],[-3,89],[15,198],[-4,85],[-35,130],[-5,81],[-24,152],[13,188],[-3,63],[128,4],[173,-12],[175,1],[110,6],[138,7]],[[17580,57355],[234,-3],[232,4],[190,-7],[191,1],[179,1],[241,-4],[139,1],[232,4],[326,0],[143,0],[291,0],[170,1],[218,-1],[193,0],[134,-1],[230,2]],[[20923,57353],[1,-764],[0,-653],[1,-972],[-1,-770],[0,-977],[0,-612],[0,-1077]],[[20924,51528],[2,-1089],[0,-717],[-5,-1]],[[20921,49721],[-160,2],[-150,3],[-207,0],[-4,-13],[-179,3],[-143,3],[-12,6],[-245,2],[-142,-2],[-158,0],[-6,12],[-183,-8],[-96,3],[-22,-12],[-145,-9],[-24,16],[-73,1],[0,-997]],[[18972,48731],[-22,42],[-25,232],[-32,212],[-43,-62],[5,-64],[-15,-118],[1,-109],[-50,22],[-33,-97],[-14,104],[-45,-32],[-19,-49],[-23,23],[-13,60],[-16,8],[-19,-63],[-9,-167],[-60,82],[-32,26],[-17,-38],[-17,-116],[8,-90],[-9,-36],[-45,183],[-14,314],[-3,115],[-10,97],[-40,178],[-26,-73],[-5,67],[-27,87],[-12,146],[15,35],[-2,189],[-35,138],[-4,100],[-28,151],[-13,124],[1,122],[-11,27],[0,205],[-17,12],[8,157],[-32,105],[-5,72],[-15,15],[-6,-76],[-34,-203],[-31,-61],[-9,-86],[-18,-39],[-24,133],[-36,105],[-1,91],[18,72],[-2,99],[-17,98],[16,138],[34,70],[-12,103],[5,79],[-17,28],[-6,114],[10,87],[-17,52],[1,78],[20,15],[-2,127],[10,181],[-2,99],[14,106],[-8,113],[14,11],[8,266],[-10,41],[-18,-16],[-12,-55],[-41,14],[-14,191],[-25,-80],[-3,116],[-28,108],[-16,24],[-4,134],[-18,142],[-14,18],[-6,85],[-20,145],[-27,93],[-23,201],[-57,82],[-6,91],[-55,181],[16,29],[-6,126],[-12,56],[18,82],[-13,113],[4,76],[-29,110],[-5,119],[-21,81],[-36,228],[0,962],[0,991]],[[22824,57354],[155,-1],[252,-1],[171,-1],[0,735],[26,-59],[28,32],[29,-88],[8,-57],[15,-331],[6,-41],[18,-410],[-2,-194],[29,-123],[42,-44],[6,31],[42,-23],[6,-87],[66,-19],[46,-27],[13,-216],[42,3],[49,54],[1,88],[33,66],[39,30],[8,-36],[54,1],[71,-161],[26,6],[0,-82],[-21,-70],[16,-50],[41,21],[14,-89],[-4,-94],[28,-251],[25,46],[-6,85],[4,103],[35,39],[22,-18],[23,-62],[-2,-107],[32,-53],[8,-58],[42,-15],[1,-161],[39,-41],[1,-94],[22,46],[16,-37],[17,40],[33,28],[47,184],[55,124],[13,-12],[2,-125],[19,-144],[34,10],[72,-20],[21,23],[49,12],[30,-51],[8,-108],[27,-77],[46,65],[32,-48],[-49,-201],[-36,-56],[-14,-60],[-52,-72],[-51,-91],[-54,-80],[-54,-143],[-37,-129],[-74,-307],[-34,-220],[-21,-86],[-38,-199],[-31,-85],[-24,-142],[-12,-20],[-21,-118],[-18,-34],[-70,-262],[22,-155]],[[24276,52980],[-21,81],[-15,-63],[-19,-126],[-22,31],[-1,-1129],[-19,-116],[-16,26],[-12,-97],[-16,15],[-8,-62],[-25,-36],[-19,-72],[-21,-249],[-24,-89],[-5,-150],[1,-121],[32,-16],[34,-239],[-1,-82],[-13,-119],[-17,-86],[-2,-202],[6,-147],[-13,-54],[7,-97],[4,-175],[-7,-85],[3,-98],[-12,-171],[20,-66],[32,-149],[0,-45],[51,-119],[25,8],[20,-159],[17,-67],[45,-71],[36,-129],[14,-254],[46,-152],[36,-178],[39,-49],[44,-295],[11,-138],[-7,-123],[0,-181],[10,-64],[4,-154]],[[24498,46867],[-204,-1],[-234,-1],[-134,-1],[-146,1],[-213,1],[-266,-1],[-261,1]],[[23040,46866],[0,911],[0,920],[0,958],[0,639],[-10,113],[-36,97],[-18,4],[-14,89],[-9,123],[-26,161],[5,75],[52,194],[20,150],[5,209]],[[23009,51509],[-4,175],[6,109],[-10,192],[-2,275],[-19,87],[-14,125],[-8,258],[-15,150],[7,217],[-6,18],[4,178],[-3,110],[-11,156],[4,68],[-2,244],[-6,189],[4,65],[-8,204],[3,160],[-2,215],[-46,499],[1,90],[-10,51],[-6,203],[-19,176],[2,318],[-6,141],[8,142],[-8,41],[4,222],[12,158],[-11,107],[-14,300],[-12,101],[2,101]],[[28740,36289],[-15,0]],[[28725,36289],[2,150],[17,-52],[-4,-98]],[[27769,39660],[152,3],[232,-1],[176,-4],[133,-1],[159,3],[176,2]],[[28797,39662],[0,-122],[11,-941],[15,-1344],[74,-14],[106,-3]],[[29003,37238],[-10,-242],[-5,-24],[-25,-411],[-14,-131]],[[28949,36430],[-106,-63],[-7,-53]],[[28836,36314],[-38,12],[-13,-80],[-17,-27],[2,151],[24,126],[-21,35],[10,87],[-12,42],[-22,-21],[5,96],[22,26],[13,48],[-28,71],[-18,10],[-17,-51],[-20,112],[-14,29],[-5,84],[-19,8],[-23,225],[19,29],[5,51],[-12,86],[3,81],[46,19],[-34,174],[-29,69],[12,151],[27,-48],[-2,269],[-18,-4],[-19,-57],[-6,52],[11,107],[34,-43],[10,51],[-5,184],[-13,-96],[-4,162],[-9,30],[25,330],[21,101],[25,-20],[-3,78],[14,62],[-5,58],[8,175],[-35,-40],[-7,-91],[9,-84],[-30,-147],[-26,-97],[-12,43],[-17,-101],[-12,-161],[-24,-46],[26,-87],[-2,-152],[12,-76],[-23,-60],[8,-77],[-18,-169],[4,-71],[-16,-134],[8,-39],[-1,-88],[6,-119],[-2,-165],[7,-88],[31,-184],[-11,-121],[7,-28],[3,-173],[18,-151],[-20,-68],[-13,63],[-12,-38],[-17,71],[-14,116],[-39,61],[-32,19],[-17,62],[-16,101],[-14,198],[-53,-163],[-12,44],[-7,188],[15,141],[25,152]],[[28423,37589],[0,74],[25,99],[1,125]],[[28449,37887],[36,193],[-37,195],[-22,-116]],[[28426,38159],[-7,57],[-28,35],[0,72],[-26,82],[-34,25],[-18,134],[19,150],[-24,80],[-6,74],[-43,29]],[[28259,38897],[-10,24],[1,171],[-12,126],[-14,17],[-9,124],[-37,78],[-19,123],[-26,51],[-27,-146],[-23,41],[-19,-31],[-10,-95],[11,-47],[-15,-63],[-27,5],[-34,50],[-22,80],[-16,2],[-14,-126],[-16,-69],[-7,-88],[-35,60],[-36,-206],[-46,-175],[-13,-83],[-17,-43],[2,983]],[[26758,30659],[90,162],[7,-34],[20,77],[40,102],[13,5],[30,97],[5,-65],[27,36],[27,-12],[128,-29],[188,-55],[-4,-121],[4,-79],[30,119],[43,-327],[-5,-221],[83,-5],[176,-23],[54,-1],[88,-495],[31,-182],[104,-601],[93,-539]],[[28030,28468],[-48,-99],[-28,-108],[-35,-197],[-27,-221],[-13,-77],[-24,-304],[-2,-216],[-5,-79],[-14,-83],[-24,-75],[-9,-148],[-33,1],[-14,49],[-11,-41],[-13,-131],[10,-74],[-32,-105],[-8,-86],[-34,-100],[-9,-5],[-2,-130],[-23,-81],[-9,-66],[-33,-29],[-13,-59],[-22,-45],[-24,-111],[-8,34],[-15,-48],[-8,66],[-11,-84],[15,-136],[-7,-128],[-32,-88],[-21,29],[-18,61],[-16,-72],[22,-80],[4,-58],[-20,-137],[-27,-46],[-18,-133],[6,-25]],[[27377,25003],[-9,5],[-25,122],[-17,-21],[-14,83],[-1,129],[-9,85],[10,79],[-3,94],[-9,26],[-12,140],[1,84],[-27,168],[-16,29],[-16,90],[5,59],[-9,100],[4,147],[-2,107],[-10,26],[-13,172],[3,129],[-20,75],[-15,94],[-24,41],[-17,82],[-7,93],[-17,83],[-1,112],[-15,26],[-6,106],[1,158],[-17,45],[-17,148],[-24,51],[-17,76],[-17,246],[-25,143],[-21,56],[-38,155],[-11,163],[-12,70],[-10,123],[-12,35],[-8,221],[-13,140],[-11,51],[-6,148],[-13,82],[-28,-28],[-21,70],[-28,189],[-15,6],[-30,144],[-4,80],[9,116],[50,258],[10,145]],[[30827,48112],[14,72],[19,-68],[-15,-76],[-18,72]],[[30763,48244],[19,90],[28,-123],[-22,-91],[-19,-1],[-6,125]],[[30713,48003],[29,39],[10,-73],[-12,-88],[-15,-2],[-12,124]],[[30704,48034],[8,69],[19,68],[5,-65],[-32,-72]],[[30214,46026],[-35,128],[3,212],[-18,66],[-10,91],[-14,45],[-5,134],[10,261],[-6,36],[-5,424],[-6,1046],[-6,600],[-14,1239]],[[30108,50308],[36,64],[19,-198],[22,163],[-5,152],[12,59],[19,-77],[17,-26],[8,55],[-26,160],[8,137],[12,86],[50,189],[18,26],[-4,144],[20,109],[17,38],[12,136],[-18,41],[-4,104],[8,142],[14,93],[-15,93],[24,266],[42,160],[17,534],[119,820],[96,638],[13,-6],[39,-80],[-5,-70],[4,-252],[37,-116],[53,107],[29,7],[10,82],[29,19],[25,-22],[1,109],[14,32],[30,-30],[75,-283],[18,-164],[27,-80],[1,-889],[2,-615],[0,-641],[8,-48],[-14,-67],[13,-113],[-13,-38],[0,-240],[19,-25],[35,-111],[50,-43],[1,-149],[-21,-53],[8,-104],[13,-63],[-1,-88],[-13,-132],[3,-59],[31,-218],[18,112],[17,-47],[20,-5],[12,-93],[22,-329],[14,-52],[-4,-130],[6,-69],[-45,-218],[-14,-92],[-15,38],[-18,-8],[0,88],[-21,-35],[6,-93],[-12,-88],[-39,62],[-9,-126],[3,-55],[-36,4],[-46,-28],[-7,-90],[-53,-237],[-10,103],[-1,126],[-29,49],[-21,-42],[33,-241],[-14,-105],[-26,-4],[2,-114],[-26,49],[-7,85],[13,256],[-51,-73],[6,-75],[-16,-153],[-44,104],[-19,-33],[5,118],[-6,160],[-45,-68],[13,-127],[-2,-60],[-29,-222],[-11,-238],[12,-11],[-34,-175],[-7,-83],[-18,3],[-27,96],[-21,-34],[-7,-149],[-11,-115],[-28,39],[-23,-91],[-19,-127],[-22,-49],[-11,115],[-16,10],[-15,-75],[-16,7],[24,191],[-18,21],[-37,-161],[-27,-170],[12,-118],[3,-111],[-21,-5],[-25,-64],[-7,-63],[7,-109],[-18,-95],[3,-53],[-29,-33],[-12,-64],[-9,-117],[5,-52],[-27,-289],[-8,-20]],[[6432,1541],[4,100],[19,115],[12,12],[13,151],[16,86],[3,102],[-17,151],[-6,173],[4,104],[14,32],[23,-57],[9,-71],[20,-69],[18,-88],[9,19],[33,-70],[39,-130],[26,-105],[17,-93],[17,-161],[-2,-193],[24,3],[7,-90],[0,-98],[21,-132],[25,-80],[-2,-91],[-42,-246],[-28,-73],[-16,-72],[-18,-34],[-28,15],[-14,-93],[-20,-58],[-9,-68],[-15,-27],[-15,-109],[1,-49],[-13,-159],[-16,-88],[-40,167],[-22,45],[-11,155],[9,440],[-5,123],[-12,163],[-9,215],[-15,91],[-8,142]],[[6255,3802],[10,168],[6,36],[22,-18],[23,-221],[26,34],[18,60],[22,-22],[21,-134],[16,-78],[28,-53],[7,-143],[-18,-132],[-25,-66],[-15,20],[-30,-86],[-21,-16],[-18,56],[-3,225],[-3,107],[-13,32],[-9,-39],[-22,63],[-15,102],[-7,105]],[[6254,3061],[7,52],[30,92],[8,-52],[-8,-114],[-31,-24],[-6,46]],[[6154,3775],[20,51],[29,-47],[22,-157],[-7,-105],[-17,-61],[-20,-6],[-12,225],[-15,100]],[[6085,4168],[16,133],[3,76],[15,-28],[89,-80],[35,23],[8,-56],[-25,-147],[-20,-41],[-62,111],[-44,-30],[-15,39]],[[5815,5062],[43,12],[32,223],[11,19],[14,-120],[22,-364],[21,-36],[16,-109],[3,-91],[12,-65],[-40,-79],[-25,94],[-26,18],[-37,-27],[-8,142],[-25,203],[0,104],[-13,76]],[[5394,5926],[1,66],[11,62],[4,81],[20,64],[22,96],[17,-24],[9,35],[22,-7],[19,-33],[13,-122],[-1,-75],[-10,-104],[1,-173],[-5,-45],[-27,-129],[-46,59],[-17,103],[-25,49],[-8,97]],[[5266,5545],[6,114],[28,121],[4,76],[16,-2],[-8,-123],[2,-63],[-23,-56],[-13,-165],[-12,98]],[[28449,37887],[2,113],[-10,92],[-15,67]],[[30077,43386],[17,-29],[3,-310]],[[30097,43047],[-19,-25],[-16,19],[-19,-32],[-4,78],[16,201],[22,98]],[[29891,42709],[9,42],[-4,121],[13,21],[3,456],[-4,672]],[[29908,44021],[117,20],[0,-239],[12,9],[-3,-143],[6,-81],[18,-54],[10,-80]],[[30068,43453],[-8,-95],[-14,-2],[0,118],[-16,-32],[-13,-79],[2,-141],[-4,-222],[-19,-193],[-37,-16],[-27,-61],[-41,-21]],[[20922,45913],[257,1],[179,-3],[178,0],[63,-6],[174,2],[102,1],[199,0],[125,0],[159,0],[112,1],[8,-97],[59,-139],[36,-102],[26,-109],[24,11],[29,187],[44,-48],[23,30],[45,-23],[38,41],[24,-42],[3,-70],[22,-71],[41,-22],[9,-78],[12,27],[28,-56],[1,-61],[32,-36],[-6,-86],[20,-107],[3,-73],[19,12],[16,-71],[16,15]],[[23042,44941],[13,-13],[5,-72],[-9,-67],[1,-140],[11,-51],[13,-154],[-7,-121],[22,-108],[-1,-124],[9,-7],[16,-123],[15,-10],[-9,-133],[25,-187],[-13,-209],[10,-211],[-3,-95],[25,-117],[20,-16],[1,-511],[18,-15],[-5,-84],[5,-106],[0,-174],[14,-215],[-10,-38],[3,-168],[-14,-85],[13,-104],[15,-34],[10,-96],[-4,-46]],[[23231,41307],[3,-113],[16,5],[1,-112],[23,-297],[15,-82],[22,-54],[1,-115],[21,-106],[-6,-129],[32,-112]],[[23359,40192],[-160,0],[-118,1],[-208,1],[-219,1],[-155,1],[-216,-1],[-180,-1],[-182,1],[-131,1],[-131,0],[-179,1]],[[21480,40197],[0,640],[0,1266],[-227,-1],[-176,-1],[-155,0]],[[20922,42101],[0,794],[0,892],[0,1172],[0,954]],[[15775,54224],[4,171],[15,73],[9,-162],[-7,-112],[-21,30]],[[15708,55880],[26,243],[3,89],[22,-12],[-3,-72],[25,-91],[-7,-52],[-24,22],[-3,-137],[12,-76],[13,-252],[13,84],[12,-76],[20,-38],[7,-155],[-11,-91],[-15,47],[-9,114],[-18,6],[-15,62],[-5,90],[0,159],[-18,-4],[-25,140]],[[15659,56357],[7,139],[25,-52],[7,-177],[-14,-20],[-25,110]],[[15635,56647],[31,160],[12,-2],[37,-96],[-20,-108],[-19,-32],[-18,16],[-10,86],[-13,-24]],[[15587,56582],[6,50],[21,2],[31,-167],[-3,-123],[-10,-17],[-26,69],[-10,148],[-9,38]],[[17306,57352],[-1,-1199],[-2,-1014],[1,-688],[0,-818],[0,-1189],[-5,-153],[20,-100],[6,-178],[12,-74],[-11,-118],[12,-197]],[[17338,51624],[-155,5],[-182,4],[-240,-1],[-38,-127],[-37,13],[-30,-35],[-44,-25],[-13,32],[-15,-37],[-13,-93],[-37,-18],[-45,-44],[-29,-75],[-28,-44],[-11,-69],[-54,-51],[-29,2],[-15,73],[-21,14],[-15,-57],[-46,-85],[-11,-54],[-14,25],[-39,-16],[-13,-73],[-15,-6],[-8,124],[-34,64],[-18,-23],[-37,64],[-56,-62],[-21,24],[-16,-25],[-11,-74],[-54,-136],[-23,-11],[-18,-57],[-23,1],[-14,53],[-26,4],[-56,76],[-25,75],[1,147],[-10,144],[3,110],[-8,178],[-18,134],[-7,100],[-59,194],[-14,7],[-32,-84],[-25,3],[-17,67],[1,91],[-14,76],[-19,-19]],[[15491,52127],[-34,14],[-9,72],[-26,-38],[-23,-85],[-9,11],[-21,121],[-26,-63],[6,211],[-3,409],[12,-36],[-2,-164],[5,-224],[17,0],[-12,172],[28,86],[0,69],[-18,121],[23,223],[-29,-12],[-5,-35],[-27,76],[-3,172],[5,60],[29,104],[32,40],[3,47],[-37,24],[-10,95],[-26,22],[-8,-39],[6,-144],[-13,-35],[0,316],[-17,370],[-12,37],[-16,188],[-8,338],[-18,312],[-19,146],[-40,163],[-10,161],[-4,221],[-11,117],[20,308],[-20,95],[20,19],[26,-44],[52,-159],[39,-42],[38,-87],[15,-75],[51,-44],[44,25],[33,-62],[11,31],[35,-64],[52,1],[21,91],[27,-87],[8,-75],[16,28],[32,-109],[-6,130],[29,69],[14,-99],[9,23],[8,-164],[-13,-56],[12,-55],[11,-173],[-31,-122],[-30,-46],[-7,-172],[-11,-132],[47,95],[0,89],[18,155],[45,217],[10,-322],[-4,-94],[0,-195],[-11,-68],[13,-88],[-10,-78],[-2,-178],[-10,-109],[7,-63],[-10,-61],[-46,74],[8,-136],[-14,-103],[-17,146],[-8,-140],[19,-34],[20,-103],[12,8],[24,140],[17,191],[25,-27],[3,110],[30,55],[-1,75],[-26,359],[21,63],[-24,95],[16,134],[-6,148],[15,76],[9,195],[22,42],[3,94],[-35,147],[-6,72],[-1,151],[-17,42],[-13,-92],[10,-109],[-20,6],[-7,95],[2,126],[35,3],[0,137],[-35,102],[-8,95],[-27,-36],[-3,149],[15,68],[21,-105],[17,3],[-8,184],[23,66],[-24,124],[-7,213],[-20,-25],[-28,75],[-4,96],[-18,62],[11,87],[-20,48],[17,89],[184,-1],[96,-9],[174,8],[115,-3],[199,-1],[159,2],[165,0],[178,0],[165,1],[160,-3]],[[19531,34469],[222,0],[206,2],[176,0],[2,-14],[187,3],[160,3],[174,-5],[185,1],[241,10],[131,2]],[[21215,34471],[0,-953]],[[21215,33518],[-11,0],[0,-849],[0,-825],[0,-837],[0,-977],[-1,-1273],[-3,-1173],[-2,-741],[0,-1268],[0,-637],[-184,-1],[-225,0],[-108,1],[-154,0],[-182,4],[-138,-4],[-4,-256],[30,-159]],[[20233,24523],[-132,1],[-178,0],[-159,0],[0,-858],[-234,-2]],[[19530,23664],[0,1443],[1,1312],[0,901],[0,716],[0,1033],[0,786],[0,726],[0,770],[0,1436],[0,783],[0,899]],[[20924,51528],[136,0],[178,0],[207,-1],[211,-2],[135,0],[213,-2],[117,-3],[183,-1],[189,-8],[178,-2],[176,0],[162,0]],[[23040,46866],[-41,0],[1,-126],[20,-75],[-1,-157],[-15,-45],[3,-95],[24,-28],[12,-211],[-20,-170],[-8,-191],[4,-65],[-31,-292],[34,-204],[20,-266]],[[20922,45913],[0,756],[0,1392],[-1,966],[0,694]],[[23410,19386],[7,57],[43,196],[19,130],[23,-10],[-92,-373]],[[22776,15151],[4,413],[-3,75],[4,233],[5,215],[8,84],[8,199],[18,240],[12,43],[20,329],[20,-6],[-15,-118],[-25,-269],[-21,-280],[-13,-201],[-10,-246],[-6,-264],[0,-271],[4,-180],[-10,4]],[[21215,33518],[120,0],[208,-1],[206,-1],[157,0],[145,1],[0,-872],[0,-1171],[0,-760],[0,-895],[16,36],[16,-58],[37,-243],[16,-82],[27,-7],[5,80],[23,-13],[28,-58],[5,148],[24,-79],[23,-149],[6,-235],[41,-31],[12,37],[22,-65],[43,-89],[21,-7],[12,60],[14,-7],[31,-187],[25,80],[9,100],[18,-43],[19,-1],[18,-38],[16,76],[5,-61],[-8,-71],[10,-82],[1,-75],[38,-27],[-6,-202],[28,-63],[37,167],[17,104],[23,-75],[11,-103],[14,41],[11,-30],[-1,-118],[25,-43],[19,128],[17,26],[18,-15],[4,-86],[-11,-84],[9,-125],[21,-19],[1,135],[13,36],[17,132],[-2,87],[20,52],[15,-203],[21,30],[9,-84],[19,48],[5,119],[21,-71],[-7,-64],[27,-39],[7,-92],[22,6],[24,-166],[11,147],[19,-34],[14,24],[9,147],[27,-2],[30,48],[5,44],[22,-87],[26,42],[43,154],[12,-27],[6,-89],[26,-28],[45,22],[8,115],[10,45],[43,-115],[3,-75],[16,-19],[32,-191],[49,-93],[10,-78],[34,-10],[16,-37]],[[23588,28060],[10,-6],[17,-168],[25,56],[38,25],[22,-26],[11,-44],[0,-1017]],[[23711,26880],[0,-622],[0,-1323],[7,-19],[12,-129],[22,-51],[6,-139],[14,-89],[-3,-51],[11,-88],[-9,-67],[-3,-130],[16,-140],[11,3],[14,-165],[7,-144],[-5,-89],[18,-163],[9,-128],[14,-14],[-4,-152],[9,-32],[-6,-102],[3,-160],[-12,-76],[6,-98],[-16,-163],[-3,-102],[-18,-102],[-14,-209],[10,-179],[-13,-78],[-5,-100],[5,-76],[11,-27],[-4,-155],[7,-109],[-12,-243],[-14,-64],[-19,-241],[-18,-86],[23,-245]],[[23768,20533],[-45,-17],[-27,-40],[-109,-285],[-40,-113],[1,46],[19,105],[4,78],[-60,-91],[17,219],[3,103],[-4,116],[-14,52],[-17,-43],[-16,-167],[-14,-26],[-6,77],[-20,-125],[9,-59],[-9,-117],[18,-138],[17,-65],[-2,-246],[-21,-47],[-17,-129],[-19,-72],[-13,9],[-5,-111],[12,-96],[-36,-175],[-36,-208],[-23,-46],[-86,-303],[-33,-106],[-53,-146],[-52,-177],[-34,-153],[-15,-122],[-32,-102],[-54,-234],[-27,-151],[-31,-203],[-2,118],[12,135],[39,193],[24,24],[33,189],[39,79],[-3,145],[-37,-130],[-11,-66],[-17,-3],[-6,172],[-22,-5],[-7,-213],[7,-89],[-17,-122],[-24,-106],[-14,2],[-12,46],[-1,76],[-32,-92],[-22,-121],[24,-96],[10,97],[18,-4],[-2,-91],[-41,-390],[-9,2],[-7,98],[-58,-8],[-2,-92],[22,31],[-2,-109],[13,-112],[25,-61],[-19,-234],[-12,-240],[-1,-63],[-12,-169],[-19,-45],[-4,141],[-31,-162],[-7,-86],[29,-24],[30,54],[-6,-516],[-5,-267],[-5,-77],[4,-215],[12,-302],[11,-105],[23,-352],[-5,-137],[13,-263],[17,-12],[16,-78],[1,-163],[-22,11],[-39,-108],[-2,-119],[-19,15],[-4,69],[-18,3],[-35,231],[-15,46],[-21,-3],[-7,57],[-24,14],[-42,-49],[-19,51],[-11,-35],[-8,49],[-21,-6],[-6,81],[-14,7],[-5,63],[-12,10],[-22,132],[-11,-30],[-24,91],[-19,-41],[-28,181],[-20,73],[-19,-30],[-32,74],[-20,8],[-8,57],[5,96],[-10,92],[-10,21],[-4,161],[-6,68],[-2,131],[-9,40],[-8,186],[-17,69],[-2,82],[-14,41],[3,57],[-19,94],[5,292],[-4,140],[-15,42],[-3,130],[8,264],[-14,39],[5,125],[-9,79],[-17,69],[-33,46],[-14,126],[-30,130],[-4,176],[-12,117],[-15,74],[-8,137],[-9,38],[-9,113],[-36,100],[-23,168],[2,62],[-17,163],[4,53],[-21,232],[3,67],[-13,42],[0,60],[-14,36],[-3,155],[-11,162],[-29,222],[1,84],[-8,217],[-17,74],[-17,206],[-22,65],[-3,51],[-32,109],[-16,179],[-26,35],[-6,71],[-24,43],[6,54],[-20,39],[3,105],[-20,75],[-10,173],[-12,-33],[-32,86],[-22,-84],[-19,16],[-25,77],[-22,-19],[-28,42],[-25,-54],[-24,52],[-40,121],[-11,-16],[-19,-200],[-22,42],[-17,-80],[-6,23],[-33,-67],[-4,-96],[-11,-74],[1,-63],[-19,-147],[-6,-149],[-3,-162],[-10,-9],[-8,-176],[8,-90],[-34,-75],[-10,-146],[-13,-23],[-5,-114],[-15,-106],[-73,127],[-38,225],[-11,-11],[-36,59],[-18,160],[-37,38],[-28,51],[-26,119],[-16,42],[-11,161],[-15,62],[-21,13],[-17,100],[-33,130],[-9,191],[-18,200],[-17,124],[-9,267],[6,60],[0,184],[-21,232],[-14,119],[-13,53],[-4,229],[-7,114],[-21,76],[-10,145],[-11,-11],[-20,132],[-12,7],[-15,100],[-11,-22],[-10,61],[-29,43],[-5,96],[-40,171],[-13,183],[-12,59],[-35,97],[-27,233],[-17,46],[-6,98],[-15,53],[-19,10],[-40,160],[-8,109],[-10,46],[-7,128],[-20,195],[-20,61],[-11,-30],[-10,66]],[[16868,27756],[17,-8],[45,-123],[20,-143],[-36,-31],[-13,62],[-1,131],[-21,28],[-11,84]],[[16866,26906],[9,3],[25,-211],[32,-161],[-16,-72],[-21,98],[-11,113],[-18,230]],[[16597,27375],[14,13],[19,-55],[-3,-80],[-21,34],[-9,88]],[[16499,28864],[20,22],[11,-34],[16,11],[21,-75],[18,-6],[7,63],[18,-16],[-5,-68],[-32,-37],[-14,-47],[-29,-3],[-15,39],[-1,99],[-15,52]],[[16410,28755],[49,42],[19,-86],[1,-72],[-34,-87],[-16,61],[-19,142]],[[16354,28816],[24,74],[2,-111],[-26,37]],[[15306,44002],[59,-4],[182,6],[56,18],[28,-11],[92,2],[94,10],[122,-11],[166,-14],[89,-6],[194,-1],[91,5]],[[16479,43996],[1,-718],[-1,-829],[1,-1304],[0,-1036],[-2,-1395],[1,-430],[174,-825],[168,-811],[146,-711],[104,-518],[139,-706],[186,-952],[171,-895],[96,-513],[134,-718],[177,-974]],[[17974,30661],[1,-259],[12,-58],[10,-131],[22,-103],[10,-222],[16,-127],[-2,-137],[12,-13],[33,-163],[14,-31],[10,-88],[-8,-102],[-24,-145],[-20,-71],[-25,-55],[-6,-162],[-27,-184],[9,-111],[-8,-38],[10,-288],[-8,-22],[0,-254],[-10,-39],[-18,-144],[-2,-54],[-26,-56],[7,-118],[-9,-66],[15,-61],[0,-205],[-8,-125],[10,-113],[28,-3],[18,-37],[11,-198],[-1,-130],[-17,-103],[1,-65],[-25,-55],[-20,18],[-9,-36]],[[17950,26307],[-170,-80],[-245,-126],[-116,-65],[-139,-81],[-4,177],[-8,86],[-24,54],[-2,196],[-6,70],[9,66],[-8,263],[-13,209],[-33,280],[-17,123],[-25,102],[-24,143],[-9,-3],[-20,155],[-25,97],[-14,28],[-21,90],[-24,147],[-22,61],[-11,-77],[-23,-33],[-26,71],[-13,61],[11,116],[-17,229],[-19,137],[-14,27],[-46,-17],[-20,-62],[-11,59],[-26,23],[-41,107],[-12,3],[-24,86],[-18,230],[-31,98],[-20,107],[-28,78],[-30,2],[-16,-39],[-18,43],[-24,-22],[-36,102],[-31,19],[-46,-3],[-52,-40],[-11,144],[-37,103],[12,243],[-10,119],[7,144],[-16,113],[11,305],[-2,118],[-17,91],[-25,12],[-19,55],[-12,79],[9,151],[-1,145],[-11,88],[-26,22],[-28,168],[-18,165],[-26,55],[-15,94],[-5,133],[-37,200],[-6,157],[-7,69],[-17,35],[-17,176],[-23,148],[-31,90],[-20,125],[2,62],[-9,226],[-6,61],[4,132],[-12,32],[13,115],[16,-62],[13,100],[10,280],[-21,243],[-19,89],[-11,-45],[-26,-12],[-25,55],[-19,93],[-17,145],[-13,22],[-10,114],[-11,43],[-4,101],[5,211],[-16,255],[-16,54],[6,315],[-5,180],[29,58],[15,-156],[-11,-42],[10,-219],[27,-36],[40,-202],[17,-40],[1,92],[-15,10],[-11,168],[-4,152],[-12,83],[-13,25],[-8,83],[-15,25],[9,141],[-6,96],[-19,7],[-6,103],[36,113],[6,55],[-11,99],[-26,76],[-25,-56],[-4,-180],[4,-186],[13,-78],[-17,-116],[-14,31],[-26,116],[-17,-7],[-22,105],[-11,92],[-33,67],[-20,-55],[14,209],[3,98],[-8,97],[3,70],[-10,86],[-19,49],[1,71],[-16,173],[-59,232],[-29,243],[-20,81],[-8,66],[-29,131],[-18,132],[-5,80],[11,180],[-13,213],[-10,60],[-10,257],[-5,37],[3,183],[14,207],[-6,90],[-2,171],[-8,54],[-8,221],[-15,55],[-7,89],[-29,198],[-13,36],[-8,136],[-22,51],[-48,249],[4,102],[-7,150],[-10,96],[22,330],[48,495],[13,288],[-14,89],[15,297],[12,401],[-5,206],[-23,367],[-25,72],[10,130],[4,181],[-2,109]],[[25339,30649],[-1,24],[150,-9],[66,-1],[158,-21],[129,-1],[221,-13]],[[26062,30628],[12,-447],[25,-805],[32,-1102],[35,-1224],[13,-453],[22,-431],[11,-124],[18,-124],[8,-137],[-8,-230],[19,-45],[9,-78],[-8,-74],[-22,-70],[-15,-95],[5,-87],[-3,-145],[-23,-290],[5,-240],[-1,-72],[19,-145],[4,-148],[-8,-139],[-6,-198],[1,-132],[-7,-59],[4,-188],[18,-110],[9,-205]],[[25529,21658],[-39,-59],[-31,25],[4,54],[-15,80],[-8,83],[-19,63],[-9,140],[9,104],[-5,212],[-23,64],[-21,-209],[-5,-120],[-2,-253],[-9,-122],[-15,8],[2,87],[-32,43],[-10,37],[-16,-67]],[[25285,21828],[-7,947],[-6,726],[-7,860],[-2,373],[19,1058],[21,1191],[21,1233],[12,590],[21,1132],[10,514],[-15,57],[-13,140]],[[26062,30628],[61,-3],[124,9],[172,1]],[[26419,30635],[196,-3],[0,10],[143,17]],[[27377,25003],[13,-44],[-12,-105],[-14,10],[0,-102],[-17,-97],[-14,36],[-9,-90],[11,-36],[-26,-167],[0,-174],[-12,-138],[-23,-6],[-1,-51],[23,-26],[-33,-280],[6,-196],[-5,-92],[-11,-39],[-10,-94],[-12,-52],[2,-91],[-5,-107],[-20,-61],[25,-51],[-1,-104],[-12,-178],[-3,-130],[4,-62]],[[24912,32565],[5,-71],[16,-71],[-30,-66],[0,-63],[16,-76],[-21,-26],[-9,-86],[-16,-35],[-22,-5],[-1,-92],[12,-139],[-22,-110],[-14,-23],[-2,-83],[-17,-52],[-6,-67],[16,-110],[-10,-151],[-14,-81],[23,-66],[-11,-76],[14,-99],[-10,-37],[-20,2],[-10,-174],[-23,29],[-5,-88]],[[24751,30649],[17,-85],[0,-83],[-46,-144],[-6,97],[-13,-41],[7,-72],[-5,-58],[7,-87],[-19,-30],[15,-110],[-15,-82],[-19,-29],[11,-149],[-12,-101],[7,-105],[-14,-74],[-18,-38],[-21,-7],[4,-116],[-7,-50],[-18,-24],[-5,-117],[-16,73],[-7,-57],[12,-63],[20,2],[-2,-74],[-24,41],[-10,-107],[21,-51],[-5,-101],[-28,-20],[-28,-84],[22,-94],[-17,-113],[5,-168],[-15,-15],[-10,-83],[21,-20],[9,-83],[-14,-30],[-21,95],[-17,-27],[1,-60],[22,-68],[2,-50],[-27,-67],[17,-213],[-11,-94],[18,-104],[0,-94],[17,-149],[-2,-146],[-26,-6],[-5,-61],[21,-87],[-11,-115]],[[24513,26851],[-219,7],[-76,3],[-160,11],[-193,7],[-154,1]],[[23588,28060],[3,887],[5,1014],[2,498],[5,947],[-26,1033],[-17,697],[-9,380]],[[23551,33516],[141,-1],[107,1],[168,-3],[216,0],[263,-1],[193,2],[155,-2],[6,-159],[20,-60],[-6,-210],[-38,-167],[-8,-104],[-12,-30],[-24,-226],[180,9]],[[27479,43962],[53,112],[49,150],[15,109],[11,-52],[52,167],[31,72]],[[27690,44520],[0,-517],[247,-2],[168,2],[123,-1],[197,2],[104,4],[113,-6],[168,-1],[106,3],[23,-115],[4,-130],[19,-4],[23,-48],[8,-61],[-6,-71],[15,-42],[2,-256],[-8,-24],[25,-189],[21,-65],[6,-65],[36,-29],[18,-125]],[[29102,42780],[-17,-22],[-23,-131],[-13,-184],[-27,-138],[-13,-131],[-29,-93],[4,-72],[18,-152],[-16,-157],[-17,-25],[-9,-165],[3,-220],[26,-16],[9,-49],[2,-236],[27,-44],[5,-100],[21,-91],[8,-85],[19,-67],[13,-131],[-25,-36],[-12,-82],[-21,-30],[-39,-173],[-16,-37],[1,-90],[-40,-119],[-16,0],[-24,-90]],[[28901,39814],[-2,9]],[[28899,39823],[-21,51],[-33,1],[-24,-60],[-24,-153]],[[27769,39660],[-104,-1],[-186,1],[0,1184],[0,566]],[[27479,41410],[0,1163],[0,1389]],[[23231,41307],[216,-18],[140,-9],[114,4],[148,14],[80,1],[140,15],[184,25],[103,23],[13,-116],[16,-18],[2,-74],[26,-179],[12,-55],[17,-7]],[[24442,40913],[-12,-69],[-12,-202],[-1,-206],[4,-175],[21,-232],[-8,-70],[5,-77],[19,-100],[-2,-101],[36,-195],[15,-47],[11,-114],[13,-13],[11,-133],[19,-88],[42,-157],[32,-170],[5,-184],[7,-127],[-8,-60],[14,-251],[22,-107],[11,11],[26,177],[39,-83],[17,-9],[38,-134],[-3,-97],[-12,-49],[-13,-116],[9,-88],[-3,-127],[-19,-135],[-10,-193],[-15,-94],[-7,-183],[6,-129],[22,-108],[9,-85],[31,-96],[10,-85],[11,-7],[13,-84],[19,0],[-9,-97],[6,-69],[14,-25],[16,68],[13,-88],[16,-24],[44,-255],[19,-53],[-1,-286],[26,-264],[-3,-100],[-16,-25],[-7,-88],[16,-66],[-1,-98],[24,-216],[0,-88],[24,-91],[9,45],[17,-8],[18,-56]],[[25079,34437],[9,-34],[-5,-147],[-16,-153],[3,-90],[-9,-83],[11,-95],[-19,-185],[-9,-9],[-19,129],[-13,-32],[-12,-222]],[[25000,33516],[-19,-3]],[[24981,33513],[5,62],[-5,80],[-19,10],[-5,-57],[9,-94]],[[24966,33514],[-1,-149],[9,-88],[-6,-66],[-22,2],[0,-59],[21,-74],[-15,-59],[-30,25],[1,-53],[24,-102],[4,-84],[-24,-86],[-2,-92],[-13,-64]],[[23551,33516],[0,953]],[[23551,34469],[0,996],[0,480],[1,848],[1,768],[1,395],[0,554],[-22,125],[-14,-28],[-24,78],[-7,112],[-15,60],[-6,161],[-50,284],[-1,77],[14,13],[8,162],[16,52],[4,101],[19,166],[-16,45],[-4,86],[-17,-8],[-17,-68],[-35,89],[-28,175]],[[18139,43994],[39,-11],[105,8],[209,14],[168,3],[5,-8],[189,4],[120,4]],[[18974,44008],[0,-804],[0,-1110],[152,-6],[269,7],[135,5]],[[19530,42100],[1,-728],[-1,-333],[0,-1086],[0,-1428],[-3,-774],[0,-848],[5,-211],[0,-1209],[-1,-297],[0,-717]],[[19531,34469],[-231,-1],[-166,-1],[-8,12],[-177,-7],[-203,1],[-188,-1],[-119,-1],[-183,0],[-119,1]],[[18137,34472],[-1,1129],[1,441],[0,1289],[0,964],[1,943],[0,948],[0,765],[1,712],[1,1373],[-1,958]],[[21215,34471],[85,-9],[182,-4]],[[21482,34458],[212,7],[153,4],[172,6],[130,-5],[173,0],[188,-3],[208,1],[161,1],[147,-1],[140,1],[165,1],[220,-1]],[[24966,33514],[15,-1]],[[25000,33516],[32,15],[51,-7],[220,-5],[77,-7],[6,83],[-11,262],[62,-27],[-1,-58],[122,15],[83,2],[147,19],[71,-7],[84,-35],[56,-16],[95,-13],[82,20],[48,-12],[50,-27],[84,-17],[155,-13],[82,-13],[5,35]],[[26600,33710],[111,-5],[4,-8],[104,-1],[117,2],[149,-1],[3,42],[77,-8],[-9,-45]],[[27156,33686],[-8,-99],[3,-131],[-12,-104],[6,-125],[-32,-1],[-21,-86],[-35,-346],[-27,-27],[-5,82],[-16,15],[-23,-41],[-34,-100],[-14,-144],[-25,-83],[-17,6],[3,131],[-9,56],[-42,-148],[-1,-68],[-18,-6],[-17,-48],[5,-83],[-6,-74],[-21,-129],[-24,30],[-23,-47],[-7,-67],[-15,-6],[-20,-137],[-37,-82],[-15,-93],[-37,9],[-39,-11],[-15,-73],[-16,-12],[-8,-79],[-14,-23],[-15,-99],[-7,-122],[5,-89],[-24,-95],[-25,-15],[-7,48],[-19,-83],[-9,-452]],[[25339,30649],[-135,0],[-209,-4],[-145,2],[-99,2]],[[20922,42101],[-173,-1],[-50,-5],[-243,-3],[-137,2],[-66,8],[-112,1],[-214,-1],[-174,-3],[-223,1]],[[18974,44008],[0,960],[1,415],[-1,911],[0,573],[-1,990],[0,866],[-1,8]],[[25527,43449],[26,-113],[18,-36],[41,-11],[34,52],[49,116],[27,91]],[[25722,43548],[85,-1],[203,-1],[275,2],[0,-122]],[[26285,43426],[0,-497],[1,-1211],[-1,-935],[-3,-946],[0,-642],[-1,-709]],[[26281,38486],[-22,-100],[17,-124],[-9,-167],[19,-18],[-6,-99],[3,-88],[-21,3],[-29,-31],[-41,-149],[-21,-9],[-9,69],[-17,19],[-36,-25],[-5,-89],[11,-226],[-23,-181],[-25,-35],[-9,-45],[-10,-196],[-24,-106],[-13,39],[-32,-218],[-1,-163],[-5,-128],[-28,-52],[-29,42],[-13,-12],[-26,89],[-5,193],[-17,71],[-8,-123],[-16,-84],[-5,-69],[-18,-15],[-5,-239],[-15,8],[-3,-103],[-24,87],[-18,0],[-13,146],[-17,-4],[-19,-100],[-15,-9],[-18,-69],[-7,-177],[-17,-28],[-10,104],[-15,15],[-46,169],[-15,12],[-20,-72],[-25,124],[-8,-93],[12,-72],[-8,-101],[-16,-5],[2,123],[-46,-33],[-21,93],[-9,-65],[9,-159],[-11,-62],[-23,46]],[[25387,35995],[-19,180],[23,2],[-7,118],[7,39],[-6,105],[19,67],[-14,57],[20,56],[10,77],[-17,48],[6,162],[29,2],[4,93],[24,157],[8,135],[26,203],[7,150],[18,36],[10,194],[-9,62],[-4,135],[7,84],[-3,74],[-13,28],[1,135],[-24,150],[23,157],[-8,84],[4,136],[16,27],[0,999],[2,1186],[0,597],[0,937],[0,782]],[[21482,34458],[1,1310],[-1,697],[0,778],[0,686],[-1,934],[-1,1334]],[[17306,57352],[274,3]],[[18139,43994],[-155,1],[-58,14],[-63,-11],[-233,1],[-139,-1],[-183,7]],[[17308,44005],[0,1192],[0,1316],[0,940],[1,97],[12,107],[12,202],[-12,123],[14,42],[10,100],[-22,71],[-1,87],[-23,-23],[-13,94],[-18,-40],[-13,56],[7,92],[-15,114],[8,58],[-3,100],[23,126],[13,227],[15,154],[30,74],[11,137],[12,60],[5,102],[-4,156],[15,72],[18,152],[16,346],[24,231],[9,121],[20,135],[6,74],[-20,145],[-1,81],[-16,84],[-20,7],[-9,74],[-23,9],[-4,63],[-20,111],[-14,150]],[[12979,71452],[20,89],[24,-67],[-33,-98],[-11,76]],[[12905,68644],[30,35],[27,-116],[-4,-119],[-19,-2],[-23,79],[-11,123]],[[12838,71378],[18,142],[14,45],[36,-22],[21,31],[22,-30],[13,-102],[-15,-73],[6,-138],[-60,-87],[-22,109],[-32,79],[-1,46]],[[12731,69817],[23,73],[23,-49],[-5,-130],[-28,-2],[-13,108]],[[12684,69653],[23,83],[29,-6],[-5,-105],[-29,-15],[-18,43]],[[12675,69987],[21,112],[9,-76],[-21,-118],[-9,82]],[[12665,69380],[35,203],[40,21],[1,-74],[-21,-38],[-23,-98],[-10,-120],[-22,106]],[[12630,70614],[43,248],[6,59],[27,53],[-25,144],[-9,176],[11,91],[57,-58],[22,17],[47,-16],[28,-158],[10,-134],[-22,-187],[14,-67],[37,35],[55,-147],[33,-143],[41,-239],[8,-215],[24,-52],[8,-130],[36,-116],[-9,-57],[-54,105],[-18,79],[-20,-142],[40,18],[38,-137],[14,-118],[22,-68],[16,-152],[-27,-81],[24,-49],[16,144],[15,-28],[5,-157],[-16,-70],[11,-59],[-26,-58],[0,-70],[20,-19],[13,-138],[-2,-209],[5,-116],[-15,-60],[-2,-91],[-42,-36],[-82,196],[6,67],[22,-21],[3,85],[-20,64],[-28,-1],[-26,143],[20,240],[-14,110],[-29,-51],[1,-207],[-19,-43],[-36,76],[9,111],[-15,58],[-7,162],[-43,-6],[23,-161],[-1,-148],[17,-56],[11,-181],[46,-192],[9,-97],[-1,-144],[-36,-2],[-15,160],[-27,89],[-21,181],[-20,37],[-5,167],[-20,119],[10,93],[-15,160],[-24,-30],[-33,40],[-1,179],[55,72],[11,49],[19,-34],[9,67],[-2,185],[-18,173],[-29,4],[-32,71],[7,102],[-28,47],[-10,-23],[-32,68],[-16,105],[12,75],[21,27],[27,-91],[43,32],[-6,148],[-31,46],[-12,83],[-24,30],[-13,-91],[-45,0],[-4,66]],[[12628,69641],[12,48],[12,161],[43,-32],[-24,-189],[-17,61],[-26,-49]],[[12594,70513],[18,71],[11,-89],[-9,-92],[-20,110]],[[12476,70530],[29,30],[37,-52],[-51,-137],[-1,79],[-14,80]],[[12461,72297],[19,105],[38,18],[23,96],[25,-60],[13,-183],[37,-81],[25,52],[-27,95],[-8,181],[-38,128],[7,96],[37,54],[77,-77],[54,-98],[61,6],[32,-39],[23,-97],[22,-258],[25,-21],[24,-154],[33,-84],[6,-99],[16,-63],[-30,-58],[-25,-90],[-22,-23],[-49,32],[-25,36],[-12,-100],[-22,-56],[-14,55],[-44,-5],[-26,-72],[-43,19],[-8,253],[-13,-38],[-32,48],[-2,-204],[-13,-73],[21,-221],[-13,-90],[-1,-100],[-21,-34],[6,-78],[-7,-140],[-24,50],[6,90],[-10,100],[-21,-288],[-28,6],[-16,543],[16,105],[31,93],[-22,159],[-24,35],[3,117],[-15,51],[-19,151],[-6,210]],[[12309,75222],[46,-94],[0,-45],[26,-133],[4,-128],[44,41],[60,-74],[41,30],[-4,-145],[24,-120],[0,-63],[31,-144],[-4,-34],[30,-166],[2,-235],[-22,24],[-20,234],[-29,122],[-4,143],[-18,107],[-24,-119],[17,-148],[41,-295],[47,-212],[-3,-76],[16,-118],[-12,-78],[15,-82],[4,-107],[-42,-81],[-40,35],[17,-153],[-17,-108],[-28,-45],[-32,-172],[-48,-133],[-18,42],[-12,356],[52,309],[-32,151],[-9,174],[-17,105],[-17,236],[8,169],[-10,131],[-7,188],[-10,59],[0,144],[-15,137],[-12,34],[-16,223],[-3,114]],[[12107,73297],[44,168],[4,117],[20,90],[35,-38],[8,-104],[20,10],[16,-66],[46,-78],[18,32],[29,-53],[8,-118],[-41,-25],[1,-108],[29,-43],[29,-463],[-1,-99],[13,-104],[18,-332],[4,-170],[-6,-303],[1,-330],[-5,-137],[-34,-27],[-18,150],[-16,34],[-35,325],[-10,159],[-26,151],[-17,29],[-29,122],[0,109],[-51,7],[1,83],[28,21],[12,176],[-7,104],[25,49],[-32,174],[7,179],[-10,102],[-25,2],[-37,114],[-16,91]],[[12096,75215],[21,35],[33,-78],[-40,-25],[-14,68]],[[12056,73038],[12,52],[-4,163],[22,21],[39,-90],[16,-103],[-14,-62],[20,-52],[-6,-187],[-18,-130],[-60,-56],[2,177],[23,54],[4,97],[-25,20],[-11,96]],[[11977,75051],[34,73],[0,-89],[-34,16]],[[11861,74576],[11,124],[110,244],[28,-13],[6,-51],[54,173],[26,-84],[57,-97],[2,-128],[-29,-136],[9,-113],[37,275],[19,13],[32,-83],[45,-12],[6,-51],[40,-48],[10,-117],[-2,-103],[-22,-64],[-54,104],[17,-110],[26,-43],[24,-95],[-16,-53],[23,-56],[8,-197],[14,-141],[3,-147],[-15,-83],[-37,-8],[-90,255],[-61,155],[-3,-285],[8,-80],[-12,-99],[-31,-111],[-41,50],[-36,175],[-20,54],[-12,88],[-37,65],[-9,162],[21,103],[-20,62],[-18,-27],[-13,145],[-36,80],[3,51],[-25,67],[0,190]],[[9327,79022],[30,-7],[13,-86],[-24,-13],[-19,106]],[[9142,79213],[13,100],[40,10],[48,75],[5,40],[44,28],[-3,-69],[-79,-160],[-40,-50],[-28,26]],[[9032,79056],[32,193],[74,-28],[12,-101],[48,33],[15,-130],[-31,-8],[-17,-49],[-24,6],[-41,-83],[-35,-111],[-25,81],[47,106],[-23,37],[-30,-22],[-2,76]],[[9008,79888],[19,116],[13,-58],[-7,-71],[-25,13]],[[8866,79999],[27,63],[43,-22],[-17,-85],[-53,44]],[[8817,78820],[19,58],[26,-22],[-38,-94],[-7,58]],[[8698,77921],[4,97],[64,304],[69,187],[38,216],[25,60],[0,207],[58,-7],[24,-102],[-14,-81],[-65,-185],[-44,-203],[-6,-136],[-32,-66],[15,-130],[-24,-60],[-25,21],[-12,-67],[-60,-98],[-15,43]],[[8687,78806],[15,89],[26,281],[25,-1],[3,122],[23,-37],[-14,-158],[20,-76],[-36,-210],[13,-25],[-17,-166],[-23,67],[8,58],[-39,14],[-4,42]],[[8672,79709],[20,41],[29,-102],[-6,-41],[-37,30],[-6,72]],[[8662,78232],[35,174],[33,36],[-15,-123],[-46,-109],[-7,22]],[[8635,78925],[28,121],[19,-11],[-10,-173],[-29,1],[-8,62]],[[8636,78324],[31,216],[36,38],[6,-52],[-73,-202]],[[7905,77030],[18,96],[4,93],[23,-46],[-1,-82],[-29,-119],[-15,58]],[[7593,74892],[16,132],[12,-20],[-4,-133],[-24,21]],[[7324,74433],[31,38],[-9,-107],[-22,69]],[[7168,74631],[23,75],[12,87],[21,25],[12,110],[33,-43],[14,52],[-26,75],[15,85],[36,-42],[8,113],[29,15],[-7,102],[44,150],[-4,107],[7,93],[19,62],[19,-44],[14,69],[32,11],[1,-97],[-20,-179],[-20,-47],[-9,-81],[12,-52],[-5,-90],[33,12],[23,124],[19,-81],[36,-15],[2,-126],[33,-93],[-34,-201],[-32,43],[-6,103],[-25,21],[13,-204],[-22,-45],[-32,29],[-31,-17],[-24,-106],[-22,-20],[-13,-110],[-30,-45],[-44,34],[-23,59],[-47,62],[-34,20]],[[7125,77138],[43,73],[20,-76],[-4,-69],[-42,-34],[-17,106]],[[6905,71736],[14,83],[26,59],[35,5],[20,-128],[42,19],[-22,-110],[-78,-22],[-30,28],[-7,66]],[[6785,71524],[29,181],[37,114],[24,30],[22,-91],[-21,-77],[-47,-86],[-25,-120],[-19,49]],[[6785,73271],[26,84],[-4,73],[24,150],[28,63],[8,69],[21,6],[24,108],[32,47],[68,-25],[-1,-201],[16,-21],[34,101],[-17,123],[34,0],[19,36],[-52,69],[-16,-9],[-3,205],[55,160],[20,-25],[48,-197],[5,127],[48,-77],[-9,92],[-34,53],[-23,94],[21,77],[42,-114],[41,-58],[-11,115],[40,44],[35,-23],[36,-67],[-28,-162],[0,-140],[17,-37],[-1,170],[40,85],[26,99],[20,-31],[33,60],[27,-40],[-11,-61],[-26,-24],[37,-92],[-41,-106],[3,-330],[40,80],[44,-84],[-38,-143],[-13,-180],[-56,50],[-23,52],[-17,-19],[-15,73],[-40,13],[-9,-61],[43,-40],[10,-69],[34,-73],[-9,-122],[-17,-75],[-14,61],[-18,-87],[-36,122],[-21,-56],[21,-80],[-37,-89],[15,-83],[20,37],[22,-72],[-12,-47],[-31,-5],[-51,-84],[-8,-145],[-20,-23],[-4,97],[-22,40],[7,113],[-26,-12],[-8,-98],[-22,54],[-26,-13],[2,-63],[34,-101],[-19,-126],[-16,-6],[-19,-80],[8,-69],[-38,-64],[-17,-97],[-20,-47],[-43,78],[18,123],[23,91],[38,91],[-36,27],[2,72],[26,176],[-28,-47],[-29,-180],[-11,-3],[-31,-179],[-20,-44],[-2,111],[-26,107],[-35,55],[3,156],[-4,203],[-17,140],[-38,41],[-19,133]],[[6518,70363],[21,47],[26,10],[6,-117],[-6,-53],[-39,23],[-8,90]],[[6240,70772],[21,95],[12,-75],[-14,-51],[-19,31]],[[6079,71728],[16,78],[54,2],[-20,-100],[-50,20]],[[5518,68605],[8,60],[30,-8],[-8,-96],[-21,-17],[-9,61]],[[5479,68833],[12,75],[31,-157],[-27,-68],[-16,150]],[[5445,68441],[26,-53],[-17,-62],[-9,115]],[[5430,69030],[26,100],[20,-74],[-21,-175],[-23,39],[-2,110]],[[5263,68610],[23,85],[11,121],[-14,174],[16,85],[15,-1],[13,109],[36,48],[-2,-163],[11,-93],[-19,-42],[-32,-129],[-20,-108],[-38,-86]],[[5238,69606],[24,72],[30,-30],[0,-134],[-22,66],[-25,-35],[-7,61]],[[5188,69404],[7,55],[23,-20],[24,41],[7,-108],[-46,-26],[-15,58]],[[5094,69407],[18,113],[20,51],[22,-38],[23,6],[14,-64],[-14,-49],[-1,-107],[11,-34],[10,-174],[-26,-38],[-73,136],[4,155],[-8,43]],[[5033,75642],[8,205],[38,90],[13,-1],[36,101],[-7,-138],[-32,-279],[-23,-55],[-21,14],[-12,63]],[[4862,69193],[11,67],[34,28],[-7,-103],[-38,8]],[[4805,69067],[21,73],[54,-145],[-35,-94],[-9,85],[-31,81]],[[4656,68659],[31,104],[25,-52],[1,-129],[-23,-115],[-28,95],[-6,97]],[[4577,85157],[45,99],[50,-15],[10,-66],[-24,-90],[-54,-6],[-27,78]],[[4539,67698],[16,127],[66,-121],[2,-61],[-61,-24],[-23,79]],[[3958,83396],[28,-3],[7,-100],[-34,35],[-1,68]],[[3957,67988],[39,115],[26,38],[43,368],[2,72],[33,82],[26,-68],[19,22],[39,115],[14,-16],[34,75],[18,71],[32,31],[32,-23],[35,20],[2,-65],[29,-124],[9,-108],[-2,-98],[21,-175],[40,43],[23,-84],[4,-129],[-31,70],[-26,5],[-12,89],[-25,-54],[1,-118],[-23,-10],[-24,-77],[-62,46],[-78,-29],[-32,-49],[-32,-98],[-3,-115],[-33,-120],[-55,-60],[-25,10],[-30,48],[-24,196],[-4,104]],[[3881,67079],[22,57],[62,-35],[-11,-74],[-23,-15],[-50,67]],[[3751,67354],[30,68],[6,-80],[16,-55],[2,-94],[-18,-31],[-36,192]],[[3632,67121],[8,104],[29,84],[30,-15],[-2,-64],[37,-36],[3,-92],[16,-40],[-48,-70],[-22,21],[-33,-41],[-18,149]],[[3577,66484],[48,59],[1,-97],[-14,-74],[-30,16],[-5,96]],[[3257,78732],[13,-23],[32,64],[99,-21],[25,-36],[13,79],[-2,72],[21,57],[41,-8],[2,84],[24,63],[32,-61],[51,73],[55,-148],[33,56],[55,-98],[-12,-86],[12,-92],[-11,-70],[17,-88],[-13,-90],[22,-97],[-6,-58],[20,-54],[0,-97],[-39,-35],[-12,24],[-31,-56],[-20,7],[-55,-104],[17,-92],[-30,-45],[-29,132],[-38,67],[-51,-12],[-40,82],[-41,130],[-39,63],[-17,-8],[-38,130],[-18,8],[-10,125],[-32,163]],[[3147,65574],[44,144],[55,14],[10,99],[31,-45],[18,108],[36,-22],[6,159],[-8,96],[16,63],[28,15],[-18,80],[19,60],[30,2],[10,-83],[25,93],[-44,73],[-23,-9],[-18,61],[-23,136],[23,126],[53,122],[14,-17],[24,66],[22,4],[18,-60],[-12,-119],[8,-103],[47,64],[9,81],[22,3],[21,48],[7,-170],[-26,-20],[-23,-123],[-17,-36],[-21,-116],[59,111],[14,-195],[-39,-49],[-6,-43],[-29,-21],[-6,-129],[-14,-2],[-9,-132],[-23,41],[-7,-123],[-30,-25],[-50,35],[-24,-44],[-23,-82],[-21,-25],[-3,-67],[-41,-26],[-11,-82],[-30,17],[-7,-66],[-46,47],[-17,66]],[[3073,89098],[9,77],[28,69],[122,177],[48,93],[74,173],[143,306],[99,176],[88,168],[86,144],[130,183],[108,122],[101,92],[151,22],[29,-78],[7,-116],[-34,-145],[-8,-184],[15,-78],[-29,-115],[24,-181],[21,-82],[41,-42],[37,50],[45,4],[50,-52],[54,60],[54,11],[37,-112],[47,38],[24,-56],[65,96],[60,-84],[27,14],[49,187],[26,192],[17,39],[40,-3],[10,-73],[85,-52],[6,78],[-42,198],[-111,114],[-45,-4],[-59,-85],[12,260],[-29,153],[-35,80],[-19,139],[-25,58],[-61,32],[-41,244],[6,78],[82,77],[22,-138],[31,-130],[30,-68],[-18,-112],[1,-111],[40,-175],[37,-96],[61,-123],[69,75],[9,83],[-52,7],[-41,154],[-57,151],[-14,62],[6,161],[23,97],[-3,60],[41,132],[43,32],[-38,75],[-27,-21],[-40,96],[-72,-52],[-30,-50],[-75,-36],[-34,28],[-38,106],[-80,-23],[-173,123],[-22,56],[-3,227],[-30,300],[-41,260],[-48,172],[-98,176],[-93,252],[-130,319],[-90,119],[-59,45],[-31,64],[-17,109],[-54,138],[-97,116],[-62,34],[122,141],[18,73],[1,97],[18,86],[13,440],[-10,162],[184,-47],[78,18],[299,141],[83,123],[65,146],[35,101],[92,366],[22,188],[1,417],[33,310],[92,336],[61,281],[40,133],[126,259],[121,-66],[44,4],[65,59],[78,108],[65,119],[93,224],[30,106],[126,334],[93,105],[-9,-132],[41,-40],[58,9],[12,61],[78,-21],[85,55],[93,32],[73,85],[74,139],[60,158],[133,487],[67,125],[10,-108],[126,-109],[35,-100],[59,12],[49,-58],[14,-126],[-8,-68],[-47,-97],[-5,-51],[-72,-34],[19,-205],[13,-54],[75,-10],[33,61],[-7,166],[72,138],[-1,115],[52,147],[87,-158],[54,-153],[-14,-87],[9,-214],[66,-3],[25,-27],[21,-91],[51,95],[15,111],[53,23],[97,5],[43,52],[58,-14],[33,-40],[96,-17],[98,-104],[-43,-213],[-27,-47],[19,-224],[52,-63],[67,48],[70,-43],[-40,-213],[85,16],[119,-117],[54,156],[120,45],[30,-45],[14,-96],[70,38],[69,156],[79,-29],[31,39],[114,-100],[28,-76],[48,-41],[55,-4],[31,-73],[-1,-102],[84,-18],[38,45],[71,-120],[-19,-42],[52,-65],[79,-35],[28,18],[32,-80],[51,1],[39,53],[52,-13],[38,23],[65,-17],[101,-86],[21,57],[64,-148],[52,-94],[71,-84],[75,-55],[21,38],[56,-30],[51,131],[56,43],[134,128],[62,37],[29,-37],[47,54],[78,-131],[63,-72],[131,-257],[95,-169],[59,-57],[82,-175],[24,-132],[33,-4],[14,100],[55,-70],[0,-686],[0,-1427],[0,-1161],[0,-736],[0,-1962],[0,-1044],[0,-1210],[0,-662],[0,-1867],[0,-1742],[0,-536],[0,-1088],[0,-1202],[0,-716],[0,-804],[0,-966],[65,-88],[69,-78],[17,169],[133,-241],[81,293],[172,32],[1,-63],[-36,-440],[41,-179],[96,-168],[11,-185],[12,-78],[284,-1001],[18,-263],[12,-229],[-8,-150],[22,5],[51,177],[112,260],[10,38],[68,12],[32,227],[-2,347],[29,-31],[19,28],[18,114],[0,67],[-32,77],[45,77],[67,42],[132,259],[63,-190],[26,-138],[36,-119],[0,-169],[-20,-90],[31,-77],[-11,-78],[19,-125],[72,-61],[6,-108],[32,-116],[23,0],[28,-177],[-7,-113],[26,-33],[-6,-74],[22,-119],[116,-250],[37,-224],[42,-170],[50,-176],[-23,-82],[32,-212],[47,-241],[28,-287],[58,-299],[31,-263],[28,-163],[29,-234],[53,-295],[32,-249],[-34,-229],[90,-88],[-22,-327],[70,-129],[-8,-100],[12,-97],[7,-197],[71,24],[30,-113],[83,-197],[24,-83],[85,-75],[44,-190],[44,-46],[11,-193],[51,-86],[39,50],[28,-219],[-4,-183],[-18,-172],[-19,-106],[11,-159],[-4,-194],[10,-158],[14,-89],[5,-217],[13,-106],[-36,-171],[-23,-247],[-44,-275],[-62,-241],[-42,-106],[-13,140],[-26,-89],[-21,71],[-6,194],[2,86],[-19,99],[6,163],[-22,74],[-5,132],[29,106],[17,100],[15,25],[-1,134],[-12,118],[15,184],[-11,274],[3,34],[-20,153],[-35,211],[-24,99],[-10,80],[32,90],[-9,35],[-27,-94],[-7,-65],[50,-268],[6,-110],[22,-129],[9,-164],[-12,-102],[-1,-198],[5,-129],[-16,-44],[-10,-212],[-39,-134],[-30,96],[20,90],[12,136],[-7,71],[-20,-28],[11,-94],[-13,-105],[-15,-34],[-67,105],[-15,-55],[-32,-298],[-22,196],[-8,165],[11,247],[31,134],[13,129],[-14,93],[6,100],[-9,78],[18,83],[-12,124],[49,-3],[-22,200],[-40,-117],[-44,-28],[41,-76],[-15,-202],[1,-94],[-32,-147],[-12,-176],[-40,96],[-18,73],[-12,213],[10,77],[2,121],[31,13],[-6,77],[13,61],[-6,79],[8,68],[21,17],[-4,178],[2,212],[42,35],[-14,74],[-18,-71],[-22,-20],[-3,-94],[-20,-57],[-35,-44],[19,-138],[7,-125],[-40,-12],[-27,-163],[-8,64],[11,84],[-23,48],[1,125],[-15,86],[-25,27],[-16,-87],[-22,212],[1,136],[32,46],[20,190],[27,27],[16,-84],[11,167],[-16,166],[10,84],[-2,128],[-32,16],[-24,49],[11,228],[-32,63],[-41,118],[-7,91],[-20,58],[-19,138],[5,99],[-40,71],[-30,13],[-6,51],[-30,-20],[-52,128],[5,209],[66,21],[-10,77],[-47,39],[-4,129],[-16,102],[2,130],[-28,65],[-16,96],[6,153],[25,11],[15,-64],[35,-45],[-11,124],[-37,112],[-43,27],[-38,264],[4,65],[-26,32],[-35,168],[-10,218],[-16,26],[-37,-18],[-57,74],[-30,1],[-27,135],[10,33],[2,127],[-26,-16],[-16,236],[-42,222],[-12,113],[12,49],[3,151],[-22,-40],[-34,133],[-19,471],[-24,238],[-23,127],[12,330],[-32,-312],[24,-146],[-14,-23],[-9,-144],[18,-40],[-7,-227],[8,-96],[37,-269],[0,-106],[28,-201],[-15,-49],[21,-198],[20,-359],[-17,-73],[13,-126],[-29,19],[-41,70],[-24,151],[-61,192],[-16,-53],[-67,-36],[4,75],[-27,121],[19,67],[-13,103],[15,114],[-12,128],[-14,33],[-25,284],[-14,-166],[-26,-46],[-41,126],[-20,17],[-18,181],[-27,-63],[-69,140],[-39,-113],[76,-51],[23,-64],[22,-6],[38,-137],[16,-95],[37,-158],[21,-138],[10,-15],[23,-231],[2,-76],[-14,-97],[-14,3],[-59,-80],[-21,23],[-36,-65],[-13,-136],[-18,2],[-13,113],[-34,98],[-11,115],[-34,53],[-22,-54],[-19,82],[-68,164],[-15,63],[-61,147],[-2,79],[-68,233],[-4,184],[-36,150],[-46,149],[-28,57],[-76,106],[-77,217],[-121,210],[-77,178],[-67,168],[16,27],[30,132],[26,63],[27,122],[-18,61],[-22,200],[0,108],[22,49],[16,128],[-18,72],[-16,-78],[-1,-88],[-29,-50],[-16,-94],[-1,-84],[-111,-172],[-38,-83],[-101,41],[-59,53],[-26,53],[-129,221],[24,91],[21,12],[7,112],[-4,154],[-44,102],[-6,-120],[23,-69],[-8,-50],[-54,-86],[-40,0],[-40,71],[-116,109],[-38,12],[-29,40],[-45,18],[-58,-5],[-62,-48],[-137,-50],[-77,-101],[-25,51],[-22,113],[-68,174],[-70,19],[-50,76],[-47,15],[36,113],[-49,15],[-3,40],[45,291],[-58,-94],[-19,-66],[-8,-141],[-30,-5],[-81,184],[-24,94],[-27,23],[-51,-27],[-11,95],[33,53],[27,134],[-40,102],[-116,-38],[19,113],[37,98],[-89,-63],[-33,-45],[-46,60],[16,93],[25,-8],[50,59],[0,66],[-53,-20],[-59,222],[32,296],[99,11],[-8,72],[-88,-12],[-24,-123],[-21,-21],[-43,-197],[-36,7],[-2,52],[21,119],[-20,159],[-7,-192],[-18,-79],[-47,-114],[-13,-62],[-24,21],[-37,233],[-11,-101],[7,-218],[-39,83],[-9,-158],[-30,31],[-43,-85],[-31,28],[11,219],[44,198],[15,160],[34,146],[37,81],[-23,44],[-21,-15],[-57,-280],[0,-63],[-19,-82],[-28,114],[-4,-155],[-16,-65],[-19,-169],[-33,-72],[-49,-7],[20,-81],[-40,-127],[20,-36],[27,136],[31,20],[13,-169],[22,128],[34,-1],[12,-38],[4,-145],[-13,-72],[-30,-67],[-26,-108],[9,-91],[38,110],[6,78],[24,-27],[28,-130],[-14,-73],[21,-47],[-65,-190],[-37,-147],[32,-111],[11,65],[30,-92],[-12,-148],[-24,-160],[-23,33],[-12,96],[1,119],[-16,16],[-11,-120],[-11,-294],[-33,40],[-20,-92],[-36,69],[-31,-62],[-17,89],[-20,-33],[-37,21],[24,153],[-36,-31],[-20,-190],[-18,-20],[-11,305],[-24,71],[-4,-156],[15,-73],[-26,-123],[-24,-58],[-6,-106],[-45,36],[-15,-23],[11,-283],[-33,70],[-14,-136],[-31,-38],[-19,-154],[-23,-31],[-30,-229],[-30,-16],[12,176],[-11,83],[-21,-190],[-30,169],[3,-197],[-22,-55],[-22,15],[-9,-93],[-20,-34],[-11,-172],[-15,-63],[-30,113],[-15,-121],[-19,-52],[-27,46],[-11,-33],[-36,83],[-25,-109],[-26,-59],[-38,-7],[-1,74],[-30,20],[-32,82],[-4,113],[8,61],[24,30],[-1,119],[64,118],[23,-30],[18,27],[18,112],[70,127],[-5,62],[53,228],[-21,49],[-69,-195],[-24,-26],[-19,-71],[-42,30],[-45,113],[-19,122],[21,209],[10,56],[12,187],[28,164],[28,95],[34,199],[5,215],[23,57],[8,299],[-19,74],[-21,253],[39,59],[14,55],[31,6],[27,50],[107,300],[64,136],[16,-27],[14,-110],[27,-124],[48,-33],[20,28],[27,131],[24,2],[56,-63],[38,-64],[72,-28],[21,49],[-28,60],[-47,-35],[-36,109],[-33,4],[-36,64],[-31,130],[-32,87],[-27,35],[11,91],[27,16],[32,206],[27,42],[-1,68],[49,65],[34,91],[-30,75],[-32,-13],[-31,-77],[-17,-96],[-18,-26],[-10,-220],[-19,-57],[-61,42],[-74,-28],[-23,95],[-134,-236],[-37,-237],[-40,-29],[-9,-38],[-41,2],[-37,-104],[-41,-155],[-8,-75],[26,-200],[-40,6],[-53,-142],[-17,-127],[-45,-104],[-20,-127],[7,-107],[19,-47],[-37,-79],[-6,-91],[-60,-156],[-31,39],[-12,-90],[24,-75],[29,-147],[-7,-117],[-23,-102],[-8,-97],[-27,-67],[-64,10],[-44,-58],[57,-80],[-16,-198],[-30,-97],[-52,-65],[-29,182],[-13,-152],[-37,15],[19,-107],[-8,-67],[-38,-5],[-15,-51],[20,-115],[-7,-55],[-48,-34],[-14,-64],[-42,-33],[23,-68],[-25,-54],[-11,-196],[-22,-59],[15,-92],[-7,-112],[22,-58],[16,78],[58,-35],[19,47],[23,-6],[26,-133],[35,-13],[34,-140],[11,-80],[-20,-256],[-10,-64],[-35,-58],[-10,-99],[-49,-57],[-35,7],[-10,-213],[-37,-18],[3,-140],[19,-38],[-17,-71],[-33,-39],[10,-132],[-10,-131],[-48,-77],[-1,-140],[-27,121],[-8,-130],[-19,-3],[-9,-102],[-44,51],[-4,-73],[-20,-25],[-22,50],[-41,-81],[-23,-70],[16,-77],[-6,-62],[-43,-88],[-27,4],[-6,-72],[15,-127],[-87,98],[-6,-136],[11,-87],[-27,-27],[-14,-83],[2,-111],[-35,18],[-20,-36],[-31,58],[6,-249],[-20,8],[-24,83],[-11,-69],[-29,-40],[-37,-152],[-23,-36],[7,-68],[45,65],[11,-58],[-7,-84],[-18,-54],[21,-66],[-11,-84],[-22,-62],[-19,-118],[-18,-8],[5,-120],[-32,46],[-12,63],[-19,-131],[-5,-123],[-23,115],[-18,-101],[-21,-40],[-32,-194],[-23,-30],[-44,168],[-25,-55],[20,-115],[-30,-16],[-15,-112],[23,-64],[-3,-104],[-51,-13],[-18,123],[-13,1],[-40,-71],[-54,-162],[79,24],[2,-129],[-15,-48],[-39,71],[-21,4],[-7,-97],[-15,-11],[-41,51],[-23,-59],[-27,-148],[9,-65],[40,-30],[32,-107],[-26,-61],[13,-83],[-24,-82],[-25,-18],[12,-98],[-6,-162],[-22,6],[-28,68],[3,189],[-27,-66],[12,-167],[-48,-57],[-10,46],[-19,-164],[-43,-8],[-28,-64],[-10,18],[-39,-41],[-33,-113],[-25,-207],[4,-112],[-16,-46],[-22,57],[7,107],[-8,50],[15,121],[-28,90],[-26,11],[-11,-130],[-46,6],[-1,-139],[-31,-27],[4,-75],[-43,-50],[-37,49],[7,-111],[-22,-150],[-20,-91],[-20,188],[-16,-64],[1,-153],[-37,-16],[-8,93],[-21,40],[-13,-35],[-14,-128],[-68,-161],[-33,53],[-40,-44],[7,248],[32,191],[-7,69],[-43,3],[-20,-41],[-23,-165],[2,-222],[-48,-254],[-4,-90],[-15,-22],[-8,-202],[-26,-66],[-24,78],[-23,9],[8,-114],[-16,-75],[-15,39],[-31,-6],[-22,60],[7,110],[-12,240],[-42,90],[-17,-136],[21,-56],[17,-106],[-11,-51],[16,-182],[0,-85],[-31,44],[-11,-87],[-45,-35],[-24,129],[6,46],[-34,156],[-32,-19],[-9,-132],[46,-110],[5,-50],[-46,-144],[-6,-52],[-38,-59],[-9,89],[18,35],[-4,150],[13,23],[2,163],[-11,95],[34,114],[33,38],[59,-4],[20,251],[18,-6],[26,115],[18,-39],[21,80],[-4,203],[37,179],[32,183],[34,90],[27,110],[32,54],[35,139],[64,88],[85,89],[24,-45],[39,-33],[48,107],[-5,-89],[-34,-73],[16,-93],[1,-78],[43,-184],[6,43],[35,-23],[-28,125],[-1,146],[29,-46],[44,13],[31,-156],[17,-3],[8,138],[-35,108],[-16,17],[-13,112],[-17,17],[24,147],[32,353],[9,67],[34,111],[22,104],[25,40],[68,248],[75,141],[44,132],[30,48],[92,241],[11,-55],[38,-52],[35,32],[-12,162],[-1,95],[10,145],[34,212],[44,232],[21,82],[34,88],[28,41],[23,95],[20,128],[39,130],[29,37],[9,-122],[23,44],[-9,169],[-27,7],[-2,185],[13,169],[20,591],[10,97],[33,11],[-2,80],[-27,123],[1,224],[23,222],[32,79],[21,132],[50,174],[5,118],[20,99],[-7,90],[12,152],[-12,37],[-18,-177],[-69,-79],[-63,-147],[-42,-50],[-44,-101],[-60,-99],[-38,-18],[-32,90],[-14,171],[-51,99],[15,111],[8,260],[-14,-2],[-23,-160],[-43,-94],[-10,-246],[-21,-14],[14,-203],[21,-217],[14,-25],[-27,-166],[-28,-29],[-45,60],[-78,559],[-44,199],[-38,47],[15,92],[-18,81],[-22,-46],[-24,-136],[5,-70],[-30,-61],[-25,116],[-4,86],[-40,15],[-45,142],[15,63],[-22,110],[-14,2],[-36,-78],[-66,-204],[-21,-101],[-14,57],[-31,-54],[-39,-103],[-44,-55],[-20,-92],[-1,-116],[-74,-120],[-16,-74],[-20,-19],[-4,98],[-13,52],[-45,5],[-26,-20],[-12,91],[33,24],[31,-51],[13,73],[24,216],[-8,147],[-1,169],[-26,183],[-28,153],[-21,222],[28,218],[21,32],[21,121],[29,75],[-47,267],[-3,122],[-25,184],[-25,115],[-13,174],[-19,73],[-14,137],[-27,99],[-14,108],[-22,10],[-14,-87],[6,-188],[-18,-93],[-24,-14],[-25,33],[-12,-79],[-90,-170],[-30,-41],[-70,-60],[-72,-25],[-72,24],[-49,67],[-23,194],[28,84],[-24,77],[-50,91],[-28,200],[-43,125],[-7,75],[-47,28],[-51,120],[-31,133],[36,90],[8,112],[-25,9],[-38,-91],[-50,27],[-12,85],[35,36],[54,153],[36,136],[-7,117],[37,109],[-26,111],[-56,50],[-10,104],[21,62],[27,-10],[2,82],[-30,48],[-50,195],[-26,-195],[-41,21],[-16,38],[-12,227],[14,85],[-80,105],[-12,174],[42,72],[3,79],[-16,61],[-35,46],[-57,-71],[-11,143],[4,83],[33,4],[78,74],[-64,80],[-26,183],[63,14],[71,58],[-18,79],[-21,174],[-1,102],[28,233],[8,11],[57,260],[63,323],[63,174],[57,53],[-28,240],[0,134],[23,298],[37,163],[34,38],[-15,144],[49,173],[25,51],[75,37],[89,-124],[38,-123],[18,3],[31,-97],[20,-105],[85,65],[20,90],[34,84],[8,100],[43,36],[23,92],[58,319],[29,86],[-11,103],[65,-52],[21,-122],[53,-17],[32,47],[31,-28],[77,40],[47,61],[9,97],[40,130],[46,220],[9,189],[-22,216],[-14,78],[-15,189],[0,226],[-14,81],[-64,230],[-62,95],[-5,163],[22,48],[48,-65],[58,12],[33,151],[28,67],[3,192],[-28,179],[-88,154],[-44,-157],[-3,-60],[-42,-48],[-35,40],[-53,-34],[-26,-76],[-71,-74],[-17,-117],[-84,-163],[-19,-113],[-5,-165],[-50,-56],[2,88],[-17,130],[3,55],[-52,164],[-49,103],[-33,-107],[21,-78],[23,-11],[24,-138],[-5,-105],[-19,-19],[-21,134],[-37,90],[-59,89],[-78,19],[-28,-41],[-54,26],[-63,-28],[-122,-201],[-49,-21],[-48,58],[-135,121],[-50,23],[-103,78],[-48,111],[-25,183],[1,116],[19,119],[-37,159],[-42,81],[-14,137],[-33,68],[8,55],[34,-25],[38,30],[30,101],[-4,89],[36,101],[-47,113],[-48,-13],[-99,109],[-100,32],[-56,99],[-67,163],[-62,71],[-14,135]],[[2795,64641],[35,96],[21,109],[17,46],[-5,98],[20,46],[9,116],[-7,120],[50,229],[22,-43],[53,25],[-7,103],[-17,13],[13,111],[-6,76],[17,94],[31,107],[63,74],[28,-85],[32,-1],[-3,-87],[-14,-54],[3,-117],[-77,-211],[-42,-65],[-18,-71],[-10,-115],[-25,-171],[-36,-51],[-13,-77],[-37,-59],[-4,-51],[-75,-187],[-18,-18]],[[2615,64946],[4,74],[22,-28],[-8,-94],[-18,48]],[[2608,71872],[56,-24],[25,8],[-22,-141],[-59,157]],[[2546,64659],[6,49],[28,-14],[5,48],[35,30],[20,-40],[0,-94],[-21,-47],[-31,60],[-18,-73],[-24,81]],[[2515,64789],[30,30],[-9,-105],[-21,75]],[[2498,64455],[3,111],[33,-26],[-7,-92],[-29,7]],[[2431,72916],[2,58],[31,51],[20,-15],[28,29],[-12,-121],[-22,-42],[-47,40]],[[2314,64144],[6,141],[19,26],[25,99],[28,-50],[-13,-139],[-21,0],[-31,-111],[-13,34]],[[2182,63994],[18,91],[16,-69],[-13,-80],[-21,58]],[[2034,84977],[5,177],[26,159],[-1,230],[28,-27],[-3,-115],[29,-85],[50,-66],[91,-93],[38,-16],[71,179],[29,-1],[19,60],[52,-19],[59,-192],[6,-171],[54,-104],[59,-25],[46,-131],[62,-31],[106,-27],[52,-57],[-8,-135],[-43,-161],[-64,64],[-75,-57],[-45,-143],[-11,-81],[13,-101],[-31,-78],[-28,90],[-23,175],[-58,174],[-68,57],[-21,157],[-60,155],[-83,101],[-66,14],[-51,-79],[2,-41],[-44,-98],[-73,110],[-34,137],[-7,95]],[[1815,63591],[17,148],[27,68],[19,13],[28,-71],[-3,-71],[-44,-98],[-40,-18],[-4,29]],[[1695,79287],[7,86],[19,70],[25,-157],[29,-96],[46,-104],[64,-35],[35,-108],[-68,24],[-27,-35],[-37,85],[-56,220],[-37,50]],[[1419,63323],[43,-36],[31,1],[5,37],[49,39],[28,-93],[39,-10],[47,22],[44,-20],[-34,-75],[-91,-28],[-20,-39],[-30,65],[-50,-35],[-28,29],[-13,98],[-20,45]],[[1060,63119],[60,67],[10,-43],[17,81],[12,-35],[17,66],[50,1],[42,52],[39,149],[17,34],[15,-41],[32,106],[-4,44],[-31,7],[6,179],[49,89],[40,-113],[6,-95],[-20,-166],[-35,13],[10,-116],[18,-60],[-52,-81],[-16,49],[-18,-62],[-11,-97],[-15,67],[-56,-65],[-13,-61],[-15,47],[-29,27],[-20,-16],[-16,-60],[-52,-1],[-37,34]],[[845,62860],[35,46],[7,-126],[-42,80]],[[818,63191],[19,101],[25,-18],[12,-104],[-11,-62],[8,-68],[-44,35],[-9,116]],[[812,62748],[17,97],[11,-46],[29,-23],[-22,-86],[-35,58]],[[601,62367],[6,91],[29,84],[5,162],[14,44],[10,101],[-13,91],[10,67],[29,-24],[22,93],[9,-16],[2,-145],[-19,-30],[-2,-61],[23,-64],[25,7],[15,55],[33,-14],[4,-148],[-15,-92],[-43,22],[-27,-101],[-43,-26],[-9,-79],[-22,81],[-19,-80],[-24,-18]],[[402,62515],[18,55],[35,-21],[19,64],[44,45],[22,67],[3,218],[31,-3],[9,-40],[-3,-95],[-18,-54],[4,-88],[-8,-150],[-37,-52],[-24,103],[-22,-14],[-17,-51],[-56,16]],[[257,62840],[28,79],[41,-3],[43,-167],[11,-68],[-16,-119],[3,-72],[-37,-89],[-34,24],[2,82],[33,35],[0,98],[-27,15],[-12,72],[-30,68],[-5,45]],[[77,62664],[3,65],[18,29],[17,-100],[-22,-68],[-16,74]],[[41,61901],[26,-45],[-23,-86],[-3,131]],[[99918,63041],[28,65],[22,11],[31,-99],[-11,-121],[-33,-68],[-26,48],[-13,77],[2,87]],[[99679,62382],[78,-43],[4,-55],[23,-64],[21,-103],[32,-67],[11,-95],[43,-17],[-5,-62],[-30,-27],[-12,56],[-44,129],[-30,166],[-30,70],[-17,-13],[-22,41],[-22,84]],[[99629,63032],[30,-8],[10,-54],[-24,-88],[-16,150]],[[99283,62876],[24,44],[15,83],[43,58],[2,87],[16,158],[11,29],[20,-86],[-20,-144],[-18,-72],[6,-119],[-42,28],[-17,-51],[-15,-112],[-25,97]],[[98211,63847],[25,94],[23,-9],[27,108],[23,-56],[5,-230],[-21,-1],[-17,85],[-35,-31],[-30,40]],[[97962,64842],[46,141],[33,18],[101,-33],[29,-103],[23,-24],[35,-155],[-33,-43],[-20,63],[-18,-116],[-13,-21],[-34,24],[-26,-67],[-26,53],[-13,65],[-3,103],[-31,91],[-36,-38],[-14,42]],[[13276,68670],[45,114],[23,-36],[-1,-189],[-24,-40],[-43,151]],[[13234,68883],[16,79],[5,151],[-10,136],[22,60],[23,-100],[14,-15],[13,-174],[-2,-148],[-9,-56],[-29,1],[-32,-35],[-11,101]],[[13215,70428],[21,107],[14,-115],[-35,8]],[[16479,43996],[35,4],[186,-8],[142,-2],[139,9],[160,3],[167,3]],[[18137,34472],[0,-594],[2,-590],[0,-355],[-7,-30],[-20,-266],[-28,-45],[-37,245],[-20,-33],[-18,46],[-34,-14],[-34,-110],[8,-110],[-4,-98],[11,-141],[1,-278],[-3,-85],[5,-115],[10,-77],[-1,-146],[-6,-85],[14,-153],[9,-161],[7,-270],[-1,-85],[-19,-81],[10,-41],[-8,-139]],[[24442,40913],[12,26],[2,230],[-10,57],[16,128],[28,55],[17,-2],[17,60],[9,211],[-1,61],[27,184],[10,32],[6,210],[-1,118],[-12,112],[-15,20],[-20,144],[10,115],[9,208],[20,44],[12,-24],[21,60],[33,-5],[23,23],[17,93],[37,24],[13,79],[20,43],[0,113],[8,166],[10,64],[25,68],[10,197],[-3,104],[6,80],[-6,74],[0,143],[-13,68],[-50,139],[-12,101],[5,85],[-17,116],[-22,62],[-5,48],[-23,71],[3,57]],[[24658,44975],[159,-1],[229,-19],[130,-12],[187,8],[87,-7]],[[25450,44944],[0,-194],[-9,-170],[9,-173],[18,-171],[15,-86],[12,-209],[9,-231],[10,-126],[11,-59],[2,-76]],[[25387,35995],[-10,-116],[-17,-60],[-9,-81],[7,-172],[17,-93],[-3,-100],[-56,-39],[-22,-95],[-13,43],[-19,-73],[-11,-196],[19,-154],[6,-97],[-9,-150],[-18,-16],[-25,90],[-33,59],[-21,86],[-31,68],[-16,10],[-15,-35],[-35,-233],[-8,-99],[14,-105]],[[29478,49746],[139,11],[149,-24],[225,18]],[[29991,49751],[-10,-55],[12,-144],[-17,-115],[-4,-103],[-15,-96],[25,-299],[-18,-193],[-11,-16],[-19,-126],[-23,-22],[-6,-80],[-62,-72],[-9,-94],[5,-62],[-5,-93],[7,-68],[1,-125],[-22,-180],[-1,-144],[-19,-119],[1,-99],[-13,-107],[-20,-87],[-8,-197],[-11,-38],[-8,-126],[5,-38],[-9,-249],[5,-95],[-11,-104],[-6,-213],[6,-115],[-9,-65],[7,-80],[-9,-73],[-16,-43],[2,-59],[-9,-125],[5,-92],[23,-149]],[[29725,45391],[-225,37]],[[29500,45428],[-7,106],[3,60],[6,812],[3,509],[-15,188],[-35,19],[21,262],[-12,96],[6,99],[-10,112],[-1,179],[-7,35],[13,274],[22,163],[-6,187],[10,107],[-1,92],[-25,268],[7,237],[8,120],[-12,77],[12,151],[-2,165]],[[29438,44100],[136,-21],[241,-16],[93,-13],[0,-29]],[[29891,42709],[-4,30],[-29,-11],[-43,-59],[-70,-71],[-18,32],[-26,-57],[-20,44],[-33,-33],[-48,30],[-16,-35],[-14,-90],[-10,11],[-22,-122],[-21,22],[-55,-138],[-9,-57],[-45,-76],[-17,-59]],[[29391,42070],[0,51],[-20,169],[68,214],[-19,158],[9,618],[9,820]],[[28861,39486],[22,160],[6,99],[12,69]],[[29102,42780],[109,-353],[111,-334],[-7,-205],[-24,-254],[-3,-90]],[[29288,41544],[-19,-115],[-18,-8]],[[29251,41421],[-1,2]],[[29250,41423],[-11,-28],[-3,-126],[-12,-31],[-2,-160],[19,-46],[16,31],[25,-73],[20,-24],[0,-204],[-15,-337],[-13,-405],[-6,-292],[-40,-384],[-20,-137],[-4,-84],[-27,-161],[-19,-49],[-34,-162],[-16,-123],[-34,-359],[-16,-71],[-23,-50],[-11,23],[5,116],[14,164],[5,137],[-39,103],[-39,-19],[-1,60],[-59,229],[-23,161],[-20,41],[1,153],[6,69],[-12,55]],[[28862,39440],[-1,46]],[[20923,57353],[188,-2],[195,1],[129,-2],[126,1],[177,0],[153,1],[184,-1],[150,1],[178,2],[148,0],[273,0]],[[24498,46867],[-4,-78],[10,-123],[-1,-88],[20,-44],[20,-138],[-34,-238],[1,-172],[8,-144],[0,-102],[13,-51],[14,-278],[27,-96],[65,-88],[16,-139],[5,-113]],[[29991,49751],[33,423],[28,128],[16,-100],[26,-11],[14,117]],[[30214,46026],[-30,-292],[-2,-65]],[[30182,45669],[-9,-22],[-23,45],[-28,-49],[-9,-100],[-19,28],[-15,-58],[1,-101],[-17,9],[-14,-87],[-191,31],[-133,26]],[[19530,23664],[-124,3],[-141,-2],[-128,0],[-171,-2],[-194,424],[-132,286],[-173,365],[-73,147],[-174,374],[-139,295],[-157,325],[6,129],[-5,106],[13,48],[12,145]],[[28862,39440],[-1,46]],[[28899,39823],[-13,-39],[-40,-360],[14,-67],[-9,-159],[28,-252],[15,-64],[9,-93],[3,-139],[-5,-73],[5,-182],[16,-72],[10,-204],[32,-203],[30,-66],[4,-212],[5,-400]],[[26281,38486],[18,78],[34,-133],[34,32],[11,53],[11,-120],[20,-32],[15,-67],[5,-97],[15,-119],[6,-167],[39,-67],[26,32],[33,-58],[6,-67],[15,-50],[4,-71],[29,-58],[11,98],[30,45],[14,-52],[29,-32],[20,-119],[15,61],[27,-6],[11,99],[20,89],[15,4],[23,59],[7,-55],[6,-253],[13,-61],[21,-11],[31,-158],[6,-101]],[[26901,37182],[-1,-146],[6,-155],[-17,-238],[24,-130],[10,-137],[14,-27],[-11,-99],[23,-88],[6,-124],[17,-68],[1,-82],[18,-151],[25,-70],[7,-66],[25,-106],[27,2]],[[27075,35497],[-106,-517],[-42,-76],[-62,-204],[0,-119],[-17,-94],[-11,-8],[-16,-219],[-25,-60],[-28,-6],[-17,-136],[-1,-77],[-16,-7],[-54,-101],[-10,-36],[-30,-5],[-40,-122]],[[26285,43426],[124,20],[252,49]],[[26661,43495],[-2,-70],[31,-16],[4,36],[28,-105],[47,-106],[27,-136],[28,19],[10,102],[14,-90],[16,-55],[-63,-45],[-5,-74],[8,-56],[23,41],[13,54],[16,-49],[15,39],[21,-78],[40,-80],[33,89],[30,12],[22,71],[46,84],[38,-62],[36,7],[41,140],[44,217],[43,164],[17,14],[32,95],[30,68],[29,30],[106,207]],[[27479,41410],[-16,-47],[-14,11],[-11,-89],[19,-173],[-4,-86],[3,-229],[-6,-106],[-11,-61],[-12,-143],[-10,-351],[-17,-99],[3,-105],[-20,-211],[1,-114],[-6,-139],[-14,-11],[-26,-119],[-30,-205],[-15,-27],[-10,-85],[-13,0],[-22,-77],[-30,121],[-28,-134],[-4,-136],[-30,12],[-4,-88],[-18,-96],[1,-167],[-16,-58],[13,-84],[-5,-96],[-17,-69],[-13,-104],[-10,51],[7,70],[-9,95],[-29,72],[-14,-94],[-16,-149],[0,-110],[-20,-85],[10,-166],[2,-158],[-4,-59],[-29,-30],[-9,-247],[-22,-19],[-35,-66],[-18,32]],[[25686,50404],[3,114],[33,-18],[-11,-134],[-25,38]],[[24655,53391],[5,38],[30,50],[1,-68],[-32,-50],[-4,30]],[[24617,53129],[16,29],[33,142],[13,-47],[-29,-57],[-27,-128],[-6,61]],[[24276,52980],[20,-51],[43,28],[60,120],[18,0],[39,69],[9,46],[67,83],[37,157],[28,36],[20,-55],[11,-78],[-13,-133],[-24,-127],[9,-108],[-16,-70],[-11,-115],[9,-38],[62,155],[30,-123],[47,-64]],[[24721,52712],[7,-64],[23,13],[13,-68],[13,-4],[27,-271],[0,-43],[174,-230],[113,-148],[86,-233],[12,21],[34,-76],[30,60],[26,-83],[10,31],[24,-78],[40,-26],[15,-41],[5,-99],[-16,-78],[12,-71],[59,-59],[19,-83],[-3,-93],[14,-115],[-8,-122],[-3,-141],[-20,-193],[36,-26],[17,77],[13,-96],[-16,-140],[-9,-169],[21,-132],[19,-26]],[[25508,49906],[-9,-94],[-1,-130],[-53,-50],[-2,-107],[-21,-128],[-9,-118],[-14,-87],[-5,-195],[-8,-111],[29,-45],[20,160],[25,42],[12,157],[31,218],[51,83],[30,298],[16,91],[7,159],[26,43],[10,124],[31,78],[5,-153],[-15,-8],[-4,-228],[-21,-53],[-4,-102],[-14,-84],[4,-78],[-9,-100],[-16,-46],[-15,-120],[-7,-132],[-14,-149],[-13,-68],[-12,-179],[-10,-259],[-8,-103],[11,-175],[-3,-95],[-36,-143],[-25,-428],[3,-134],[8,-91],[-1,-143],[-25,-237],[-4,-190],[-17,-133],[-13,-273],[9,-153],[-6,-71],[11,-119],[-10,-97],[14,-94],[1,-186],[6,-73],[18,-100],[-16,-280],[4,-273]],[[15306,44002],[-25,102],[-16,126],[-1,120],[-14,133],[-7,356],[13,262],[-6,159],[-17,142],[-11,25],[-13,169],[22,224],[9,153],[18,454],[-5,68],[13,70],[19,179],[15,240],[18,471],[12,566],[4,304],[7,315],[1,134],[7,301],[-5,266],[12,196],[6,221],[-1,114],[11,131],[3,327],[-5,59],[6,158],[-4,70],[7,149],[1,358],[-10,66],[6,132],[-2,135],[-7,73],[15,59],[1,180],[-11,185],[0,84],[33,-105],[27,106],[11,-46],[28,50],[20,84]],[[25285,21828],[-17,-76],[-58,62],[-23,-28],[-18,90],[-53,-14],[-24,-38],[-52,-118],[1,67],[-13,66],[-4,-138],[-25,-93],[-8,-99],[-21,-41]],[[24970,21468],[-13,-1],[-13,90],[-8,122],[5,91],[-15,127],[0,88],[-24,120],[-15,171],[-7,125],[4,180],[14,120],[3,132],[12,184],[-7,16],[-175,-3],[-191,-2],[-155,0],[17,76],[-1,60],[-17,89],[11,146],[-16,78],[2,63],[18,-12],[15,27],[3,79],[-19,157],[8,64],[9,-119],[12,49],[-11,92],[-1,165],[19,17],[7,109],[-17,-20],[-4,113],[22,-65],[7,62],[-1,128],[9,71],[8,196],[19,22],[19,89],[3,98],[32,107],[-7,60],[17,95],[-3,113],[-17,-62],[-14,15],[-1,122],[36,85],[14,-59],[3,164],[16,14],[1,68],[-25,55],[10,125],[-17,-1],[-19,49],[-6,78],[7,94],[16,58],[-4,53],[-19,-42],[-10,106],[25,118],[1,47],[-29,45],[5,175],[21,87],[-4,167],[-14,7],[1,-95],[-8,-57],[-14,42],[13,156]],[[28814,32442],[10,2],[18,-103],[3,-128],[-14,15],[2,74],[-19,140]],[[28646,30367],[29,149],[38,227],[4,-11],[-47,-251],[-24,-114]],[[27156,33686],[234,-56],[37,6],[114,-35],[219,-6],[148,3],[131,-2],[212,8],[232,-3],[30,13],[138,0],[124,0]],[[28775,33614],[14,-368],[12,-244],[16,-221],[41,-478],[-15,56],[-6,137],[-26,146],[-2,197],[-8,140],[-10,60],[-9,326],[-13,41],[-3,77],[-40,55],[9,-121],[11,-19],[13,-133],[24,-363],[11,-113],[-14,-30],[-4,110],[-13,100],[-30,-49],[-17,24],[2,-113],[-26,-31],[-13,-53],[-31,74],[-14,-32],[-24,-179],[-15,-33],[-19,7],[-10,84],[-16,-21],[-2,-103],[-10,-48],[15,-61],[31,15],[43,80],[8,-91],[24,63],[32,52],[30,-7],[10,-40],[3,-92],[-14,-130],[4,-89],[-3,-172],[12,-120],[10,226],[-1,222],[32,171],[17,-36],[17,-144],[4,-89],[-1,-168],[6,-106],[-18,-17],[13,-106],[-11,-95],[-18,-16],[-9,63],[-12,-113],[-12,-35],[-16,-161],[-12,-16],[-9,-122],[-24,-43],[-26,-13],[-40,12],[-7,99],[-20,-2],[-16,99],[1,80],[10,79],[-20,14],[-11,-52],[17,-239],[-37,79],[-37,-10],[12,-63],[23,-29],[19,-67],[9,5],[33,-70],[4,-107],[-24,-289],[-39,-179],[-31,-64],[-36,164],[-8,-91],[12,-69],[25,-70],[24,-39],[36,139],[37,37],[18,95],[3,-205],[29,48],[-12,116],[32,-68],[-9,-113],[-19,-130],[-29,-125],[-6,-73],[-43,-96],[-60,19],[-13,-7],[-56,-100],[-7,26],[-25,-102],[-15,-106],[-18,-82],[-47,-150],[-25,-106],[-30,-153],[-24,-166],[-15,-134],[-11,-151],[-23,-359],[-13,-29],[-31,55],[-36,13],[-39,-24],[-45,-98]],[[28949,36430],[-31,-263],[-16,14],[-22,-123],[-20,-183],[-15,-242],[4,-73],[-19,-165],[3,-72],[-33,-285],[-11,-198],[-22,-144],[-19,0],[-14,168],[-3,98],[4,145],[12,126],[-4,31],[11,282],[9,112],[16,120],[6,95],[24,97],[18,195],[-17,45],[26,104]],[[28740,36289],[-15,0]],[[27075,35497],[7,-56],[-15,-61],[13,-59],[10,-184],[17,-117],[26,-23],[6,-72],[17,-70],[33,10],[34,129],[21,121],[38,-196],[32,83],[37,45],[9,-12],[27,97],[-9,71],[7,82],[20,-62],[22,0],[43,151],[11,15],[10,-112],[49,163],[-8,107],[19,60],[-10,183],[37,350],[45,224],[21,218],[-5,47],[27,206],[17,64],[-6,60],[18,94],[15,148],[-3,83],[14,222],[32,-78],[16,-178],[46,-87],[9,24],[20,131],[22,305],[10,12],[6,168],[22,196],[35,-166],[22,233],[14,80],[16,-4],[10,82],[12,-7],[8,129],[47,258],[-9,58],[5,114],[22,183],[-2,214],[145,-636],[22,310],[8,50]],[[28423,37589],[-20,-33],[-30,-231],[-4,-101],[13,-199],[11,-16],[61,97],[-3,-134],[19,-105],[0,-81],[34,-96],[22,5],[42,-35],[3,-72],[18,-70],[21,-165],[32,-76],[30,-108],[-8,-139],[-11,8],[1,-249],[-15,-135],[-50,77],[-2,90],[-12,121],[-32,98],[6,-127],[16,-22],[9,-150],[17,-104],[27,-1],[1,-44],[26,-34],[-7,-108],[29,-116],[2,-141],[-17,-94],[-11,80],[-19,72],[-8,-81],[23,-187],[-41,-55],[30,-63],[36,-227],[-9,-164],[-10,26],[-19,-100],[-15,124],[-43,175],[3,72],[-12,121],[-12,6],[-18,-62],[-18,100],[-35,-30],[13,-54],[23,11],[29,-110],[14,50],[-2,-218],[24,-59],[28,-138],[1,-80],[37,-37],[14,141],[21,-56],[37,-61],[13,42],[13,-15],[13,-306],[16,-249],[7,-153]],[[25021,21236],[11,62],[21,53],[2,-92],[10,-73],[-35,13],[-9,37]],[[24271,20318],[14,69],[12,-7],[10,52],[33,-83],[20,-73],[-14,-59],[-1,-66],[-22,-21],[-9,47],[-32,90],[-11,51]],[[24970,21468],[-17,-58],[-11,13],[-27,-170],[-27,-43],[-11,-78],[6,-112],[13,-25],[24,-111],[19,-22],[11,31],[7,157],[-3,55],[25,90],[17,-7],[2,-135],[12,-41],[3,-95],[15,56],[11,131],[14,-44],[-4,-68],[-21,-55],[0,-95],[-19,-24],[-3,-95],[-10,-94],[2,-82],[-26,8],[-13,-82],[-31,-62],[-1,-169],[11,-66],[19,-54],[9,-63],[0,-105],[19,28],[24,-25],[13,-63],[13,24],[16,-121],[9,76],[24,-174],[-2,-97],[29,-49],[-13,-164],[-23,-37],[-3,-94],[-17,1],[-1,80],[-27,-13],[12,221],[-12,54],[-9,-138],[-13,-11],[-23,174],[-35,74],[-9,70],[-42,72],[6,117],[-34,106],[-22,35],[-9,-114],[1,-63],[-31,-201],[17,-146],[-49,-194],[-23,351],[-25,74],[-12,75],[-11,-109],[-15,21],[-15,-60],[-17,-190],[-57,-186],[-13,131],[-17,83],[-29,-5],[-18,70],[-24,12],[-20,55],[-2,102],[15,89],[21,-195],[10,-11],[-1,178],[-24,107],[-1,74],[-31,-85],[-5,60],[3,131],[-11,39],[-23,-81],[-7,99],[-11,46],[-8,172],[-20,-14],[3,174],[-3,40],[-40,9],[-22,-71],[-1,136],[6,95],[-14,11],[-43,-102],[-22,-81],[-4,51],[-19,-77],[17,-120],[17,-151],[-20,4],[-30,-87],[-19,-16],[-40,59],[-51,60],[-25,54],[-63,179],[-59,103],[-20,15],[-27,-29],[-35,12],[-74,-64],[-28,-86]],[[29251,41421],[-1,2]],[[29224,41160],[12,101],[3,135],[32,32],[9,-85],[-16,-109],[-30,-84],[-10,10]],[[27690,44520],[22,54],[64,215],[38,174],[47,98],[10,114],[13,60],[5,88],[36,88],[15,66],[1,133],[-20,218],[-22,56],[1,153],[-19,23],[9,126],[-3,211],[57,110],[60,87],[41,33],[86,-8],[21,9],[85,-68],[11,3],[51,-187],[65,71],[54,17],[30,-36],[25,-1],[15,49],[31,30],[26,67],[17,127],[40,118],[22,92],[33,-18],[15,29],[9,87],[2,169],[-11,291],[-17,76],[19,59],[8,-42],[21,63],[-1,67],[-20,108],[20,58],[-5,66],[-33,-115],[-10,105],[-19,105],[16,180],[19,9],[22,69],[1,78],[45,128],[24,39],[26,122],[15,160],[128,612],[25,77],[22,37],[46,165],[18,0],[23,62],[27,-49],[13,18],[97,-15],[52,0],[76,18],[148,18]],[[29500,45428],[-68,-1258],[6,-70]],[[29391,42070],[-8,-69],[-20,-69],[-16,-126],[16,-24],[12,69],[18,-33],[3,83],[20,37],[17,-77],[6,135],[25,17],[12,-54],[34,-40],[22,44],[9,94],[19,-28],[77,3],[38,32],[44,134],[23,84],[12,83],[26,-186],[19,-19],[8,40],[19,-118],[19,55],[19,97],[15,28],[7,-71],[-65,-146],[-99,-247],[-84,-154],[-68,-156],[-54,-93],[-33,4],[-62,-92],[-63,11],[-46,-91],[-14,52],[-15,104],[7,65],[-2,96]],[[26542,51586],[21,16],[11,78],[27,57],[-14,88],[26,2],[43,-224],[-15,-127],[-26,51],[-46,-22],[-27,81]],[[26345,51276],[22,-4],[43,-77],[-18,-96],[-22,32],[-25,145]],[[26056,50873],[6,153],[17,133],[10,7],[5,-282],[-20,-67],[-18,56]],[[25934,49992],[24,-2],[-6,-161],[-16,89],[-2,74]],[[25754,52672],[23,-19],[-9,-124],[-14,143]],[[25722,43548],[39,152],[18,99],[38,432],[36,259],[16,198],[14,253],[11,417],[-1,285],[-4,247],[-8,181],[-47,541],[-16,283],[-16,195],[3,115],[18,131],[8,105],[0,103],[-8,220],[-14,166],[28,153],[19,212],[21,182],[12,476],[-9,131],[7,81],[40,69],[6,148],[0,164],[24,1],[14,119],[17,-57],[18,21],[18,202],[35,137],[9,-107],[-5,-95],[0,-185],[-12,-78],[1,-206],[12,-19],[18,205],[4,192],[12,34],[-7,-259],[-15,-72],[-6,-111],[14,-24],[36,350],[9,345],[-7,152],[5,151],[27,85],[20,89],[18,22],[27,-23],[35,60],[-2,55],[-32,25],[-16,89],[-7,167],[13,115],[16,42],[20,110],[6,91],[23,-23],[33,44],[41,-110],[32,-109],[13,31],[23,-9],[32,-57],[22,-119],[7,-122],[56,-43],[19,-96],[40,-75],[28,-84],[17,12],[17,-49],[26,-120],[-8,-57],[25,-202],[16,-212],[-21,36],[-10,66],[-22,-97],[3,-139],[22,-119],[14,-18],[6,-274],[6,-44],[-12,-226],[2,-101],[-5,-187],[-2,-198],[-26,-130],[-23,3],[-11,-89],[-6,-233],[-11,-93],[-20,-38],[-1,-90],[-41,-2],[-21,-138],[-3,-200],[-10,-95],[12,-159],[17,-60],[31,-52],[15,-66],[17,75],[20,142],[24,60],[17,213],[17,59],[1,62],[22,135],[51,49],[14,86],[28,44],[32,-70],[20,-82],[17,-202],[13,-100],[13,-548],[14,-211],[4,-396],[10,-235],[20,-239],[-12,-95],[-7,-226],[4,-89],[-16,-298],[-18,-105],[-20,34],[-6,104],[13,100],[-18,27],[-31,-93],[8,-128],[-14,-11],[-11,-85],[2,-133],[-16,-193],[-39,-68],[-17,-149],[-2,-287],[-16,-45],[4,-95],[-40,-156],[-5,-82],[-13,-36],[-16,-119],[3,-110],[-7,-35]],[[25043,55198],[23,124],[52,129],[27,51],[97,278],[36,-8],[-41,-147],[-2,-59],[-27,-98],[-51,-88],[-42,-108],[8,-67],[-52,-95],[-28,88]],[[24721,52712],[71,151],[38,56],[28,117],[22,114],[16,43],[33,28],[16,-26],[28,43],[27,4],[53,131],[23,138],[44,23],[10,32],[17,165],[36,107],[29,132],[22,35],[21,94],[21,143],[68,170],[68,42],[38,-12],[24,-64],[-8,-65],[-20,-40],[-39,5],[5,-86],[-33,-84],[-31,-158],[-20,-55],[-16,-168],[-15,-42],[-5,-109],[-21,-90],[-11,-278],[14,-62],[53,259],[16,-47],[29,30],[23,-29],[28,7],[44,-84],[18,-53],[22,-120],[4,-83],[16,-77],[6,-82],[31,-146],[0,-72],[23,-78],[54,5],[11,39],[28,22],[9,-110],[19,-61],[17,2],[17,79],[32,-129],[24,160],[30,98],[26,59],[59,181],[14,-34],[59,68],[23,-19],[58,-12],[29,11],[63,139],[28,23],[21,-14],[23,25],[-8,-141],[-2,-221],[-6,-127],[11,-67],[43,-18],[26,-32],[25,66],[13,-6],[10,-133],[15,13],[34,151],[46,0],[8,63],[27,-8],[5,-49],[-10,-163],[8,-198],[-1,-164],[-24,33],[-18,-85],[15,-74],[21,31],[32,-85],[-12,-79],[25,-125],[13,5],[4,-120],[-27,-16],[-27,47],[-33,-13],[-17,-44],[-36,9],[-4,93],[-26,-30],[-4,60],[-31,57],[-10,-128],[-13,-76],[9,-185],[-11,-17],[-21,54],[-50,263],[-36,76],[-17,3],[-37,82],[-28,22],[-27,-20],[-35,-206],[-24,-40],[-21,34],[-23,-25],[-9,-67],[-38,61],[-38,-2],[-22,-37],[-13,-72],[-1,-97],[-12,-128],[-15,4],[-30,-83],[-12,-58],[-5,-97],[-16,-94],[-18,79],[12,121],[24,111],[16,142],[-15,81],[-22,-118],[-34,50],[-17,-268],[-30,-66],[-9,40],[2,95],[-8,139],[-15,-31],[-3,-179],[-27,-102],[-24,-186],[-20,-262],[-19,-116],[-19,-175],[-22,-159],[-17,-83],[2,-107]],[[30344,42643],[43,26],[17,133],[17,-172],[-16,-78],[-28,8],[-33,83]],[[30176,42760],[19,12],[19,154],[28,92],[11,-25],[4,-102],[11,-29],[16,39],[1,-128],[-68,-18],[-31,-57],[-10,62]],[[30182,45669],[3,-173],[8,-173],[24,-67],[13,64],[13,-72],[-10,-98],[-21,-53],[-44,-46],[6,-104],[-21,-52],[-19,-114],[4,-71],[-18,-127],[24,-93],[10,35],[43,-42],[34,-309],[-1,-81],[-15,-112],[13,-66],[19,-5],[11,-45],[5,-129],[-4,-82],[19,-103],[27,-44],[44,8],[54,85],[6,40],[-3,186],[-18,71],[-5,171],[17,-29],[14,-130],[11,-199],[5,-198],[-2,-120],[-73,-58],[-14,-37],[-53,-44],[-16,-102],[-48,-36],[10,223],[-9,126],[-14,-28],[-27,-146],[-34,-22],[-1,-123],[-29,-98],[-23,0]],[[30077,43386],[-9,67]]],"transform":{"scale":[0.0035892570725707252,0.0005244278042780428],"translate":[-179.14819599999998,18.922449999999998]},"objects":{"in":{"type":"GeometryCollection","geometries":[{"arcs":[[[0]],[[1]],[[2]],[[3,4,5]]],"type":"MultiPolygon","properties":{"geoid":"12","name":"Florida"},"id":"12"},{"arcs":[[6,7,8,9,10]],"type":"Polygon","properties":{"geoid":"30","name":"Montana"},"id":"30"},{"arcs":[[11,12,13,14,15]],"type":"Polygon","properties":{"geoid":"27","name":"Minnesota"},"id":"27"},{"arcs":[[[16,17]],[[18,19,20,21,22,23,24,25,26]]],"type":"MultiPolygon","properties":{"geoid":"24","name":"Maryland"},"id":"24"},{"arcs":[[27,28,29]],"type":"Polygon","properties":{"geoid":"45","name":"South Carolina"},"id":"45"},{"arcs":[[[30]],[[31]],[[32]],[[33]],[[34,35]]],"type":"MultiPolygon","properties":{"geoid":"23","name":"Maine"},"id":"23"},{"arcs":[[[36]],[[37]],[[38]],[[39]],[[40]],[[41]],[[42]],[[43]]],"type":"MultiPolygon","properties":{"geoid":"15","name":"Hawaii"},"id":"15"},{"arcs":[[-25,44]],"type":"Polygon","properties":{"geoid":"11","name":"District of Columbia"},"id":"11"},{"arcs":[[[45,46]],[[47,48,49]]],"type":"MultiPolygon","properties":{"geoid":"44","name":"Rhode Island"},"id":"44"},{"arcs":[[50,51,52,53,54,55]],"type":"Polygon","properties":{"geoid":"31","name":"Nebraska"},"id":"31"},{"arcs":[[[56]],[[57]],[[58]],[[59]],[[60]],[[61,62,63]]],"type":"MultiPolygon","properties":{"geoid":"53","name":"Washington"},"id":"53"},{"arcs":[[64,65,66,67,68]],"type":"Polygon","properties":{"geoid":"35","name":"New Mexico"},"id":"35"},{"arcs":[[-9,69,-15,70,-51,71]],"type":"Polygon","properties":{"geoid":"46","name":"South Dakota"},"id":"46"},{"arcs":[[[72]],[[73]],[[74,75,76,77,-67]]],"type":"MultiPolygon","properties":{"geoid":"48","name":"Texas"},"id":"48"},{"arcs":[[[78]],[[79]],[[80]],[[81]],[[82]],[[83]],[[84,85,86,87]]],"type":"MultiPolygon","properties":{"geoid":"06","name":"California"},"id":"06"},{"arcs":[[88,89,-6,90,91]],"type":"Polygon","properties":{"geoid":"01","name":"Alabama"},"id":"01"},{"arcs":[[92,93,-30,94,-4,-90]],"type":"Polygon","properties":{"geoid":"13","name":"Georgia"},"id":"13"},{"arcs":[[95,96,97,-76,98,99]],"type":"Polygon","properties":{"geoid":"05","name":"Arkansas"},"id":"05"},{"arcs":[[100,101,102,103,104,-19,105,106]],"type":"Polygon","properties":{"geoid":"42","name":"Pennsylvania"},"id":"42"},{"arcs":[[107,108,109,110,111,112,-100,113,114,-53]],"type":"Polygon","properties":{"geoid":"29","name":"Missouri"},"id":"29"},{"arcs":[[115,116,117,118,119]],"type":"Polygon","properties":{"geoid":"49","name":"Utah"},"id":"49"},{"arcs":[[120,121,-114,-99,-75,-66]],"type":"Polygon","properties":{"geoid":"40","name":"Oklahoma"},"id":"40"},{"arcs":[[-113,122,-111,123,124,125,-93,-89,126,-96]],"type":"Polygon","properties":{"geoid":"47","name":"Tennessee"},"id":"47"},{"arcs":[[-72,-56,127,-117,128,-10]],"type":"Polygon","properties":{"geoid":"56","name":"Wyoming"},"id":"56"},{"arcs":[[129,130,131,132,133]],"type":"Polygon","properties":{"geoid":"18","name":"Indiana"},"id":"18"},{"arcs":[[-54,-115,-122,134]],"type":"Polygon","properties":{"geoid":"20","name":"Kansas"},"id":"20"},{"arcs":[[-62,135,-11,-129,-116,136,137]],"type":"Polygon","properties":{"geoid":"16","name":"Idaho"},"id":"16"},{"arcs":[[[138]],[[139]],[[140]],[[141]],[[142]],[[143]],[[144]],[[145]],[[146]],[[147]],[[148]],[[149]],[[150]],[[151]],[[152]],[[153]],[[154]],[[155]],[[156]],[[157]],[[158]],[[159]],[[160]],[[161]],[[162]],[[163]],[[164]],[[165]],[[166]],[[167]],[[168]],[[169]],[[170]],[[171]],[[172]],[[173]],[[174]],[[175]],[[176]],[[177]],[[178]],[[179]],[[180]],[[181]],[[182]],[[183]],[[184]],[[185]],[[186]],[[187]],[[188]],[[189]],[[190]],[[191]],[[192]],[[193]],[[194]],[[195]],[[196]],[[197]],[[198]],[[199]],[[200]],[[201]],[[202]],[[203]],[[204]],[[205]],[[206]],[[207]],[[208]],[[209]],[[210]],[[211]],[[212]],[[213]],[[214]],[[215]],[[216]],[[217]],[[218]],[[219]],[[220]],[[221]],[[222]],[[223]],[[224]],[[225]],[[226]],[[227]],[[228]],[[229]],[[230]],[[231]],[[232]]],"type":"MultiPolygon","properties":{"geoid":"02","name":"Alaska"},"id":"02"},{"arcs":[[233,-137,-120,234,-86]],"type":"Polygon","properties":{"geoid":"32","name":"Nevada"},"id":"32"},{"arcs":[[235,236,237,-134,238,-109]],"type":"Polygon","properties":{"geoid":"17","name":"Illinois"},"id":"17"},{"arcs":[[239,240,241,242]],"type":"Polygon","properties":{"geoid":"50","name":"Vermont"},"id":"50"},{"arcs":[[243,-48,244,245]],"type":"Polygon","properties":{"geoid":"09","name":"Connecticut"},"id":"09"},{"arcs":[[246,-103,247,248,249,250,251]],"type":"Polygon","properties":{"geoid":"34","name":"New Jersey"},"id":"34"},{"arcs":[[252,-16,-70,-8]],"type":"Polygon","properties":{"geoid":"38","name":"North Dakota"},"id":"38"},{"arcs":[[-14,253,-236,-108,-52,-71]],"type":"Polygon","properties":{"geoid":"19","name":"Iowa"},"id":"19"},{"arcs":[[254,-35,255,256,-241]],"type":"Polygon","properties":{"geoid":"33","name":"New Hampshire"},"id":"33"},{"arcs":[[-87,-235,-119,-69,257]],"type":"Polygon","properties":{"geoid":"04","name":"Arizona"},"id":"04"},{"arcs":[[-105,259,-20]],"type":"Polygon","properties":{"geoid":"10","name":"Delaware"},"id":"10"},{"arcs":[[[-239,-133,260,261,262,-124,-110]],[[-123,-112]]],"type":"MultiPolygon","properties":{"geoid":"21","name":"Kentucky"},"id":"21"},{"arcs":[[263,264,-107,265,-261,-132]],"type":"Polygon","properties":{"geoid":"39","name":"Ohio"},"id":"39"},{"arcs":[[[266]],[[267]],[[268]],[[269,270,271,-237,-254,-13]]],"type":"MultiPolygon","properties":{"geoid":"55","name":"Wisconsin"},"id":"55"},{"arcs":[[-63,-138,-234,-85,272]],"type":"Polygon","properties":{"geoid":"41","name":"Oregon"},"id":"41"},{"arcs":[[-97,-127,-92,273,274]],"type":"Polygon","properties":{"geoid":"28","name":"Mississippi"},"id":"28"},{"arcs":[[-128,-55,-135,-121,-65,-118]],"type":"Polygon","properties":{"geoid":"08","name":"Colorado"},"id":"08"},{"arcs":[[[275]],[[276]],[[277,278,-28,-94,-126]]],"type":"MultiPolygon","properties":{"geoid":"37","name":"North Carolina"},"id":"37"},{"arcs":[[[-22,279]],[[281,-26,-45,-24,282,-278,-125,-263]]],"type":"MultiPolygon","properties":{"geoid":"51","name":"Virginia"},"id":"51"},{"arcs":[[-266,-106,-27,-282,-262]],"type":"Polygon","properties":{"geoid":"54","name":"West Virginia"},"id":"54"},{"arcs":[[[283]],[[284]],[[-98,-275,285,-77]]],"type":"MultiPolygon","properties":{"geoid":"22","name":"Louisiana"},"id":"22"},{"arcs":[[[287]],[[288,-243,289,-246,290,-248,-102]]],"type":"MultiPolygon","properties":{"geoid":"36","name":"New York"},"id":"36"},{"arcs":[[[291]],[[292]],[[293]],[[294]],[[295]],[[296,-264,-131]],[[297]],[[298,-271]]],"type":"MultiPolygon","properties":{"geoid":"26","name":"Michigan"},"id":"26"},{"arcs":[[[299]],[[300]],[[-242,-257,301,-46,302,-49,-244,-290]]],"type":"MultiPolygon","properties":{"geoid":"25","name":"Massachusetts"},"id":"25"}]}}}