{"type":"Topology","arcs":[[[19531,34454],[221,1],[150,1],[233,0],[2,-14],[186,3],[160,3],[175,-5],[184,1],[242,10],[131,2]],[[21215,34456],[0,-952]],[[21215,33504],[-11,0],[0,-849],[0,-824],[-1,-838],[0,-976],[0,-1272],[-4,-1173],[-2,-740],[0,-1268],[0,-637],[-183,-1],[-169,0],[-140,0],[-179,1],[-182,4],[-137,-4],[-5,-256],[30,-158]],[[20232,24513],[-131,0],[-179,1],[-158,0],[0,-859],[-234,-1]],[[19530,23654],[0,1442],[0,1312],[0,901],[1,714],[0,1033],[0,786],[0,725],[0,770],[0,1436],[0,787],[0,894]],[[20921,49700],[5,1],[-1,717],[-1,1088]],[[20924,51506],[136,0],[177,0],[208,-1],[210,-2],[135,0],[213,-2],[118,-3],[183,-2],[189,-7],[177,-2],[177,0],[161,0]],[[23008,51487],[-4,-209],[-20,-150],[-53,-194],[-4,-75],[25,-161],[10,-123],[14,-88],[17,-5],[36,-97],[10,-112],[1,-640],[0,-957],[-1,-920],[0,-910]],[[23039,46846],[-40,0],[1,-126],[20,-75],[-1,-157],[-15,-45],[2,-95],[24,-28],[13,-211],[-20,-170],[-8,-191],[-3,-159],[-23,-148],[2,-101],[25,-104],[25,-315]],[[23041,44921],[-15,-15],[-16,72],[-19,-13],[-3,73],[-21,107],[7,86],[-32,37],[-1,60],[-49,108],[-42,22],[-22,71],[-2,69],[-25,42],[-37,-41],[-45,23],[-23,-30],[-45,48],[-29,-187],[-23,-10],[-27,109],[-36,101],[-58,139],[-9,98],[-111,-1],[-160,-1],[-124,1],[-199,0],[-277,-4],[-62,6],[-178,0],[-180,3],[-256,-1]],[[20922,45893],[-1,756],[0,1391],[0,966],[0,694]],[[16868,27744],[16,-8],[46,-123],[20,-143],[-37,-31],[-13,62],[0,131],[-21,28],[-11,84]],[[16866,26895],[9,3],[25,-211],[32,-162],[-16,-71],[-21,98],[-29,343]],[[16597,27363],[13,13],[19,-55],[-3,-80],[-21,34],[-8,88]],[[16498,28852],[21,22],[27,-24],[20,-74],[7,-65],[-15,-46],[-28,-3],[-16,39],[-1,98],[-15,53]],[[16409,28743],[49,42],[20,-86],[1,-72],[-34,-88],[-16,62],[-20,142]],[[16353,28803],[25,74],[1,-110],[-26,36]],[[15305,43983],[60,-4],[181,6],[56,18],[29,-11],[92,2],[93,10],[122,-11],[166,-14],[90,-6],[194,-1],[91,5]],[[16479,43977],[0,-717],[0,-829],[1,-1304],[0,-1036],[-3,-1172],[2,-652],[174,-825],[168,-809],[145,-712],[105,-517],[139,-706],[185,-952],[171,-894],[166,-886],[117,-629],[125,-689]],[[17974,30648],[1,-259],[12,-58],[10,-131],[22,-101],[10,-223],[15,-128],[-1,-137],[12,-12],[33,-163],[13,-32],[11,-88],[-8,-102],[-24,-145],[-20,-70],[-25,-56],[-7,-162],[-26,-185],[8,-93],[-7,-40],[9,-303],[-7,-21],[-1,-254],[-27,-183],[-2,-54],[-26,-56],[6,-118],[-8,-65],[15,-62],[-1,-204],[-8,-125],[11,-114],[27,-2],[19,-38],[11,-198],[-1,-129],[-18,-103],[2,-65],[-26,-55],[-19,18],[-9,-36]],[[17950,26296],[-170,-81],[-245,-126],[-255,-144],[-4,171],[-15,119],[-14,-42],[-5,263],[3,137],[-9,272],[-17,240],[-45,362],[-25,105],[-8,64],[-29,117],[-16,112],[-25,97],[-15,27],[-20,90],[-25,147],[-25,64],[-30,-112],[-34,67],[-4,78],[9,103],[-17,234],[-25,152],[-34,1],[-34,-35],[-42,43],[-41,106],[-13,3],[-24,87],[-17,230],[-31,98],[-20,106],[-29,79],[-30,1],[-16,-38],[-18,42],[-23,-21],[-36,102],[-31,18],[-46,-3],[-52,-39],[-12,143],[-37,103],[13,243],[-10,119],[7,144],[-17,112],[9,194],[2,192],[-4,76],[-15,52],[-24,13],[-20,55],[-11,79],[10,188],[-2,108],[-11,87],[-27,22],[-27,168],[-18,165],[-26,56],[-16,93],[-4,133],[-37,202],[-13,224],[-18,35],[-16,182],[-24,142],[-33,106],[-17,109],[-4,225],[-9,124],[3,131],[-10,24],[13,119],[11,-65],[13,65],[8,122],[6,201],[-21,243],[-19,88],[-12,-45],[-38,8],[-32,128],[-17,145],[-12,22],[-11,114],[-10,43],[-4,101],[5,211],[-16,254],[-16,55],[5,314],[-5,180],[30,54],[14,-153],[-10,-40],[9,-220],[27,-35],[43,-140],[-10,168],[-6,169],[-24,91],[3,51],[-25,83],[9,115],[-10,104],[-21,42],[0,59],[36,113],[5,55],[-11,99],[-25,77],[-29,-54],[4,-83],[-2,-204],[9,-135],[-6,-129],[-19,19],[-26,117],[-17,-7],[-22,104],[-11,92],[-33,67],[-20,-54],[14,208],[3,98],[-5,163],[-10,90],[-20,49],[2,71],[-17,173],[-59,232],[-28,243],[-20,80],[-8,67],[-29,131],[-23,212],[11,123],[-1,69],[-13,200],[-9,60],[-10,257],[-6,37],[4,184],[14,206],[-7,90],[-1,171],[-9,54],[-8,221],[-15,55],[-6,89],[-30,198],[-12,35],[-8,137],[-22,51],[-49,249],[5,102],[-8,149],[-9,96],[22,330],[47,495],[13,287],[-13,89],[15,298],[12,400],[-5,206],[-23,367],[-26,72],[10,131],[5,180],[-3,109]],[[25079,34422],[-14,105],[4,71],[38,261],[16,35],[16,-11],[31,-67],[20,-85],[34,-60],[25,-90],[17,17],[10,149],[-6,97],[-19,154],[11,196],[19,73],[13,-43],[22,95],[56,39],[3,99],[-18,94],[-7,172],[10,81],[17,60],[10,115]],[[25387,35979],[23,-45],[10,61],[-8,159],[18,58],[12,-85],[45,36],[-1,-127],[16,6],[7,101],[-11,71],[16,46],[17,-76],[20,72],[15,-13],[46,-168],[15,-15],[10,-105],[17,29],[6,177],[19,68],[15,9],[19,100],[17,4],[12,-146],[19,0],[24,-87],[3,103],[15,-8],[5,239],[18,15],[21,153],[8,124],[17,-72],[5,-193],[25,-88],[14,11],[29,-41],[27,52],[6,128],[0,162],[33,218],[13,-39],[24,106],[10,196],[9,45],[24,35],[23,181],[-11,226],[6,89],[36,25],[17,-19],[9,-69],[21,9],[40,149],[30,31],[21,-4],[-4,89],[7,99],[-20,17],[10,167],[-17,125],[21,99]],[[26280,38469],[19,79],[34,-134],[34,33],[11,53],[11,-121],[19,-32],[16,-67],[5,-96],[15,-119],[6,-167],[39,-67],[26,31],[33,-57],[5,-67],[16,-50],[3,-71],[28,-59],[13,99],[29,45],[15,-52],[28,-33],[21,-118],[13,61],[26,-18],[14,111],[19,89],[15,4],[24,58],[7,-54],[6,-253],[13,-61],[21,-11],[31,-158],[6,-101]],[[26901,37166],[-2,-146],[7,-155],[-17,-238],[23,-130],[11,-136],[13,-28],[-10,-98],[22,-89],[7,-124],[16,-68],[2,-81],[17,-152],[25,-70],[7,-65],[26,-107],[27,3]],[[27075,35482],[-107,-517],[-41,-76],[-62,-204],[0,-118],[-17,-95],[-11,-8],[-16,-219],[-25,-60],[-29,-6],[-17,-136],[-1,-77],[-16,-6],[-53,-101],[-11,-37],[-30,-4],[-40,-123]],[[26599,33695],[-4,-34],[-83,13],[-154,13],[-84,17],[-98,38],[-82,-20],[-96,14],[-55,16],[-84,35],[-72,7],[-146,-19],[-83,-3],[-123,-15],[1,58],[-61,28],[10,-262],[-5,-83],[-78,6],[-219,6],[-51,7],[-32,-16]],[[25000,33501],[11,223],[14,31],[19,-128],[8,8],[19,185],[-11,95],[9,83],[-3,91],[17,152],[5,148],[-9,33]],[[24981,33498],[-15,1]],[[24966,33499],[-9,94],[5,57],[19,-10],[0,-142]],[[25339,30636],[-1,23],[216,-10],[157,-20],[130,-1],[221,-13]],[[26062,30615],[12,-447],[25,-804],[32,-1102],[35,-1224],[13,-453],[22,-430],[10,-124],[19,-124],[8,-137],[-8,-230],[19,-45],[9,-78],[-8,-73],[-22,-71],[-15,-94],[5,-87],[-3,-146],[-24,-289],[6,-240],[-2,-72],[19,-146],[5,-148],[-9,-138],[-5,-198],[0,-133],[-6,-58],[3,-189],[18,-109],[10,-205]],[[26230,23021],[-249,-13],[-174,-1],[-173,12],[-128,-4],[3,-63],[-13,-188],[23,-151],[6,-82],[35,-130],[3,-85],[-14,-197],[3,-89],[18,-95],[-17,-46],[-9,-140],[-12,-17],[-3,-83]],[[25529,21649],[-40,-57],[-39,-41],[15,112],[-17,85],[-8,83],[-19,63],[-9,141],[9,104],[-6,212],[-23,63],[-21,-208],[-5,-120],[-1,-253],[-7,-82],[-16,54],[-31,44],[-11,36],[-16,-67]],[[25284,21818],[-6,948],[-6,725],[-9,1233],[19,1057],[20,1190],[22,1233],[12,590],[21,1131],[10,514],[-16,57],[-12,140]],[[26062,30615],[61,-3],[124,9],[172,1]],[[26419,30622],[196,-3],[0,10],[142,17]],[[26757,30646],[-1,-124],[-16,-33],[-43,-250],[-7,-97],[3,-94],[30,-145],[18,-38],[23,-115],[4,-55],[22,-44],[25,15],[10,-51],[8,-179],[12,-49],[14,-170],[7,-192],[12,-40],[22,-188],[11,-163],[12,-16],[24,-136],[23,-61],[27,-154],[14,-233],[18,-76],[24,-51],[17,-148],[20,-91],[-9,-142],[22,-96],[4,-124],[13,-67],[11,5],[1,-108],[16,-82],[25,-40],[15,-95],[20,-74],[-3,-130],[7,-116],[15,-81],[3,-137],[-2,-121],[8,-199],[30,-74],[23,-169],[-2,-85],[18,-139],[6,-86],[-10,-117],[9,-81],[3,-165],[21,-59],[9,35],[27,-122]],[[27370,24999],[17,-97],[-20,-93],[-3,-58],[-17,-96],[-14,35],[-9,-90],[11,-35],[-27,-168],[1,-173],[-9,-117],[-32,-42],[27,-61],[-25,-254],[-7,-27],[6,-196],[-5,-92],[-12,-40],[-21,-145],[2,-91],[-5,-107],[-20,-61],[24,-51],[0,-103],[-12,-178],[-3,-131],[4,-61]],[[27221,22467],[-13,31],[-20,-27],[-25,55],[-19,7],[-24,87],[-44,53],[-3,-75],[-17,-46],[-4,-188],[11,-118],[-2,-226],[-8,-214],[-34,-8],[-12,125],[3,116],[-11,100],[7,59],[-99,42],[-156,63],[-103,42],[-155,55],[-225,70],[-20,209],[1,116],[-14,105],[-5,121]],[[23551,33502],[141,-2],[107,1],[167,-2],[216,0],[264,-1],[193,2],[155,-3],[6,-158],[19,-61],[-5,-209],[-38,-167],[-8,-104],[-12,-30],[-24,-226],[180,10]],[[24912,32552],[5,-181],[-15,-87],[20,-45],[-9,-65],[-20,-27],[-11,-88],[-19,32],[-14,-62],[0,-62],[14,-82],[-23,-173],[-17,-85],[13,-162],[-12,-36],[-6,104],[-17,-46],[14,-108],[-8,-154],[-14,-6],[2,-87],[21,-66],[-7,-96],[-21,-112],[-1,-111],[-8,-54],[-25,24],[-3,-81]],[[24751,30636],[18,-90],[-4,-105],[-39,-125],[-8,74],[-14,-139],[8,-104],[-5,-132],[-14,-74],[-21,-23],[15,-117],[-15,-153],[4,-88],[-10,-78],[-43,-81],[9,-68],[-8,-81],[-19,8],[-2,-110],[7,-63],[-13,-84],[-13,51],[-11,-107],[22,-54],[-8,-107],[-25,-11],[-28,-105],[22,-62],[-17,-113],[6,-108],[13,-90],[-37,27],[-4,-98],[9,-50],[16,19],[8,-68],[-17,-41],[-19,93],[-14,-12],[-1,-83],[21,-57],[-9,-112],[-15,0],[24,-269],[-1,-243],[26,-92],[-14,-61],[4,-156],[-33,-53],[22,-87],[-12,-114]],[[24512,26840],[-128,5],[-166,4],[-160,11],[-193,7],[-154,2]],[[23711,26869],[0,1016],[-11,44],[-22,26],[-38,-25],[-26,-56],[-16,167],[-11,7]],[[23587,28048],[4,886],[7,1512],[5,946],[-26,1033],[-26,1077]],[[27479,43943],[52,111],[49,151],[19,110],[7,-53],[53,166],[31,73]],[[27690,44501],[0,-517],[247,-2],[290,1],[197,2],[105,4],[113,-6],[168,-1],[106,3],[23,-115],[4,-130],[18,-4],[23,-48],[3,-132],[14,-41],[3,-257],[-8,-23],[25,-189],[21,-65],[5,-65],[37,-29],[17,-126]],[[29101,42761],[-16,-21],[-24,-131],[-12,-184],[-28,-138],[-12,-131],[-29,-93],[4,-72],[17,-152],[-15,-157],[-17,-25],[-9,-165],[2,-219],[26,-17],[9,-48],[3,-237],[26,-43],[6,-101],[21,-90],[7,-85],[20,-67],[13,-132],[-25,-35],[-13,-82],[-20,-31],[-40,-173],[-15,-36],[1,-90],[-40,-119],[-17,-1],[-23,-89]],[[28901,39797],[-3,9]],[[28898,39806],[-21,50],[-33,2],[-23,-60],[-24,-153]],[[28797,39645],[-176,-2],[-159,-3],[-134,1],[-175,4],[-232,1],[-152,-3]],[[27769,39643],[-105,-1],[-185,1],[0,1183],[0,566]],[[27479,41392],[0,1163],[0,1388]],[[23231,41290],[215,-19],[140,-9],[114,4],[149,14],[80,1],[140,16],[184,24],[102,23],[14,-116],[15,-18],[3,-74],[25,-179],[13,-55],[17,-7]],[[24442,40895],[-12,-68],[-13,-202],[-1,-207],[5,-174],[20,-232],[-7,-70],[5,-77],[19,-100],[-3,-101],[36,-195],[16,-47],[10,-114],[14,-13],[11,-133],[18,-88],[43,-157],[32,-170],[5,-183],[7,-127],[-8,-60],[13,-247],[23,-111],[11,11],[26,177],[39,-83],[16,-10],[39,-133],[-3,-98],[-12,-48],[-13,-116],[8,-89],[-2,-126],[-19,-135],[-9,-190],[-21,-168],[4,-241],[22,-107],[8,-86],[32,-96],[35,-180],[14,-161],[15,-26],[15,68],[14,-88],[16,-24],[43,-254],[20,-53],[-1,-286],[26,-264],[-4,-100],[-15,-25],[-8,-88],[16,-66],[0,-98],[24,-216],[-1,-88],[24,-91],[10,45],[17,-8],[18,-56]],[[25000,33501],[-19,-3]],[[24966,33499],[-1,-148],[9,-89],[-6,-65],[-22,2],[-1,-60],[22,-73],[-15,-59],[-30,25],[1,-53],[24,-103],[3,-83],[-24,-86],[-2,-92],[-12,-63]],[[23551,33502],[0,952]],[[23551,34454],[0,996],[0,479],[1,848],[0,768],[1,395],[0,553],[-22,125],[-13,-27],[-25,77],[-6,112],[-15,60],[-6,161],[-51,284],[13,90],[8,162],[17,52],[4,100],[19,167],[-16,45],[-5,86],[-16,-8],[-18,-68],[-34,88],[-29,175]],[[23358,40174],[-31,113],[6,128],[-22,106],[0,116],[-22,53],[-15,83],[-23,296],[-1,112],[-17,-4],[-2,113]],[[19530,42081],[222,-1],[175,4],[213,1],[179,-9],[137,-2],[242,2],[50,6],[174,1]],[[20922,42083],[155,0],[176,1],[226,1],[1,-1266],[-1,-639]],[[21479,40180],[1,-1334],[1,-933],[0,-1464],[1,-696],[0,-1310]],[[21482,34443],[-183,4],[-84,9]],[[19531,34454],[0,717],[1,297],[0,1208],[-5,211],[0,847],[2,775],[0,1427],[0,1085],[1,333],[0,727]],[[18139,43975],[39,-11],[105,8],[209,14],[168,3],[5,-8],[188,4],[120,4]],[[18973,43989],[1,-804],[-1,-1109],[152,-6],[270,7],[135,4]],[[19531,34454],[-231,-1],[-166,-1],[-9,12],[-176,-6],[-204,1],[-137,-1],[-131,-1],[-222,-1],[-119,1]],[[18136,34457],[0,1129],[1,440],[-1,1289],[1,964],[0,858],[1,1031],[0,765],[1,712],[0,1372],[0,958]],[[21482,34443],[212,7],[152,4],[173,6],[130,-5],[173,0],[188,-3],[208,2],[161,0],[147,0],[139,0],[166,1],[220,-1]],[[23587,28048],[-18,-18],[-8,96],[-43,24],[-4,63],[-35,47],[-33,197],[-15,19],[-4,75],[-43,115],[-10,-45],[-8,-116],[-45,-21],[-25,28],[-6,89],[-12,27],[-43,-155],[-26,-42],[-23,88],[-4,-45],[-30,-48],[-28,3],[-8,-147],[-14,-24],[-19,34],[-12,-147],[-23,166],[-22,-6],[-7,92],[-27,39],[7,64],[-21,71],[-5,-119],[-20,-49],[-9,85],[-20,-30],[-15,203],[-21,-52],[3,-79],[-17,-140],[-13,-36],[-1,-135],[-21,19],[-9,124],[10,85],[-3,86],[-19,15],[-16,-26],[-19,-128],[-25,43],[1,118],[-12,30],[-14,-41],[-10,102],[-23,76],[-17,-105],[-37,-166],[-29,63],[6,202],[-38,27],[0,75],[-10,81],[8,72],[-5,61],[-17,-76],[-17,38],[-19,1],[-18,43],[-13,-132],[-21,-49],[-32,187],[-13,8],[-12,-60],[-21,6],[-43,90],[-23,65],[-11,-37],[-41,31],[-6,235],[-23,148],[-24,79],[-5,-148],[-29,58],[-22,13],[-5,-80],[-27,7],[-16,82],[-37,244],[-17,57],[-15,-36],[0,895],[0,1365],[0,1437],[-145,-1],[-157,0],[-207,0],[-207,2],[-120,0]],[[26599,33695],[111,-5],[5,-8],[104,-1],[265,2],[4,42],[76,-9],[-8,-45]],[[27156,33671],[-9,-99],[4,-130],[-13,-104],[7,-125],[-32,-1],[-21,-86],[-35,-346],[-27,-27],[-5,82],[-16,14],[-24,-40],[-33,-100],[-14,-144],[-25,-83],[-17,6],[2,131],[-8,56],[-43,-148],[0,-68],[-18,-6],[-17,-48],[4,-83],[-5,-74],[-21,-129],[-24,30],[-23,-47],[-7,-67],[-16,-6],[-20,-137],[-37,-82],[-14,-93],[-37,10],[-40,-11],[-15,-73],[-15,-13],[-9,-79],[-13,-22],[-15,-100],[-7,-122],[5,-88],[-24,-96],[-26,-14],[-6,48],[-19,-83],[-9,-452]],[[25339,30636],[-135,0],[-209,-4],[-146,2],[-98,2]],[[20922,45893],[0,-954],[0,-1171],[0,-891],[0,-794]],[[18973,43989],[0,960],[1,415],[0,1483],[-1,990],[0,865],[-1,8]],[[18972,48710],[-1,996],[74,0],[24,-17],[145,9],[22,13],[96,-3],[183,7],[6,-12],[158,1],[142,1],[244,-1],[12,-6],[143,-4],[179,-2],[5,13],[207,0],[150,-3],[160,-2]],[[29284,41504],[-1,4]],[[29283,41508],[1,-4]],[[29224,41142],[12,94],[5,85],[-2,57],[34,32],[7,-85],[-17,-106],[-39,-77]],[[27690,44501],[22,54],[64,215],[37,174],[47,98],[11,113],[13,60],[5,89],[36,87],[14,66],[2,128],[-20,223],[-22,56],[1,154],[-19,23],[9,125],[-4,211],[57,110],[61,87],[40,33],[87,-8],[20,9],[86,-68],[10,3],[51,-187],[66,71],[22,-6],[43,23],[18,-36],[26,0],[15,48],[29,26],[27,71],[18,127],[40,118],[21,91],[34,-17],[15,29],[9,87],[2,168],[-11,291],[-17,77],[10,49],[16,-32],[21,63],[-1,67],[-19,67],[14,75],[-6,111],[-18,-168],[-18,82],[1,74],[-20,86],[16,180],[18,8],[23,69],[1,78],[44,128],[25,39],[26,122],[15,159],[128,612],[24,78],[22,36],[47,166],[18,0],[23,62],[26,-49],[13,18],[98,-15],[52,-1],[76,19],[148,18]],[[29478,49725],[1,-165],[-12,-151],[13,-77],[-8,-120],[-7,-237],[25,-268],[1,-92],[-10,-107],[6,-187],[-22,-162],[-13,-275],[7,-34],[1,-180],[9,-112],[-5,-99],[12,-95],[-22,-263],[35,-19],[16,-188],[-3,-508],[-6,-811],[4,-167]],[[29500,45408],[-68,-1257],[6,-70]],[[29438,44081],[-10,-819],[-8,-619],[19,-157],[-68,-214],[20,-169],[-1,-44]],[[29390,42059],[-7,-75],[-20,-70],[-17,-156],[17,6],[12,68],[18,-30],[2,81],[21,37],[17,-77],[5,135],[20,-81],[17,39],[35,-35],[23,43],[8,93],[17,-24],[79,1],[38,32],[67,218],[12,83],[10,-98],[21,-83],[22,16],[19,-118],[21,61],[16,91],[16,28],[8,-65],[-67,-152],[-99,-247],[-83,-154],[-68,-156],[-55,-93],[-32,4],[-69,-105],[-11,18],[-45,6],[-30,-43],[-5,37],[-26,-32],[-14,106],[10,69],[-5,109]],[[29288,41546],[3,72],[24,250],[7,207],[-123,371],[-98,315]],[[25527,43430],[31,-123],[35,-43],[19,6],[33,53],[50,116],[27,90]],[[25722,43529],[85,-1],[203,-1],[274,2],[0,-122]],[[26284,43407],[1,-494],[0,-1213],[0,-931],[-3,-950],[0,-639],[-2,-711]],[[25387,35979],[-19,181],[23,2],[-7,118],[7,38],[-6,105],[19,67],[-14,58],[20,55],[9,77],[-16,48],[5,162],[30,2],[3,93],[24,157],[9,135],[25,202],[8,151],[18,36],[10,193],[-9,63],[-5,135],[8,83],[-3,75],[-14,28],[1,134],[-24,150],[24,157],[-9,84],[5,136],[16,28],[-1,998],[2,1186],[1,596],[-1,937],[1,781]],[[21479,40180],[179,-1],[262,-2],[183,0],[179,1],[217,1],[154,-1],[220,-1],[208,-2],[117,0],[160,-1]],[[17338,51602],[-12,197],[10,118],[-11,74],[-6,177],[-20,101],[5,152],[0,1189],[0,817],[-1,688],[2,1014],[1,1198]],[[17306,57327],[274,3]],[[17580,57330],[0,-990],[0,-962],[36,-227],[20,-81],[6,-120],[29,-110],[-4,-76],[13,-112],[-18,-82],[12,-56],[5,-126],[-15,-30],[55,-180],[6,-91],[57,-82],[22,-201],[28,-93],[20,-145],[6,-85],[14,-18],[18,-142],[4,-134],[15,-24],[28,-107],[4,-117],[24,80],[14,-191],[41,-14],[12,56],[29,-26],[-9,-266],[-13,-10],[8,-114],[-14,-105],[2,-99],[-10,-181],[1,-127],[-19,-15],[-1,-79],[16,-51],[-9,-87],[5,-114],[18,-28],[-6,-80],[12,-102],[-33,-70],[-16,-138],[17,-98],[1,-99],[-17,-72],[1,-91],[36,-104],[24,-134],[18,39],[9,86],[31,61],[33,203],[6,76],[16,-15],[5,-72],[31,-105],[-7,-157],[17,-12],[-1,-205],[12,-27],[-1,-122],[12,-124],[28,-151],[5,-100],[34,-138],[2,-189],[-15,-35],[12,-145],[28,-87],[4,-67],[26,72],[41,-177],[9,-97],[18,-429],[44,-182],[2,125],[16,116],[17,38],[33,-26],[60,-82],[9,167],[19,63],[29,-68],[22,-23],[20,49],[45,32],[13,-104],[33,97],[50,-22],[0,109],[15,117],[-5,65],[42,62],[33,-212],[25,-232],[22,-42]],[[18139,43975],[-155,1],[-58,14],[-63,-11],[-253,1],[-119,-1],[-184,7]],[[17307,43986],[0,1191],[0,1316],[0,940],[13,120],[0,84],[13,202],[-12,122],[14,42],[9,101],[-21,70],[-2,87],[-22,-23],[-13,94],[-19,-40],[-13,56],[8,92],[-15,114],[8,58],[-3,100],[23,126],[13,227],[14,154],[31,73],[11,137],[12,61],[4,101],[-3,156],[14,72],[19,152],[16,346],[23,232],[9,120],[26,209],[-20,145],[0,81],[-16,84],[-20,7],[-9,74],[-24,8],[-23,175],[-14,150]],[[13234,68853],[15,80],[6,150],[-11,136],[22,60],[38,-115],[12,-173],[-1,-149],[-10,-56],[-28,1],[-32,-34],[-11,100]],[[13216,70406],[20,98],[11,-112],[-31,14]],[[12979,71421],[19,89],[25,-67],[-33,-98],[-11,76]],[[12904,68614],[30,35],[28,-115],[-4,-119],[-19,-2],[-23,79],[-12,122]],[[12837,71348],[19,141],[14,45],[35,-22],[22,31],[22,-30],[13,-102],[-15,-73],[5,-138],[-60,-87],[-22,109],[-31,79],[-2,47]],[[12730,69779],[24,81],[22,-50],[-5,-129],[-27,-2],[-14,100]],[[12684,69623],[23,74],[29,-4],[-6,-98],[-28,-15],[-18,43]],[[12665,69350],[34,203],[41,21],[1,-73],[-21,-39],[-23,-98],[-10,-119],[-22,105]],[[12629,70583],[44,248],[5,60],[28,53],[-25,143],[-9,176],[11,91],[56,-58],[22,17],[47,-16],[28,-157],[10,-135],[-21,-187],[52,-102],[24,19],[63,-238],[41,-239],[8,-215],[24,-52],[7,-130],[36,-116],[15,-110],[-88,189],[-15,90],[-12,-185],[40,19],[37,-137],[14,-118],[22,-68],[16,-152],[-26,-81],[24,-49],[15,144],[16,-28],[4,-156],[-15,-71],[10,-59],[-26,-58],[20,-89],[14,-137],[-2,-210],[5,-115],[-15,-61],[-2,-91],[-42,-35],[-83,196],[6,66],[23,-21],[2,85],[-19,65],[-28,-1],[-26,143],[19,239],[-14,111],[-35,-104],[8,-154],[-19,-43],[-36,75],[9,112],[-15,57],[-7,162],[-44,-6],[24,-160],[-2,-149],[18,-55],[11,-182],[46,-192],[9,-96],[-1,-145],[-36,-1],[-15,159],[-28,89],[-20,181],[-20,38],[-6,166],[-20,119],[11,94],[-15,159],[-24,-30],[-33,40],[-1,179],[54,72],[12,49],[48,47],[-5,80],[-23,53],[14,116],[-7,112],[-40,-39],[-24,60],[-12,94],[21,147],[-27,10],[-30,-89],[-31,68],[-17,105],[13,76],[21,26],[26,-91],[44,33],[-6,148],[-31,46],[-12,82],[-24,30],[-8,-68],[-22,-40],[-33,83]],[[12628,69611],[12,48],[11,161],[43,-32],[-23,-189],[-17,61],[-26,-49]],[[12476,70500],[29,30],[37,-52],[-51,-138],[-15,160]],[[12461,72266],[18,104],[39,18],[23,97],[25,-60],[12,-183],[18,-62],[4,-81],[38,135],[-24,74],[-8,181],[-38,130],[7,94],[37,54],[79,-81],[56,-98],[56,10],[33,-40],[22,-96],[23,-258],[25,-21],[24,-154],[33,-84],[6,-99],[16,-62],[-31,-59],[-23,-87],[-23,-24],[-91,67],[5,-101],[-22,-56],[-14,55],[-45,-5],[-30,-73],[-37,4],[-10,269],[-13,-38],[-31,48],[-3,-204],[-13,-73],[21,-221],[-12,-90],[-2,-100],[-20,-34],[6,-77],[-8,-140],[-23,49],[6,90],[-10,100],[-22,-288],[-27,7],[-16,542],[16,105],[31,93],[-22,159],[-24,35],[2,117],[-14,51],[-19,151],[-6,210]],[[12308,75190],[23,-96],[24,-44],[26,-133],[3,-128],[45,42],[60,-74],[40,30],[-4,-145],[25,-120],[0,-63],[31,-144],[-4,-35],[29,-165],[2,-235],[-21,24],[-20,234],[-29,122],[-4,142],[-18,108],[-24,-119],[16,-148],[41,-295],[47,-211],[-3,-77],[17,-118],[-12,-77],[14,-83],[5,-107],[-42,-80],[-40,35],[16,-153],[-17,-108],[-28,-45],[-32,-172],[-48,-133],[-17,42],[-12,356],[51,309],[-32,151],[-8,174],[-17,104],[-17,236],[8,169],[-11,131],[-4,155],[-14,123],[2,113],[-27,171],[-16,222],[-4,115]],[[12157,73015],[34,28],[-17,-115],[-17,87]],[[12107,73266],[44,167],[-4,105],[28,100],[35,-35],[8,-105],[20,10],[16,-66],[45,-78],[25,27],[20,-69],[10,-96],[-16,-44],[-25,19],[2,-109],[29,-43],[28,-462],[0,-100],[12,-103],[19,-333],[4,-169],[-7,-302],[1,-331],[-4,-136],[-34,-28],[-19,150],[-15,35],[-36,325],[-10,158],[-26,151],[-39,94],[-34,219],[18,233],[-7,105],[24,49],[-31,174],[-7,120],[23,149],[-44,13],[-37,116],[-16,90]],[[12096,75186],[31,19],[19,-95],[-38,9],[-12,67]],[[12056,73007],[12,51],[-5,164],[23,20],[26,-61],[29,-132],[-15,-61],[21,-52],[-6,-188],[-19,-129],[-60,-56],[3,177],[22,53],[4,97],[-24,21],[-11,96]],[[11977,75018],[33,73],[1,-88],[-34,15]],[[11861,74543],[10,125],[60,136],[24,-23],[28,129],[33,-62],[54,173],[25,-81],[58,-100],[1,-129],[-28,-135],[8,-113],[38,275],[18,13],[33,-83],[44,-12],[7,-52],[39,-46],[11,-118],[-3,-103],[-32,-113],[23,-95],[16,-306],[13,-141],[4,-147],[-16,-82],[-37,-9],[-90,255],[-60,155],[-4,-285],[9,-80],[-12,-99],[-32,-111],[-40,51],[-36,174],[-20,54],[-12,88],[-38,65],[-8,162],[21,103],[-20,62],[-18,-27],[-13,145],[-36,80],[3,51],[-25,67],[0,189]],[[9141,79179],[13,100],[41,10],[47,75],[6,39],[44,29],[-3,-69],[-80,-160],[-39,-50],[-29,26]],[[9031,79022],[33,193],[74,-28],[12,-101],[48,32],[14,-129],[-30,-8],[-17,-49],[-25,6],[-40,-83],[-35,-111],[-25,81],[47,106],[-23,37],[-30,-22],[-3,76]],[[8866,79969],[32,54],[16,-104],[-48,50]],[[8697,77887],[5,97],[63,304],[70,187],[37,216],[25,60],[1,205],[31,61],[7,-76],[44,-92],[-14,-81],[-65,-185],[-44,-203],[-6,-136],[-33,-66],[15,-130],[-24,-59],[-24,21],[-13,-68],[-60,-97],[-15,42]],[[8686,78772],[15,89],[27,281],[25,-1],[3,121],[32,-14],[-23,-180],[19,-76],[-35,-210],[13,-25],[-17,-166],[-55,139],[-4,42]],[[8672,79675],[19,41],[30,-103],[-6,-40],[-37,30],[-6,72]],[[8662,78198],[34,174],[33,36],[-14,-123],[-46,-109],[-7,22]],[[8635,78891],[27,121],[19,-11],[-10,-173],[-29,1],[-7,62]],[[8635,78291],[31,215],[37,38],[6,-52],[-74,-201]],[[7905,76996],[17,96],[26,-34],[-28,-119],[-15,57]],[[7592,74859],[16,132],[12,-19],[-3,-133],[-25,20]],[[7419,74331],[21,75],[11,-140],[-32,65]],[[7323,74401],[31,38],[-8,-107],[-23,69]],[[7168,74598],[23,75],[11,88],[21,25],[13,110],[32,-43],[15,52],[-27,75],[16,85],[35,-42],[8,114],[30,14],[-8,102],[45,150],[-4,107],[7,92],[18,63],[20,-44],[14,69],[31,10],[2,-97],[-21,-178],[-19,-47],[-9,-82],[12,-51],[-5,-90],[32,12],[24,124],[19,-82],[35,-14],[2,-126],[33,-94],[-33,-200],[-33,43],[-5,103],[-25,21],[13,-204],[-23,-45],[-32,28],[-31,-16],[-24,-106],[-21,-21],[-13,-109],[-31,-45],[-44,34],[-23,59],[-46,61],[-34,20]],[[7124,77104],[44,74],[20,-77],[-5,-68],[-41,-34],[-18,105]],[[6905,71705],[14,83],[25,59],[35,5],[21,-128],[42,19],[-22,-110],[-78,-22],[-30,28],[-7,66]],[[6785,71493],[29,181],[37,115],[23,29],[23,-91],[-21,-77],[-47,-86],[-26,-120],[-18,49]],[[6784,73240],[27,84],[-4,73],[23,149],[28,63],[9,69],[21,6],[24,108],[31,47],[69,-25],[-2,-200],[17,-21],[33,101],[-32,218],[-3,205],[55,160],[21,-25],[48,-197],[5,127],[48,-76],[-9,91],[-34,53],[-23,94],[21,77],[41,-114],[61,-77],[-49,168],[19,26],[23,-39],[17,23],[57,-59],[-17,-212],[3,-130],[15,-18],[0,160],[17,61],[76,99],[13,-30],[7,-116],[22,-63],[-34,-86],[7,-304],[41,80],[44,-85],[-39,-142],[-12,-181],[-56,51],[-23,52],[-18,-19],[-14,72],[-41,13],[-8,-61],[42,-40],[11,-69],[34,-73],[-9,-121],[-18,-76],[-13,62],[-19,-88],[-24,105],[-24,38],[-8,-84],[19,-69],[-35,-92],[14,-84],[20,37],[23,-72],[-13,-47],[-30,-5],[-51,-83],[-9,-145],[-19,-24],[-5,98],[-21,40],[6,112],[-25,-12],[-9,-97],[-22,53],[-23,-76],[33,-100],[-18,-126],[-16,-7],[-19,-80],[8,-68],[-38,-64],[-17,-98],[-21,-46],[-42,78],[17,123],[24,91],[37,90],[-35,28],[0,201],[-29,-181],[-11,-2],[-31,-179],[-49,173],[-34,55],[3,157],[-4,203],[-18,140],[-37,41],[-20,133]],[[6518,70333],[47,57],[6,-117],[-7,-54],[-39,24],[-7,90]],[[6240,70741],[20,96],[12,-75],[-13,-51],[-19,30]],[[6079,71697],[16,78],[54,2],[-21,-100],[-49,20]],[[5518,68575],[8,60],[29,-7],[-7,-97],[-21,-17],[-9,61]],[[5479,68803],[11,75],[32,-157],[-28,-67],[-15,149]],[[5444,68411],[26,-52],[-16,-62],[-10,114]],[[5430,69000],[25,100],[20,-74],[-21,-175],[-23,39],[-1,110]],[[5263,68581],[23,84],[11,122],[-15,173],[17,85],[14,0],[14,109],[35,47],[-1,-163],[11,-93],[-20,-41],[-51,-237],[-38,-86]],[[5238,69576],[24,72],[29,-30],[-46,-103],[-7,61]],[[5187,69374],[55,76],[7,-108],[-46,-26],[-16,58]],[[5093,69377],[18,113],[20,51],[23,-38],[23,6],[-1,-219],[11,-35],[9,-174],[-25,-38],[-73,136],[3,155],[-8,43]],[[5033,75609],[7,205],[39,90],[13,-1],[36,101],[-8,-138],[-32,-279],[-22,-54],[-33,76]],[[4862,69164],[11,66],[34,28],[-8,-103],[-37,9]],[[4805,69037],[21,73],[53,-145],[-34,-94],[-9,85],[-31,81]],[[4656,68630],[31,104],[24,-53],[1,-129],[-23,-115],[-27,95],[-6,98]],[[4577,85120],[44,99],[50,-15],[10,-66],[-23,-90],[-54,-6],[-27,78]],[[4538,67667],[16,129],[67,-121],[-3,-74],[-45,22],[-15,-34],[-20,78]],[[3957,67959],[39,114],[25,38],[44,368],[1,72],[34,83],[26,-69],[19,23],[39,114],[14,-15],[34,74],[17,72],[33,30],[32,-22],[34,20],[2,-66],[30,-123],[9,-108],[-3,-98],[22,-175],[40,43],[22,-85],[5,-129],[-31,71],[-26,4],[-12,89],[-26,-53],[2,-118],[-23,-10],[-24,-77],[-62,46],[-78,-30],[-33,-48],[-32,-98],[-3,-116],[-32,-119],[-55,-60],[-55,58],[-24,196],[-4,104]],[[3880,67050],[22,57],[62,-35],[-10,-74],[-23,-15],[-51,67]],[[3750,67325],[31,68],[22,-135],[2,-94],[-18,-31],[-37,192]],[[3632,67092],[8,104],[29,84],[30,-15],[-2,-64],[36,-36],[3,-92],[16,-40],[-48,-70],[-22,21],[-33,-41],[-17,149]],[[3576,66455],[49,59],[1,-97],[-15,-74],[-29,17],[-6,95]],[[3256,78698],[14,-23],[32,64],[98,-21],[26,-36],[11,151],[20,57],[41,-8],[3,84],[23,63],[33,-61],[51,73],[54,-148],[33,56],[56,-98],[-12,-86],[12,-92],[-12,-70],[18,-88],[-13,-90],[35,-209],[0,-96],[-38,-36],[-12,25],[-31,-56],[-21,6],[-55,-103],[18,-92],[-30,-46],[-29,132],[-39,68],[-50,-13],[-40,83],[-41,129],[-40,63],[-16,-7],[-38,129],[-18,8],[-11,125],[-32,163]],[[3147,65545],[43,145],[55,14],[10,99],[31,-46],[18,108],[37,-21],[5,159],[-7,96],[26,158],[19,59],[29,3],[11,-85],[24,95],[-43,72],[-23,-8],[-18,60],[-23,136],[22,126],[53,122],[14,-17],[25,66],[22,4],[18,-59],[-13,-120],[9,-103],[47,64],[9,81],[22,3],[21,48],[6,-170],[-26,-19],[-23,-124],[-16,-36],[-21,-115],[59,110],[14,-195],[-39,-49],[-6,-43],[-29,-20],[-6,-130],[-14,-2],[-10,-132],[-22,42],[-8,-124],[-30,-24],[-49,35],[-25,-45],[-22,-82],[-21,-24],[-3,-67],[-41,-26],[-12,-82],[-30,17],[-6,-66],[-46,47],[-17,65]],[[3072,89060],[9,77],[29,68],[121,177],[49,94],[74,172],[142,307],[100,175],[88,168],[86,144],[129,183],[108,122],[101,92],[144,22],[30,-39],[14,-114],[-11,-114],[-23,-70],[-9,-178],[15,-86],[-28,-114],[23,-181],[20,-82],[39,-45],[38,52],[94,-49],[113,66],[34,-104],[50,37],[21,-58],[65,93],[33,-26],[39,-84],[42,67],[51,360],[56,32],[9,-73],[84,-64],[4,101],[-36,184],[-114,118],[-42,-1],[-61,-88],[12,182],[-5,135],[-59,174],[-19,140],[-24,58],[-68,38],[-5,88],[-28,129],[4,98],[82,77],[21,-138],[39,-152],[20,-11],[-16,-146],[2,-107],[39,-177],[97,-220],[71,73],[22,79],[45,-57],[30,-116],[55,-126],[68,-8],[15,32],[71,23],[7,218],[-40,202],[-38,19],[-17,-72],[-39,31],[-43,119],[-85,-43],[-26,-116],[3,-64],[-46,-33],[-42,52],[-95,317],[9,177],[16,135],[71,208],[-80,112],[-84,-52],[-35,-52],[-51,-18],[-13,53],[-39,-11],[-28,89],[-71,-53],[-136,109],[-56,32],[-23,55],[-3,227],[-29,300],[-42,260],[-48,172],[-97,175],[-94,253],[-129,319],[-91,119],[-59,44],[-30,64],[-17,109],[-54,138],[-98,116],[-65,28],[125,148],[19,72],[0,97],[19,86],[12,440],[-10,162],[185,-47],[77,18],[300,141],[83,123],[99,247],[93,365],[21,188],[2,417],[33,310],[91,336],[62,281],[39,133],[127,258],[121,-65],[44,3],[65,60],[78,108],[65,119],[93,224],[30,105],[125,334],[93,106],[-8,-132],[41,-41],[57,9],[12,61],[79,-21],[93,65],[84,22],[73,85],[74,139],[61,159],[132,486],[67,125],[10,-108],[127,-109],[35,-100],[58,12],[49,-58],[15,-126],[-8,-67],[-47,-98],[-5,-51],[-75,-64],[34,-229],[75,-10],[33,62],[-6,165],[71,139],[0,114],[51,147],[88,-158],[53,-152],[-14,-88],[9,-213],[67,-3],[45,-119],[51,95],[16,111],[52,24],[98,4],[42,53],[59,-15],[33,-40],[95,-17],[99,-104],[-43,-213],[-27,-46],[19,-225],[52,-63],[67,48],[70,-43],[-40,-212],[85,16],[118,-117],[55,156],[120,45],[29,-45],[15,-96],[70,38],[68,156],[79,-29],[32,39],[113,-100],[33,-83],[100,-44],[31,-74],[-3,-64],[36,-42],[27,56],[42,18],[46,-72],[45,-168],[110,-58],[28,17],[31,-79],[51,1],[39,53],[91,9],[64,-16],[101,-86],[22,57],[64,-148],[51,-94],[72,-84],[78,-53],[19,36],[55,-30],[50,131],[190,170],[63,38],[28,-37],[48,54],[77,-131],[64,-72],[130,-257],[96,-169],[59,-57],[82,-174],[24,-133],[32,-4],[14,100],[56,-69],[0,-686],[0,-1427],[-1,-1160],[0,-736],[0,-1961],[0,-1044],[1,-1209],[0,-662],[0,-1866],[0,-1741],[0,-536],[0,-1088],[-1,-1201],[1,-715],[0,-805],[0,-965],[64,-88],[70,-77],[17,168],[133,-241],[80,293],[172,32],[1,-63],[-35,-440],[40,-178],[97,-169],[11,-184],[11,-79],[284,-1000],[19,-263],[11,-229],[-7,-150],[22,5],[51,177],[111,259],[11,38],[68,13],[31,227],[-2,346],[29,-30],[19,28],[19,114],[-1,67],[-31,77],[44,76],[67,43],[132,259],[63,-191],[27,-138],[36,-118],[0,-170],[-20,-90],[31,-77],[-12,-77],[20,-125],[72,-61],[6,-108],[32,-117],[23,1],[28,-177],[-7,-113],[26,-32],[-6,-74],[21,-119],[117,-251],[37,-223],[42,-170],[50,-177],[-24,-81],[33,-213],[47,-240],[28,-287],[57,-299],[32,-263],[27,-163],[29,-234],[53,-295],[32,-249],[-33,-228],[90,-89],[-22,-326],[70,-129],[-8,-100],[11,-97],[7,-197],[71,24],[31,-113],[83,-197],[24,-83],[85,-74],[44,-191],[43,-45],[12,-194],[50,-86],[40,51],[28,-219],[-4,-183],[-18,-172],[-20,-106],[12,-159],[-5,-194],[11,-158],[13,-89],[6,-216],[13,-107],[-36,-170],[-23,-248],[-44,-274],[-63,-242],[-41,-105],[-14,140],[-25,-89],[-22,71],[-6,193],[3,87],[-19,99],[6,163],[-22,73],[-6,132],[62,231],[-1,134],[-13,118],[16,184],[-11,274],[-18,186],[-68,391],[31,89],[-8,35],[-28,-94],[-7,-65],[51,-267],[6,-110],[22,-129],[9,-164],[-12,-102],[-2,-198],[6,-129],[-16,-44],[-11,-212],[-39,-134],[-42,133],[-66,106],[-15,-57],[-33,-298],[-21,196],[-8,165],[11,249],[31,128],[12,133],[-13,93],[5,99],[-8,78],[17,83],[-11,124],[48,-3],[-22,200],[-39,-117],[-44,-27],[41,-76],[-16,-202],[2,-94],[-33,-147],[-12,-176],[-39,96],[-18,73],[-12,213],[10,76],[2,122],[31,12],[-6,78],[13,61],[2,147],[21,17],[-4,178],[2,211],[41,35],[-13,74],[-19,-71],[-21,-19],[-3,-95],[-20,-57],[-36,-44],[20,-137],[6,-131],[-40,-28],[-26,-142],[-8,64],[10,84],[-22,49],[1,125],[-15,85],[-26,27],[-15,-87],[-23,213],[2,135],[32,46],[20,190],[26,27],[16,-84],[12,168],[-16,165],[9,84],[-2,128],[-31,16],[-24,49],[10,228],[-32,63],[-40,118],[-8,91],[-19,57],[-19,138],[5,100],[-40,71],[-30,13],[-6,51],[-30,-20],[-52,127],[4,210],[67,20],[-10,77],[-47,39],[-4,129],[-16,103],[2,129],[-28,66],[-13,69],[2,179],[26,11],[14,-64],[36,-45],[-11,124],[-37,112],[-43,27],[-39,264],[5,65],[-26,32],[-35,168],[-10,218],[-17,26],[-36,-18],[-57,74],[-30,0],[-28,135],[13,145],[-24,-5],[-19,241],[-41,221],[-13,114],[13,48],[3,152],[-37,-35],[-20,127],[-19,471],[-24,238],[-22,127],[12,330],[-32,-312],[1,-92],[19,-37],[12,-107],[-31,-77],[18,-40],[-7,-227],[8,-95],[36,-270],[1,-105],[27,-202],[-14,-49],[20,-198],[20,-358],[-16,-73],[12,-126],[-28,19],[-42,70],[-23,151],[-62,192],[-17,-45],[-67,-38],[6,68],[-28,122],[19,67],[-12,103],[14,113],[-11,128],[-14,34],[-25,283],[-15,-166],[-25,-46],[-42,126],[-19,17],[-18,181],[-27,-63],[-69,140],[-44,195],[-4,-82],[28,-96],[4,-103],[52,-78],[23,-67],[27,-15],[17,-66],[-22,-70],[54,-86],[17,-98],[34,-97],[-3,-40],[33,-156],[12,-227],[-12,-89],[-50,-60],[1,98],[-29,-17],[-3,-115],[-25,11],[-42,73],[19,-151],[-8,-84],[-26,-14],[-12,147],[-17,8],[-34,108],[6,64],[-35,53],[-21,-54],[-19,81],[-68,164],[-16,63],[-60,148],[-2,78],[-69,233],[-3,184],[-36,150],[-47,149],[-27,57],[-76,106],[-77,217],[-121,209],[-78,179],[-67,167],[17,28],[30,131],[25,63],[27,122],[-17,61],[-22,201],[0,108],[21,48],[17,128],[-18,72],[-16,-77],[-2,-89],[-28,-50],[-16,-93],[-1,-84],[-111,-173],[-38,-82],[-101,40],[-59,54],[-26,53],[-130,220],[24,91],[21,13],[8,111],[-4,155],[-44,102],[-6,-121],[23,-69],[-9,-50],[-54,-86],[-39,0],[-40,72],[-116,108],[-38,13],[-29,40],[-45,17],[-59,-5],[-61,-47],[-138,-51],[-76,-101],[-25,52],[-22,112],[-69,174],[-70,19],[-50,76],[-46,15],[35,113],[-49,15],[-2,40],[44,291],[-58,-94],[-18,-67],[-8,-140],[-31,-5],[-80,184],[-24,94],[-28,23],[-51,-27],[-10,94],[33,54],[35,210],[-49,26],[-84,-28],[-25,48],[31,145],[-28,22],[-20,-59],[-55,-63],[-36,1],[-10,59],[15,93],[25,-9],[51,60],[0,66],[-53,-20],[-60,222],[33,295],[108,7],[-16,78],[-89,-14],[-24,-123],[-27,-32],[-25,-149],[-25,-58],[-11,270],[-31,131],[10,-235],[-17,-79],[-47,-114],[-13,-61],[-25,20],[-37,233],[-11,-100],[7,-218],[-38,83],[-10,-157],[-29,31],[-44,-87],[-30,29],[11,218],[44,198],[15,160],[34,146],[37,81],[-44,29],[-58,-280],[-18,-145],[-29,114],[-3,-155],[-16,-65],[-20,-168],[-32,-72],[-50,-7],[21,-81],[-40,-127],[20,-36],[27,135],[30,21],[13,-169],[23,127],[34,0],[12,-39],[4,-144],[-69,-247],[9,-91],[38,110],[6,78],[24,-27],[27,-130],[-13,-73],[21,-47],[-65,-190],[-37,-147],[32,-111],[10,65],[31,-91],[-13,-149],[-24,-160],[-23,34],[-11,95],[1,119],[-16,16],[-11,-120],[-12,-293],[-32,40],[-20,-92],[-36,68],[-32,-62],[-16,90],[-21,-33],[-37,20],[24,153],[-35,-31],[-21,-190],[-17,-20],[-12,305],[-24,71],[-4,-156],[15,-72],[-26,-124],[-23,-58],[-7,-106],[-45,36],[-14,-23],[11,-282],[-34,70],[-13,-136],[-31,-39],[-20,-153],[-22,-32],[-31,-228],[-30,-16],[13,175],[-12,84],[-21,-190],[-30,168],[4,-196],[-22,-55],[-22,15],[-9,-93],[-42,-138],[9,-68],[-14,-64],[-29,114],[-16,-122],[-18,-51],[-39,13],[-36,83],[-39,-92],[-11,-76],[-38,-7],[-2,74],[-29,20],[-32,86],[4,170],[24,30],[-1,118],[63,119],[42,-3],[17,112],[71,127],[-5,61],[52,228],[-20,50],[-70,-196],[-23,-25],[-19,-71],[-42,30],[-45,113],[-19,122],[31,265],[12,187],[28,163],[28,95],[34,199],[4,215],[23,57],[8,299],[-19,74],[-20,253],[39,59],[14,54],[30,7],[28,49],[106,301],[65,135],[15,-26],[15,-111],[26,-123],[48,-33],[21,27],[26,131],[24,2],[57,-63],[37,-63],[73,-29],[21,50],[-29,60],[-46,-35],[-37,108],[-32,5],[-37,63],[-30,131],[-60,122],[11,91],[28,15],[32,206],[26,42],[4,86],[22,16],[68,146],[-6,96],[-67,-57],[-32,-78],[-17,-96],[-18,-26],[-9,-220],[-19,-57],[-62,42],[-73,-28],[-23,95],[-135,-236],[-36,-236],[-40,-29],[-9,-38],[-41,1],[-37,-103],[-42,-155],[-8,-75],[26,-200],[-75,-35],[-29,-134],[-6,-83],[-46,-121],[-18,-121],[7,-107],[18,-47],[-36,-79],[-6,-91],[-61,-156],[-30,39],[-13,-90],[25,-75],[29,-147],[-8,-117],[-23,-102],[-7,-97],[-28,-67],[-63,11],[-45,-58],[57,-81],[-15,-198],[-31,-96],[-51,-65],[-29,181],[-13,-152],[-38,16],[19,-107],[-7,-67],[-38,-5],[-15,-51],[20,-115],[-7,-56],[-49,-34],[-13,-63],[-43,-34],[24,-67],[-26,-54],[-11,-196],[-21,-59],[15,-92],[-8,-112],[23,-58],[15,78],[59,-35],[42,41],[26,-132],[34,-13],[34,-141],[12,-80],[-20,-255],[-14,-77],[-31,-45],[-10,-99],[-50,-56],[-34,6],[-11,-215],[-37,-16],[2,-149],[16,-61],[-29,-49],[-21,16],[-41,-127],[6,-54],[43,-64],[-4,-62],[-30,3],[-16,-76],[-3,-145],[-26,121],[-37,-235],[-43,51],[-4,-73],[-50,17],[-31,-58],[-16,-223],[-54,-99],[-16,-70],[10,-115],[-22,-25],[-51,149],[-16,-35],[-4,-137],[11,-76],[-40,-52],[1,-170],[-36,18],[-20,-36],[-30,58],[5,-249],[-19,8],[-24,84],[-11,-70],[-29,-40],[-38,-151],[-22,-37],[6,-68],[45,66],[11,-59],[-6,-83],[-18,-55],[21,-66],[-12,-83],[-22,-62],[-19,-119],[-18,-7],[5,-120],[-31,46],[-13,63],[-18,-131],[-6,-124],[-23,115],[-18,-99],[-20,-42],[-32,-193],[-23,-30],[-44,168],[-25,-55],[19,-115],[-30,-16],[-14,-112],[22,-64],[-2,-104],[-51,-13],[-18,123],[-53,-70],[-54,-162],[78,24],[3,-129],[-15,-47],[-40,70],[-20,4],[-8,-97],[-15,-11],[-40,51],[-23,-59],[-28,-148],[10,-64],[39,-30],[32,-108],[-26,-61],[14,-83],[-25,-82],[-24,-18],[12,-98],[-6,-162],[-22,6],[-28,68],[3,189],[-27,-66],[11,-167],[-48,-56],[-28,-118],[-44,-8],[-77,-87],[-32,-114],[-26,-206],[5,-113],[-17,-45],[-21,57],[-1,156],[15,122],[-28,90],[-27,10],[-11,-129],[-46,5],[-1,-139],[-31,-26],[4,-76],[-42,-49],[-38,49],[8,-111],[-22,-150],[-20,-91],[-21,190],[-16,-66],[2,-153],[-38,-16],[-8,93],[-33,5],[-14,-128],[-69,-161],[-32,53],[-41,-44],[7,248],[33,191],[-7,69],[-43,3],[-20,-41],[-24,-165],[3,-222],[-48,-254],[-5,-90],[-15,-21],[-8,-203],[-25,-66],[-24,79],[-23,8],[8,-114],[-17,-75],[-14,39],[-31,-6],[-23,60],[8,110],[-13,240],[-42,90],[-16,-136],[21,-56],[16,-106],[-10,-51],[16,-182],[-1,-85],[-31,44],[-10,-86],[-45,-36],[-24,129],[6,46],[-34,156],[-33,-18],[-9,-133],[47,-109],[5,-51],[-46,-143],[-6,-53],[-39,-58],[-8,89],[17,34],[-3,151],[12,22],[2,163],[-10,96],[34,113],[33,39],[58,-4],[21,250],[17,-6],[27,115],[18,-38],[22,79],[-5,203],[36,179],[32,182],[34,91],[27,110],[33,54],[34,138],[65,89],[84,88],[64,-77],[47,106],[-4,-89],[-34,-72],[16,-93],[1,-78],[43,-185],[6,42],[35,-21],[-28,125],[-1,145],[29,-45],[44,13],[31,-156],[17,-3],[8,138],[-35,108],[-16,17],[-14,111],[-16,18],[23,147],[42,419],[34,111],[22,104],[25,40],[68,248],[74,141],[45,132],[30,48],[92,241],[11,-55],[38,-52],[35,32],[-13,257],[9,144],[34,213],[65,313],[34,89],[28,40],[27,107],[16,116],[40,130],[24,44],[16,-145],[21,60],[-9,174],[-27,5],[-2,183],[13,168],[20,591],[10,97],[33,11],[-3,80],[-26,122],[0,225],[23,221],[33,80],[21,132],[50,174],[5,118],[19,98],[-6,90],[12,152],[-12,37],[-19,-177],[-68,-79],[-63,-147],[-43,-50],[-43,-100],[-60,-99],[-38,-19],[-33,91],[-13,170],[-51,99],[15,111],[7,260],[-14,-6],[-23,-157],[-33,-77],[-17,-121],[6,-71],[-26,-146],[31,-357],[15,-26],[-24,-149],[-32,-44],[-44,62],[-78,556],[-44,198],[-38,47],[14,92],[-18,81],[-22,-46],[-23,-135],[5,-70],[-30,-62],[-25,117],[-4,85],[-41,16],[-45,142],[17,44],[-30,166],[-43,-114],[-66,-203],[-21,-102],[-14,57],[-71,-157],[-44,-55],[-19,-92],[-1,-116],[-75,-119],[-16,-75],[-20,-19],[-17,150],[-71,-15],[-11,91],[33,24],[30,-51],[14,73],[24,216],[-8,147],[-2,169],[-25,183],[-28,153],[-21,222],[28,218],[21,32],[21,121],[29,74],[-47,268],[-4,121],[-24,185],[-26,115],[-12,174],[-19,73],[-15,136],[-26,99],[-15,108],[-21,10],[-14,-87],[6,-188],[-18,-92],[-24,-15],[-25,34],[-13,-80],[-89,-169],[-100,-102],[-73,-25],[-72,24],[-48,67],[-24,194],[28,84],[-23,78],[-50,90],[-29,200],[-43,125],[-7,75],[-47,28],[-50,120],[-32,133],[36,90],[8,112],[-25,8],[-37,-90],[-51,27],[-11,85],[34,36],[55,153],[36,136],[-8,116],[37,109],[-26,112],[-55,50],[-10,103],[21,62],[26,-9],[3,82],[-30,47],[-50,196],[-27,-195],[-56,58],[-12,227],[13,85],[-79,105],[-12,174],[42,72],[2,79],[-15,61],[-36,46],[-56,-71],[-11,143],[4,83],[33,4],[78,73],[-64,81],[-26,183],[63,14],[71,58],[-19,79],[-20,174],[-1,102],[28,233],[8,11],[56,260],[63,322],[40,120],[32,-14],[48,121],[-15,109],[-12,265],[23,298],[36,162],[35,39],[-15,143],[48,173],[25,51],[76,37],[88,-123],[38,-123],[19,3],[51,-202],[85,65],[19,89],[35,85],[7,99],[43,37],[23,92],[59,319],[28,85],[-11,103],[65,-52],[21,-122],[53,-17],[33,48],[31,-28],[76,40],[48,60],[9,97],[40,131],[45,219],[10,189],[-36,294],[-16,189],[0,226],[-14,81],[-63,230],[-63,95],[-4,162],[21,49],[49,-66],[58,12],[32,151],[28,68],[3,192],[-28,178],[-88,154],[-43,-156],[-3,-60],[-42,-49],[-35,40],[-62,-45],[-23,-97],[-61,-34],[-19,-118],[-86,-169],[-20,-114],[-5,-165],[-49,-56],[2,89],[-15,184],[-51,165],[-57,123],[-32,-126],[28,-79],[22,-11],[24,-138],[-5,-106],[-18,-18],[-22,134],[-36,90],[-60,89],[-77,19],[-28,-41],[-55,25],[-62,-28],[-123,-200],[-48,-21],[-48,58],[-136,121],[-50,22],[-102,79],[-49,110],[-24,183],[0,116],[20,119],[-38,159],[-41,82],[-14,136],[-33,68],[80,60],[30,101],[-4,89],[36,101],[-48,113],[-47,-13],[-100,109],[-99,32],[-56,99],[-68,163],[-62,70],[-14,136]],[[2795,64613],[35,96],[38,155],[-5,98],[20,46],[9,116],[-7,120],[49,229],[22,-43],[54,24],[-8,103],[-16,14],[12,110],[-6,76],[18,95],[30,107],[64,74],[28,-85],[32,-2],[-4,-86],[-14,-54],[4,-117],[-78,-211],[-42,-65],[-17,-72],[-11,-115],[-24,-170],[-36,-51],[-14,-77],[-36,-58],[-4,-52],[-75,-187],[-18,-18]],[[2614,64918],[4,74],[23,-28],[-9,-94],[-18,48]],[[2608,71841],[56,-24],[24,8],[-22,-141],[-58,157]],[[2545,64631],[7,49],[27,-14],[6,48],[34,30],[20,-40],[0,-93],[-21,-47],[-30,59],[-18,-73],[-25,81]],[[2515,64761],[29,30],[-9,-105],[-20,75]],[[2497,64427],[4,111],[33,-26],[-7,-92],[-30,7]],[[2431,72885],[1,57],[32,52],[48,13],[-12,-121],[-23,-42],[-46,41]],[[2314,64117],[6,140],[18,27],[25,98],[29,-50],[-13,-139],[-21,0],[-31,-111],[-13,35]],[[2182,63966],[18,91],[15,-68],[-13,-80],[-20,57]],[[2034,84941],[5,176],[25,159],[0,230],[28,-27],[-3,-115],[28,-85],[50,-66],[91,-93],[39,-16],[70,180],[29,-2],[20,60],[52,-19],[59,-192],[5,-170],[55,-105],[59,-25],[45,-130],[63,-32],[106,-26],[51,-57],[-7,-136],[-43,-161],[-64,64],[-76,-56],[-44,-143],[-12,-81],[14,-101],[-31,-78],[-29,90],[-23,175],[-58,174],[-68,57],[-21,157],[-60,154],[-82,102],[-66,13],[-51,-79],[2,-41],[-45,-97],[-73,110],[-34,136],[-6,96]],[[1815,63563],[17,148],[27,68],[19,13],[28,-70],[-3,-71],[-44,-98],[-44,10]],[[1695,79253],[25,156],[26,-157],[29,-96],[46,-104],[64,-35],[35,-108],[-69,24],[-27,-35],[-36,85],[-57,220],[-36,50]],[[1419,63295],[43,-36],[85,78],[27,-93],[40,-10],[46,22],[45,-21],[-35,-74],[-91,-28],[-19,-39],[-30,65],[-50,-35],[-28,28],[-14,98],[-19,45]],[[1060,63091],[87,106],[11,-35],[18,66],[50,1],[41,52],[40,149],[17,34],[15,-42],[31,107],[-3,44],[-32,6],[6,180],[50,89],[40,-114],[6,-94],[-21,-166],[-35,13],[11,-116],[17,-60],[-51,-81],[-16,48],[-18,-61],[-11,-98],[-15,68],[-56,-65],[-13,-61],[-44,74],[-21,-16],[-16,-60],[-52,-1],[-36,33]],[[844,62833],[36,45],[7,-125],[-43,80]],[[818,63164],[19,101],[25,-18],[11,-104],[-10,-62],[7,-68],[-44,35],[-8,116]],[[811,62721],[18,97],[10,-47],[30,-22],[-23,-86],[-35,58]],[[600,62340],[7,92],[29,83],[5,162],[14,44],[9,101],[-13,91],[11,67],[29,-24],[31,77],[2,-145],[-21,-91],[22,-64],[25,7],[15,55],[33,-14],[4,-148],[-14,-92],[-44,22],[-26,-101],[-43,-26],[-10,-79],[-21,81],[-19,-80],[-25,-18]],[[402,62488],[18,55],[34,-21],[20,64],[44,45],[22,67],[3,218],[30,-3],[6,-135],[-18,-54],[5,-88],[-9,-150],[-36,-52],[-24,103],[-40,-65],[-55,16]],[[256,62813],[28,79],[42,-3],[42,-167],[11,-68],[-15,-119],[3,-72],[-38,-89],[-33,24],[1,82],[34,35],[0,98],[-28,15],[-11,72],[-31,68],[-5,45]],[[77,62637],[21,94],[17,-100],[-22,-68],[-16,74]],[[99918,63014],[28,65],[22,11],[31,-99],[-11,-121],[-33,-68],[-26,48],[-13,77],[2,87]],[[99679,62355],[78,-43],[48,-221],[32,-68],[11,-95],[43,-17],[-5,-62],[-30,-27],[-12,57],[-44,128],[-30,166],[-30,70],[-39,28],[-22,84]],[[99629,63005],[30,-8],[10,-55],[-24,-87],[-16,150]],[[99283,62849],[24,44],[15,83],[43,58],[2,86],[16,159],[11,29],[20,-86],[-20,-144],[-18,-72],[6,-119],[-42,28],[-17,-51],[-15,-112],[-25,97]],[[98211,63819],[25,95],[23,-10],[27,109],[23,-57],[5,-230],[-21,0],[-17,85],[-35,-31],[-30,39]],[[97962,64814],[46,141],[33,18],[101,-33],[29,-103],[23,-24],[35,-155],[-33,-42],[-20,62],[-18,-116],[-13,-20],[-34,23],[-26,-67],[-26,53],[-13,65],[-3,103],[-31,91],[-36,-38],[-14,42]],[[13275,68640],[46,115],[22,-37],[0,-188],[-25,-40],[-43,150]],[[16479,43977],[34,4],[186,-8],[143,-2],[139,10],[159,2],[167,3]],[[18136,34457],[1,-594],[2,-590],[-1,-354],[-6,-30],[-24,-295],[-22,-19],[-39,247],[-20,-32],[-18,45],[-34,-14],[-35,-109],[9,-110],[-5,-98],[11,-141],[-1,-362],[5,-117],[10,-76],[-2,-149],[-6,-64],[15,-170],[9,-163],[7,-309],[-18,-305]],[[24442,40895],[12,26],[2,230],[-11,58],[16,127],[29,55],[16,-2],[18,61],[9,210],[-1,61],[27,184],[10,32],[6,209],[-2,118],[-12,113],[-14,20],[-20,143],[10,116],[8,207],[21,44],[12,-24],[20,60],[34,-5],[22,23],[17,93],[38,24],[13,80],[20,43],[0,112],[7,167],[11,63],[25,68],[9,197],[-2,104],[6,80],[-7,74],[1,143],[-13,68],[-51,139],[-11,101],[4,84],[-17,117],[-49,180],[3,57]],[[24658,44955],[159,0],[229,-20],[129,-11],[187,8],[88,-7]],[[25450,44925],[-1,-195],[-9,-169],[10,-173],[18,-171],[15,-86],[12,-209],[8,-231],[24,-261]],[[29478,49725],[139,11],[149,-24],[225,18]],[[29991,49730],[-10,-50],[12,-149],[-14,-82],[-10,-155],[-14,-62],[13,-180],[9,-53],[1,-115],[-8,-125],[-38,-180],[-22,-18],[-6,-82],[-16,-39],[-31,2],[-24,-127],[1,-155],[9,-187],[-23,-185],[5,-71],[-25,-193],[1,-98],[-14,-112],[-18,-76],[-9,-203],[-12,-38],[-7,-126],[5,-38],[-9,-249],[5,-95],[-11,-104],[-6,-213],[6,-115],[-9,-64],[6,-81],[-8,-73],[-17,-42],[3,-60],[-9,-125],[5,-92],[22,-148]],[[29724,45372],[-224,36]],[[22823,57329],[156,-1],[252,0],[170,-2],[0,735],[27,-59],[28,32],[29,-88],[8,-57],[14,-331],[7,-40],[18,-411],[-3,-194],[29,-122],[43,-44],[6,30],[42,-22],[6,-87],[111,-44],[14,-218],[42,2],[49,54],[1,88],[33,67],[39,30],[8,-37],[54,1],[71,-161],[26,7],[0,-83],[-22,-69],[16,-50],[42,21],[14,-89],[-4,-94],[28,-251],[25,46],[-6,84],[3,104],[36,39],[22,-18],[23,-62],[-2,-107],[32,-53],[8,-58],[41,-15],[1,-161],[40,-41],[1,-94],[21,46],[17,-37],[16,40],[34,28],[47,184],[54,124],[13,-12],[2,-125],[20,-144],[33,10],[73,-20],[69,35],[31,-51],[8,-108],[27,-77],[45,65],[31,-52],[-47,-195],[-35,-54],[-16,-63],[-59,-102],[-97,-142],[-54,-143],[-37,-129],[-84,-355],[-24,-171],[-64,-304],[-26,-66],[-37,-162],[-21,-118],[-17,-34],[-70,-261],[22,-156]],[[24276,52957],[-21,81],[-16,-63],[-18,-126],[-22,31],[-1,-1128],[-19,-117],[-16,26],[-12,-96],[-16,15],[-9,-62],[-24,-36],[-19,-72],[-22,-249],[-23,-89],[-5,-150],[1,-121],[31,-16],[35,-239],[-1,-82],[-14,-119],[-16,-86],[3,-348],[-13,-55],[8,-97],[4,-174],[-7,-85],[3,-99],[-12,-170],[20,-66],[32,-149],[0,-45],[51,-119],[25,8],[20,-159],[17,-67],[45,-71],[36,-129],[14,-253],[46,-153],[35,-178],[40,-49],[43,-294],[12,-138],[-7,-124],[0,-180],[10,-64],[4,-155]],[[24498,46846],[-205,1],[-167,-1],[-197,-2],[-198,1],[-166,1],[-242,-1],[-151,0],[-133,1]],[[23008,51487],[-3,175],[6,108],[-10,192],[-3,276],[-18,86],[-15,125],[-8,259],[-14,149],[6,217],[-5,18],[4,178],[-3,110],[-12,156],[5,68],[-2,244],[-6,189],[4,64],[-9,205],[4,159],[-2,215],[-46,499],[1,90],[-10,51],[-6,203],[-20,176],[2,318],[-5,141],[8,142],[-8,40],[4,223],[12,158],[-12,107],[-13,299],[-12,102],[1,100]],[[24498,46846],[-4,-77],[10,-123],[-2,-88],[21,-44],[19,-138],[-33,-238],[1,-172],[8,-144],[0,-102],[13,-51],[13,-278],[28,-96],[65,-87],[21,-193],[0,-60]],[[23231,41290],[-7,141],[-15,35],[-13,103],[15,85],[-3,168],[10,38],[-14,215],[0,174],[-6,106],[5,84],[-17,14],[-2,511],[-20,17],[-24,117],[2,94],[-9,211],[13,209],[-26,187],[9,133],[-15,10],[-15,123],[-8,131],[-22,108],[6,120],[-13,155],[-10,50],[-1,140],[8,68],[-18,84]],[[26757,30646],[91,161],[7,-33],[20,76],[40,103],[13,5],[29,97],[6,-65],[26,35],[28,-12],[128,-28],[188,-55],[-4,-122],[4,-79],[30,120],[42,-327],[-4,-221],[83,-5],[175,-23],[55,-1],[88,-494],[30,-183],[105,-601],[91,-529]],[[28028,28465],[-34,-71],[-35,-123],[-40,-219],[-26,-206],[-15,-92],[-17,-201],[-13,-397],[-15,-84],[-23,-75],[-9,-148],[-34,2],[-13,48],[-11,-41],[-13,-116],[10,-88],[-33,-105],[-7,-87],[-43,-105],[-2,-129],[-23,-81],[-9,-66],[-34,-29],[-11,-55],[-21,-37],[-26,-123],[-9,34],[-14,-48],[-8,65],[-12,-83],[16,-136],[-7,-129],[-47,-122],[-6,64],[-18,61],[-16,-72],[22,-80],[4,-58],[-19,-128],[-23,-72],[-5,18],[-19,-152]],[[29991,49730],[33,422],[28,128],[15,-100],[26,-10],[14,116]],[[30107,50286],[15,-1238],[5,-600],[7,-1045],[4,-424],[6,-36],[-10,-261],[6,-134],[14,-45],[10,-91],[18,-66],[-3,-212],[34,-128]],[[30213,46006],[-29,-291],[-2,-66]],[[30182,45649],[-9,-22],[-23,45],[-28,-48],[-9,-101],[-19,29],[-15,-59],[1,-101],[-18,10],[-13,-87],[-192,31],[-133,26]],[[28860,39469],[1,-45]],[[28861,39424],[-1,45]],[[28898,39806],[-12,-39],[-40,-360],[13,-67],[-8,-158],[28,-253],[15,-64],[12,-207],[-5,-98],[5,-181],[15,-73],[11,-203],[31,-203],[30,-66],[5,-212],[5,-400]],[[29003,37222],[-94,2],[-86,15],[-15,1343],[-11,941],[0,122]],[[28426,38143],[22,116],[36,-195],[-36,-193]],[[28448,37871],[2,112],[-24,160]],[[29438,44081],[136,-21],[240,-16],[94,-13],[0,-29]],[[29908,44002],[4,-671],[-3,-457],[-13,-20],[4,-121],[-9,-42]],[[29891,42691],[-5,30],[-28,-12],[-43,-58],[-12,44],[-24,-76],[-35,-40],[-18,33],[-25,-58],[-21,45],[-19,-27],[-21,18],[-33,-46],[-14,37],[-23,-111],[-10,12],[-23,-122],[-20,22],[-127,-323]],[[26541,51564],[22,16],[11,78],[26,57],[-13,88],[26,2],[43,-224],[-16,-127],[-25,51],[-47,-23],[-27,82]],[[26344,51254],[23,-4],[43,-77],[-18,-96],[-23,32],[-25,145]],[[26056,50851],[6,153],[17,133],[10,7],[4,-282],[-19,-67],[-18,56]],[[25934,49970],[24,-2],[-6,-161],[-17,89],[-1,74]],[[25754,52649],[23,-19],[-9,-123],[-14,142]],[[25722,43529],[39,153],[17,98],[38,432],[36,259],[17,198],[11,182],[14,488],[-1,278],[-4,253],[-8,181],[-48,556],[-11,209],[-20,253],[2,115],[19,131],[8,106],[0,102],[-8,220],[-15,166],[28,153],[41,394],[5,263],[8,162],[-11,182],[8,81],[40,69],[6,148],[0,164],[24,0],[14,120],[17,-57],[17,21],[19,201],[35,137],[10,-116],[-20,-175],[13,-69],[-12,-104],[2,-206],[11,-19],[19,205],[3,192],[13,34],[-7,-259],[-16,-72],[-5,-111],[13,-24],[37,350],[9,344],[-7,152],[5,152],[19,90],[28,83],[18,22],[26,-23],[36,61],[-2,54],[-32,25],[-16,89],[-7,167],[12,115],[17,42],[20,110],[5,91],[33,-23],[10,85],[54,-150],[27,-103],[42,15],[32,-57],[24,-139],[2,-70],[17,-69],[42,-6],[28,-124],[30,-44],[36,-96],[10,21],[24,-74],[19,-95],[-6,-84],[25,-190],[0,-140],[-21,46],[-14,-41],[-7,-112],[11,-132],[31,-93],[11,-313],[-11,-226],[2,-101],[-6,-187],[-1,-198],[-9,-15],[-19,-130],[-21,18],[-12,-89],[-5,-233],[-6,-67],[-16,-31],[-32,-129],[-24,7],[-17,-141],[-5,-264],[-8,-31],[12,-158],[16,-59],[34,-56],[14,-63],[16,75],[28,178],[8,-37],[28,232],[3,64],[17,59],[17,174],[51,49],[15,86],[27,42],[32,-68],[22,-89],[22,-225],[12,-168],[4,-334],[17,-328],[4,-394],[11,-234],[20,-240],[-12,-95],[-7,-225],[4,-91],[-16,-296],[-23,-110],[-15,39],[-6,104],[13,100],[-18,27],[-32,-93],[9,-134],[-17,-18],[-9,-72],[2,-131],[-5,-108],[-20,-111],[-29,-44],[-18,-149],[-1,-283],[-17,-24],[-5,-155],[-15,-108],[-16,-12],[-6,-103],[-11,-18],[-16,-108],[-4,-153]],[[26661,43477],[-253,-50],[-124,-20]],[[25043,55174],[23,125],[51,128],[28,51],[97,278],[35,-8],[-41,-147],[-2,-59],[-26,-98],[-51,-88],[-42,-108],[7,-67],[-51,-95],[-28,88]],[[24721,52689],[70,152],[38,53],[30,121],[20,111],[17,44],[32,28],[17,-26],[28,43],[27,4],[52,131],[24,137],[43,24],[11,32],[17,165],[35,107],[30,132],[22,34],[21,95],[21,143],[68,170],[39,35],[67,-6],[24,-63],[-8,-65],[-20,-40],[-40,4],[6,-85],[-33,-84],[-31,-158],[-20,-56],[-17,-167],[-14,-42],[-5,-109],[-22,-94],[-10,-274],[14,-62],[52,259],[17,-47],[32,28],[20,-27],[28,7],[44,-84],[3,-75],[27,-26],[14,-155],[22,-159],[31,-146],[-1,-71],[23,-79],[55,5],[10,40],[28,21],[10,-109],[19,-61],[16,1],[17,79],[33,-129],[24,160],[30,98],[26,59],[59,181],[14,-34],[59,68],[23,-19],[82,-9],[68,147],[27,23],[21,-14],[24,25],[-8,-140],[-3,-221],[-5,-128],[11,-66],[43,-19],[26,-31],[25,65],[13,-6],[10,-132],[15,12],[34,151],[46,0],[8,63],[27,-7],[5,-50],[-10,-163],[11,-338],[-19,9],[-27,-85],[14,-73],[21,31],[33,-85],[-12,-80],[25,-125],[12,6],[4,-120],[-26,-16],[-28,47],[-32,-13],[-17,-44],[-17,7],[-23,94],[-26,-29],[-4,60],[-31,57],[-22,-267],[8,-122],[-14,-11],[-18,48],[-51,263],[-35,76],[-36,32],[-18,52],[-29,23],[-26,-21],[-21,-110],[-17,-129],[-11,-12],[-33,39],[-22,-25],[-9,-66],[-38,61],[-37,-2],[-22,-37],[-14,-72],[0,-97],[-13,-128],[-18,-50],[-27,-29],[-16,-154],[-17,-94],[-17,78],[12,121],[23,111],[17,142],[-16,81],[-22,-118],[-33,50],[-17,-268],[-31,-66],[-9,40],[3,95],[-9,139],[-14,-31],[0,-144],[-12,-96],[-18,-40],[-24,-187],[-21,-262],[-18,-116],[-14,-148],[-27,-186],[-17,-83],[2,-106]],[[25508,49885],[-19,26],[-21,132],[8,168],[16,140],[-12,96],[-17,-77],[-37,26],[21,193],[2,141],[8,122],[-13,115],[3,93],[-19,83],[-60,59],[-11,71],[16,78],[-5,99],[-15,41],[-40,26],[-25,77],[-10,-31],[-26,84],[-29,-60],[-35,75],[-11,-20],[-87,232],[-112,149],[-174,229],[0,43],[-27,272],[-26,71],[-23,-13],[-7,64]],[[30344,42625],[43,25],[17,134],[16,-173],[-15,-77],[-29,8],[-32,83]],[[30176,42742],[19,12],[19,153],[27,93],[11,-26],[5,-101],[11,-30],[16,39],[1,-128],[-68,-18],[-31,-57],[-10,63]],[[30182,45649],[3,-173],[8,-172],[24,-68],[15,66],[9,-106],[-9,-66],[-21,-52],[-42,-53],[4,-97],[-13,-63],[-20,-35],[-20,-272],[22,-104],[12,50],[43,-41],[34,-308],[-1,-81],[-15,-112],[14,-72],[29,-44],[5,-129],[-4,-82],[19,-103],[20,-38],[16,-77],[26,12],[9,67],[54,85],[5,40],[-2,186],[-18,71],[-5,171],[17,-29],[13,-130],[12,-199],[4,-198],[-1,-119],[-73,-59],[-14,-37],[-53,-44],[-16,-102],[-49,-36],[10,221],[-9,128],[-14,-27],[-26,-147],[-34,-22],[-1,-123],[-30,-97],[-22,-1]],[[30097,43028],[-3,310],[-18,29]],[[30076,43367],[-8,67]],[[30068,43434],[-10,80],[-19,54],[-5,81],[2,144],[-12,-10],[1,239],[-117,-20]],[[27118,10724],[26,110],[-9,91],[47,157],[19,37],[5,70],[15,39],[20,-65],[2,-70],[13,-76],[6,-90],[-27,-65],[-4,40],[-27,23],[-2,-55],[-48,-127],[-36,-19]],[[27004,14639],[15,-219],[22,-62],[-2,-58],[-21,81],[-14,258]],[[26168,20503],[30,18],[-7,-105],[-23,87]],[[27221,22467],[5,-18],[-4,-189],[1,-143],[12,-249],[-1,-123],[25,-689],[8,-125],[7,-242],[25,-423],[33,-471],[22,-305],[72,-746],[37,-326],[14,-240],[-18,-99],[-5,-212],[4,-192],[8,-209],[9,-138],[41,-519],[20,-412],[14,-249],[20,-276],[27,-441],[18,-423],[-2,-370],[-7,-323],[-5,-332],[-8,-321],[-4,-367],[1,-161],[-10,-172],[-7,44],[-16,-36],[-18,-296],[-8,-83],[-2,-115],[8,-181],[-17,-95],[-8,-89],[-1,-161],[14,30],[2,131],[26,122],[-41,-442],[-17,45],[5,100],[-6,52],[-33,-3],[-39,-97],[-41,31],[-9,-69],[-51,-45],[-16,79],[-8,124],[5,195],[9,27],[-13,249],[-10,123],[-19,153],[-5,139],[-26,118],[-9,67],[-33,138],[-30,93],[-13,-101],[-32,455],[-8,387],[-10,161],[-28,186],[-12,20],[1,91],[-26,-46],[-12,254],[-11,72],[16,34],[10,-62],[11,281],[0,97],[-10,45],[-8,119],[-18,-57],[7,-128],[3,-125],[-8,-36],[-22,-13],[-25,251],[-29,317],[-21,319],[-39,351],[-13,143],[18,73],[9,114],[9,27],[18,202],[10,34],[24,191],[-7,146],[-21,37],[1,-108],[-13,-42],[0,186],[-5,54],[-34,73],[-13,-132],[23,-60],[14,-163],[-9,-57],[-5,-162],[-28,5],[-14,161],[-11,59],[-6,122],[5,149],[11,80],[4,220],[-5,126],[11,77],[7,184],[17,206],[5,461],[-17,100],[6,118],[-13,68],[3,89],[11,65],[-21,179],[0,105],[-14,35],[4,83],[-9,73],[-46,37],[-16,-84],[-9,151],[3,88],[-24,79],[-15,235],[-18,25],[-7,68],[-25,109],[-3,237],[-24,118],[-14,30],[-13,105],[1,68],[-26,196],[-30,105],[-38,110],[-28,131],[-37,-58],[-22,24],[-27,-92],[-8,-94],[7,-87],[-2,-82],[-22,8],[-8,49],[-23,-36],[-33,-127],[-64,-209],[-9,94],[-17,-118],[-11,-23],[-30,12],[-36,-54],[-17,-2],[3,215],[-17,190],[-12,76],[-28,64],[-25,149],[-29,92],[-21,110],[-48,177],[-39,104],[-49,98],[-28,37],[-73,42],[-31,-6],[-60,-54],[-56,-71],[-45,-12],[-56,-78]],[[29284,41504],[-1,4]],[[28860,39469],[23,160],[5,99],[13,69]],[[29288,41546],[-17,-126],[-16,-19],[1,58],[-13,-52],[-6,-39],[-2,-117],[-11,-31],[-2,-160],[19,-45],[16,27],[25,-69],[20,-25],[-1,-203],[-15,-337],[-9,-274],[-10,-423],[-39,-384],[-14,-88],[-12,-141],[-25,-152],[-36,-106],[-19,-114],[-26,-239],[2,-23],[-22,-194],[-18,-88],[-23,-50],[-11,23],[5,116],[14,164],[5,136],[-39,104],[-39,-19],[-2,66],[-39,138],[-6,66],[-15,26],[-21,153],[-20,41],[1,153],[6,69],[-13,56]],[[20923,57328],[188,-2],[194,1],[130,-1],[303,1],[116,0],[221,0],[150,0],[178,2],[148,0],[272,0]],[[20924,51506],[0,1076],[0,612],[0,977],[1,769],[-1,972],[-1,1416]],[[28739,36274],[-14,0]],[[28725,36274],[1,149],[17,-52],[-4,-97]],[[29003,37222],[-10,-242],[-5,-24],[-26,-411],[-13,-131]],[[28949,36414],[-107,-63],[-6,-52]],[[28836,36299],[-38,11],[-14,-80],[-16,-26],[2,151],[23,125],[-21,35],[11,88],[-12,41],[-22,-20],[5,95],[34,74],[-27,71],[-18,10],[-18,-51],[-19,112],[-14,29],[-5,84],[-19,8],[-23,225],[19,29],[5,51],[-12,86],[3,81],[46,18],[-35,175],[-29,69],[13,151],[27,-48],[-2,268],[-18,-4],[-19,-57],[-6,52],[10,108],[34,-43],[19,250],[-9,14],[-18,-97],[-3,133],[-9,30],[25,330],[21,101],[24,-20],[-2,79],[14,61],[-5,58],[8,174],[-35,-38],[-8,-92],[10,-83],[-30,-148],[-26,-96],[-12,13],[-17,-72],[-12,-160],[-25,-47],[27,-87],[-3,-151],[13,-77],[-23,-59],[7,-77],[-18,-170],[5,-71],[-17,-133],[13,-246],[-1,-166],[6,-88],[31,-183],[-10,-121],[6,-28],[3,-173],[19,-151],[-21,-68],[-12,64],[-12,-39],[-17,71],[-14,116],[-39,61],[-32,19],[-34,163],[-13,198],[-54,-163],[-12,44],[-6,188],[15,140],[25,153]],[[28423,37573],[-1,73],[26,100],[0,125]],[[28426,38143],[-8,57],[-27,35],[0,72],[-27,81],[-34,26],[-18,133],[20,150],[-24,80],[-7,75],[-42,29]],[[28259,38881],[-10,24],[0,170],[-12,126],[-13,18],[-10,123],[-37,78],[-18,123],[-26,51],[-27,-146],[-24,41],[-19,-31],[-13,-205],[-27,5],[-35,50],[-21,80],[-17,3],[-13,-127],[-17,-69],[-6,-88],[-35,60],[-37,-206],[-46,-175],[-12,-83],[-18,-42],[3,982]],[[30827,48092],[14,72],[19,-69],[-16,-75],[-17,72]],[[30763,48223],[19,90],[27,-123],[-21,-91],[-19,-1],[-6,125]],[[30713,47982],[29,39],[10,-72],[-12,-89],[-16,-1],[-11,123]],[[30107,50286],[37,65],[19,-199],[22,163],[-6,152],[13,59],[19,-77],[17,-26],[8,55],[-27,161],[9,136],[12,86],[50,189],[18,26],[-5,144],[21,109],[16,37],[12,137],[-18,40],[-3,104],[8,143],[14,92],[-15,94],[24,266],[42,160],[16,533],[120,820],[95,638],[53,-87],[-5,-69],[3,-252],[38,-116],[53,107],[29,7],[9,81],[29,19],[26,-21],[1,108],[14,33],[30,-30],[75,-283],[18,-164],[27,-80],[1,-889],[1,-614],[1,-641],[-7,-115],[14,-113],[-13,-38],[-1,-240],[20,-25],[35,-111],[50,-43],[1,-148],[-21,-54],[8,-104],[12,-63],[0,-88],[-14,-132],[4,-58],[31,-218],[17,112],[18,-48],[19,-5],[13,-93],[22,-328],[14,-52],[-4,-130],[6,-69],[-46,-218],[-14,-92],[-14,38],[-19,-8],[0,88],[-21,-36],[6,-92],[-12,-88],[-38,61],[-9,-125],[3,-55],[-37,4],[-45,-28],[-7,-127],[-20,-46],[-8,-84],[-36,33],[0,126],[-29,49],[-21,-42],[33,-241],[-14,-105],[-27,-4],[3,-114],[-26,49],[-7,85],[13,257],[-51,-74],[6,-75],[-6,-90],[-19,-41],[-15,20],[-14,69],[-25,-40],[5,118],[-6,160],[-45,-68],[12,-126],[-1,-61],[-29,-221],[-11,-238],[12,-11],[-34,-175],[-8,-84],[-18,4],[-26,96],[-21,-35],[-7,-148],[-11,-115],[-28,39],[-38,-169],[-4,-49],[-22,-50],[-11,116],[-41,-21],[18,153],[-25,-24],[-40,-118],[-18,-168],[13,-117],[3,-112],[-22,-4],[-24,-64],[-7,-63],[7,-109],[-19,-95],[3,-54],[-28,-32],[-12,-64],[-9,-117],[5,-52],[-27,-289],[-9,-20]],[[6432,1540],[3,79],[21,145],[15,18],[27,324],[-19,187],[-3,135],[6,115],[12,20],[30,-90],[39,-192],[10,19],[33,-70],[43,-140],[29,-136],[24,-158],[3,-55],[-3,-193],[25,3],[7,-90],[-2,-86],[23,-144],[25,-79],[-2,-91],[-43,-246],[-27,-73],[-17,-72],[-17,-34],[-28,15],[-15,-94],[-19,-57],[-10,-68],[-14,-27],[-15,-109],[1,-50],[-13,-158],[-16,-88],[-41,167],[-22,45],[-10,155],[8,439],[-5,124],[-12,162],[-7,207],[-24,241]],[[6255,3800],[8,153],[22,66],[8,-33],[22,-220],[27,34],[17,59],[23,-21],[37,-215],[30,-61],[5,-132],[-18,-132],[-26,-66],[-14,20],[-31,-87],[-20,-15],[-19,56],[-6,332],[-12,31],[-9,-39],[-22,63],[-16,102],[-6,105]],[[6254,3060],[6,52],[31,91],[8,-51],[-8,-114],[-31,-25],[-6,47]],[[6154,3773],[20,51],[29,-46],[21,-158],[-6,-104],[-17,-61],[-20,-6],[-12,224],[-15,100]],[[6085,4166],[15,133],[4,76],[14,-28],[90,-80],[35,24],[7,-57],[-25,-146],[-20,-41],[-61,110],[-44,-30],[-15,39]],[[5814,5060],[43,12],[32,223],[12,19],[14,-120],[8,-128],[11,-58],[3,-178],[37,-145],[3,-91],[12,-65],[-40,-79],[-26,94],[-25,18],[-38,-27],[-8,142],[-25,203],[0,104],[-13,76]],[[5394,5923],[16,210],[41,159],[18,-24],[8,35],[41,-40],[13,-122],[-1,-75],[-10,-103],[1,-173],[-32,-175],[-45,60],[-17,102],[-25,50],[-8,96]],[[5266,5575],[16,148],[17,55],[4,76],[17,-3],[-9,-123],[3,-63],[-24,-56],[-12,-164],[-8,22],[-4,108]],[[30097,43028],[-54,-38],[-4,79],[16,201],[21,97]],[[30068,43434],[-8,-95],[-14,-2],[-1,119],[-16,-33],[-12,-79],[1,-141],[-4,-222],[-18,-192],[-37,-17],[-28,-61],[-40,-20]],[[17580,57330],[234,-3],[232,4],[190,-7],[190,2],[180,0],[241,-3],[138,1],[232,3],[326,0],[143,0],[292,0],[170,1],[217,-1],[194,0],[134,-1],[230,2]],[[19530,23654],[-122,3],[-143,-2],[-128,-1],[-171,-1],[-194,424],[-133,285],[-173,365],[-72,147],[-174,374],[-139,295],[-157,325],[6,129],[-5,105],[13,49],[12,145]],[[15775,54200],[3,172],[15,72],[10,-161],[-8,-112],[-20,29]],[[15757,54781],[11,109],[13,-50],[2,-184],[-22,5],[-4,120]],[[15707,55856],[27,242],[2,90],[23,-12],[-4,-72],[26,-91],[-7,-52],[-25,22],[-2,-137],[11,-76],[14,-252],[13,84],[12,-76],[20,-38],[7,-155],[-11,-90],[-15,46],[-10,114],[-17,6],[-16,62],[-4,249],[-18,-4],[-26,140]],[[15658,56333],[7,139],[26,-52],[7,-178],[-14,-20],[-26,111]],[[15635,56623],[31,160],[11,-2],[38,-96],[-40,-141],[-17,17],[-10,85],[-13,-23]],[[15586,56557],[28,52],[30,-166],[-3,-123],[-9,-18],[-26,70],[-11,148],[-9,37]],[[17338,51602],[-156,4],[-181,5],[-240,-1],[-39,-128],[-36,14],[-30,-35],[-72,-31],[-13,-93],[-37,-17],[-46,-44],[-29,-75],[-28,-44],[-11,-69],[-54,-51],[-28,2],[-15,73],[-21,14],[-15,-57],[-47,-85],[-63,-45],[-13,-72],[-15,-7],[-9,124],[-34,64],[-18,-23],[-36,64],[-57,-62],[-21,24],[-15,-25],[-12,-74],[-54,-136],[-23,-11],[-18,-57],[-23,1],[-13,53],[-27,5],[-55,75],[-25,75],[1,147],[-10,144],[3,110],[-8,178],[-18,134],[-7,100],[-59,193],[-14,7],[-32,-84],[-25,3],[-17,67],[1,91],[-15,76],[-19,-19]],[[15490,52104],[-33,15],[-9,72],[-27,-38],[-22,-86],[-9,11],[-21,121],[-26,-63],[5,211],[1,204],[7,5],[4,-224],[17,0],[-11,172],[28,86],[-1,69],[-17,121],[23,223],[-29,-11],[-5,-36],[-27,77],[-4,171],[6,60],[29,104],[32,40],[3,47],[-37,24],[-10,95],[-27,22],[-8,-39],[7,-145],[-13,-34],[-1,316],[-16,370],[-12,36],[-16,188],[-9,338],[-18,313],[-18,145],[-40,163],[-10,161],[-4,221],[-11,117],[20,307],[-20,96],[20,18],[26,-43],[51,-159],[37,-38],[33,-84],[22,-82],[52,-44],[43,25],[33,-62],[12,31],[35,-64],[51,1],[21,91],[28,-87],[7,-69],[34,21],[24,75],[19,15],[19,-75],[7,-163],[-2,-112],[12,-172],[-22,-104],[-39,-65],[-7,-171],[-11,-133],[46,90],[1,96],[18,153],[44,217],[11,-321],[-14,6],[-22,-185],[13,-128],[9,-37],[0,-357],[-10,-110],[7,-63],[-11,-60],[-31,58],[-16,-14],[10,-107],[-14,-102],[-17,145],[-9,-139],[22,-82],[28,-58],[25,150],[17,192],[26,-27],[3,110],[29,55],[-1,74],[-26,359],[22,63],[-24,95],[16,134],[-7,148],[16,76],[9,195],[22,42],[3,94],[-35,147],[-7,72],[0,151],[-17,42],[-14,-92],[10,-109],[-19,6],[-7,95],[2,126],[18,37],[19,-31],[6,73],[-9,66],[-35,93],[-7,97],[-27,-34],[-4,149],[15,67],[22,-105],[19,5],[-10,183],[22,66],[-23,124],[-8,213],[-20,-26],[-27,76],[-5,96],[-17,61],[11,87],[-20,48],[16,89],[184,-1],[97,-9],[174,8],[114,-2],[200,-2],[159,2],[165,0],[178,0],[325,-2]],[[23410,19380],[7,55],[42,195],[20,131],[22,-11],[-91,-370]],[[22776,15144],[3,413],[-2,75],[9,448],[7,84],[9,199],[18,240],[12,43],[19,328],[20,-5],[-14,-119],[-26,-268],[-21,-280],[-12,-201],[-11,-246],[-5,-264],[0,-271],[4,-179],[-10,3]],[[23711,26869],[0,-622],[0,-1322],[19,-148],[21,-52],[7,-139],[14,-89],[-4,-50],[12,-89],[-9,-67],[-3,-129],[16,-141],[10,3],[21,-263],[-5,-150],[12,-73],[15,-202],[11,40],[9,-238],[-6,-102],[2,-160],[-12,-76],[6,-98],[-15,-163],[-3,-102],[-18,-102],[-14,-208],[10,-179],[-13,-78],[-5,-100],[16,-103],[-4,-155],[6,-109],[-12,-243],[-13,-64],[-19,-241],[-19,-86],[24,-245]],[[23768,20524],[-46,-17],[-26,-40],[-110,-285],[-39,-113],[19,151],[5,78],[-61,-91],[17,220],[2,228],[-10,58],[-23,-59],[-16,-167],[-14,-27],[-6,78],[-20,-125],[9,-59],[-10,-88],[19,-167],[16,-64],[7,-127],[-29,-160],[-17,-137],[-18,-65],[-15,4],[-4,-111],[12,-96],[-36,-175],[-37,-208],[-22,-40],[-86,-309],[-33,-106],[-54,-145],[-52,-178],[-33,-152],[-15,-123],[-33,-102],[-53,-234],[-28,-150],[-30,-203],[-2,117],[12,135],[14,86],[18,-19],[3,119],[23,14],[15,63],[16,127],[46,96],[-4,144],[-36,-129],[-12,-66],[-16,-4],[-6,172],[-23,-4],[-6,-214],[7,-89],[-17,-121],[-24,-107],[-14,2],[-14,122],[-32,-91],[-21,-122],[23,-96],[11,98],[18,-4],[-2,-92],[-41,-390],[-9,2],[-8,99],[-24,14],[-32,-24],[-3,-91],[21,32],[-2,-109],[14,-112],[25,-62],[-19,-233],[-12,-240],[-1,-63],[-13,-169],[-19,-45],[-4,141],[-30,-162],[-7,-85],[28,-25],[30,54],[-6,-515],[-4,-267],[-5,-78],[3,-214],[13,-302],[11,-105],[23,-352],[-5,-137],[10,-252],[20,-23],[15,-78],[2,-163],[-22,11],[-39,-108],[-2,-119],[-19,15],[-5,69],[-17,4],[-7,89],[-10,11],[-18,130],[-16,46],[-21,-3],[-6,57],[-24,14],[-43,-48],[-18,50],[-40,8],[-6,81],[-14,7],[-5,63],[-13,10],[-22,132],[-10,-30],[-24,91],[-19,-41],[-28,181],[-20,72],[-20,-30],[-32,75],[-19,8],[-8,56],[5,97],[-10,92],[-11,21],[-3,161],[-6,68],[-3,130],[-8,41],[-8,185],[-17,70],[-2,82],[-11,97],[-20,94],[6,292],[-4,140],[-16,42],[-2,130],[7,264],[-13,39],[4,125],[-8,79],[-17,69],[-33,46],[-14,125],[-30,131],[-4,176],[-13,116],[-14,74],[-8,137],[-10,38],[-8,114],[-36,100],[-23,167],[2,62],[-17,163],[3,53],[-21,232],[4,67],[-13,102],[-15,36],[-2,155],[-11,162],[-29,221],[1,85],[-8,216],[-17,75],[-17,206],[-23,64],[-2,52],[-33,108],[-15,179],[-26,35],[-6,72],[-24,42],[5,55],[-19,38],[3,105],[-20,75],[-11,173],[-11,-33],[-33,86],[-22,-84],[-18,16],[-25,77],[-23,-19],[-27,42],[-26,-54],[-24,52],[-39,121],[-11,-16],[-19,-199],[-22,41],[-17,-80],[-7,23],[-33,-67],[-3,-95],[-11,-74],[1,-64],[-19,-146],[-7,-149],[-2,-163],[-11,-8],[-8,-177],[8,-90],[-33,-74],[-11,-147],[-12,-22],[-5,-114],[-16,-106],[-72,126],[-38,226],[-12,-12],[-35,60],[-18,160],[-38,37],[-28,51],[-25,119],[-16,43],[-12,161],[-14,62],[-22,12],[-17,100],[-32,130],[-10,191],[-17,200],[-17,123],[-9,268],[6,60],[-1,183],[-20,233],[-14,118],[-14,53],[-3,230],[-8,113],[-20,76],[-10,145],[-11,-11],[-20,132],[-12,7],[-16,100],[-11,-21],[-9,60],[-29,43],[-5,97],[-40,170],[-14,183],[-12,59],[-34,97],[-27,233],[-18,46],[-6,98],[-14,53],[-19,10],[-41,160],[-7,109],[-10,45],[-7,128],[-21,195],[-19,62],[-11,-30],[-11,66]],[[26661,43477],[-7,-66],[35,-21],[5,35],[35,-134],[38,-66],[29,-146],[23,-4],[15,124],[30,-143],[-65,-45],[-12,-97],[21,-36],[32,98],[13,-46],[23,60],[23,-110],[33,-73],[33,87],[30,14],[22,71],[46,84],[41,-63],[33,9],[41,140],[31,137],[27,142],[29,100],[17,17],[62,161],[28,30],[107,207]],[[27479,41392],[-16,-47],[-14,11],[-12,-88],[19,-174],[-3,-85],[3,-229],[-6,-107],[-11,-61],[-12,-143],[-10,-350],[-18,-100],[3,-104],[-20,-211],[1,-114],[-5,-139],[-15,-11],[-25,-119],[-31,-204],[-14,-28],[-11,-85],[-13,0],[-21,-77],[-30,121],[-29,-134],[-3,-136],[-30,12],[-4,-87],[-18,-97],[1,-167],[-16,-57],[13,-85],[-5,-96],[-18,-69],[-12,-103],[-10,51],[7,69],[-9,96],[-29,69],[-15,-92],[-15,-148],[0,-110],[-20,-85],[9,-166],[3,-158],[-5,-59],[-28,-30],[-9,-248],[-23,-18],[-34,-66],[-18,32]],[[25685,50375],[4,121],[28,-33],[-7,-119],[-25,31]],[[24617,53107],[16,29],[32,141],[13,-47],[-29,-57],[-27,-127],[-5,61]],[[24276,52957],[20,-51],[42,28],[61,120],[17,0],[39,67],[9,48],[68,83],[36,157],[29,36],[20,-55],[1,-175],[-27,-163],[9,-108],[-18,-77],[-10,-111],[12,-36],[55,160],[48,-162],[34,-29]],[[25508,49885],[-9,-95],[-1,-111],[-51,-62],[-6,-112],[-42,-331],[-14,-310],[29,-44],[20,159],[26,43],[12,157],[31,217],[51,84],[29,297],[17,92],[7,156],[25,45],[11,124],[31,79],[3,-157],[-14,30],[-6,-204],[-18,-110],[-5,-104],[-14,-83],[4,-78],[-8,-100],[-16,-47],[-16,-119],[-7,-132],[-14,-150],[-12,-67],[-13,-179],[-9,-259],[-8,-103],[10,-175],[-3,-95],[-36,-145],[-24,-425],[3,-134],[8,-90],[-2,-144],[-24,-238],[-4,-190],[-18,-145],[-12,-260],[9,-153],[-6,-71],[10,-119],[-9,-86],[13,-105],[2,-185],[5,-74],[19,-100],[-17,-280],[5,-272]],[[15305,43983],[-24,102],[-16,126],[-1,120],[-14,133],[-7,356],[13,262],[-7,158],[-17,143],[-11,25],[-12,168],[21,224],[10,153],[18,454],[-6,68],[14,70],[19,179],[15,240],[17,470],[13,566],[4,304],[7,315],[0,134],[7,301],[-4,265],[11,196],[7,221],[-1,115],[10,131],[3,327],[-4,58],[5,158],[-3,70],[7,149],[1,346],[-7,101],[0,244],[-7,73],[16,59],[1,180],[-11,185],[0,84],[33,-106],[27,106],[11,-45],[27,50],[20,83]],[[25284,21818],[-30,-94],[-6,43],[-39,37],[-23,-27],[-17,89],[-31,-1],[-44,-46],[-54,-123],[1,67],[-13,68],[-10,-10],[6,-130],[-24,-86],[-1,-54],[-22,-90],[-8,13]],[[24969,21474],[-12,-16],[-13,90],[-9,121],[5,92],[-15,127],[0,87],[-23,121],[-15,170],[-7,125],[4,180],[13,120],[3,132],[13,184],[-7,17],[-175,-4],[-191,-2],[-156,0],[17,76],[-1,60],[-16,89],[10,146],[-15,78],[2,63],[33,15],[1,181],[12,49],[-11,92],[-1,165],[18,17],[-10,88],[-3,113],[21,-64],[7,62],[0,128],[9,70],[5,181],[22,37],[19,89],[3,99],[31,106],[-6,60],[17,95],[-3,113],[-17,-62],[-15,15],[0,122],[36,85],[14,-58],[2,163],[17,14],[1,68],[-26,55],[11,125],[-18,-1],[-18,48],[-6,79],[6,94],[17,58],[-4,52],[-19,-42],[-10,106],[25,119],[1,47],[-29,45],[5,175],[21,87],[-5,167],[-13,6],[1,-94],[-8,-58],[-15,43],[13,156]],[[28814,32428],[10,2],[17,-103],[4,-128],[-15,15],[2,74],[-18,140]],[[28812,31026],[43,119],[6,-54],[-49,-65]],[[28646,30354],[28,148],[39,228],[4,-11],[-47,-251],[-24,-114]],[[27156,33671],[234,-55],[37,6],[114,-35],[219,-6],[150,2],[128,-2],[212,9],[233,-3],[30,13],[171,-1],[91,0]],[[28775,33599],[13,-367],[13,-245],[15,-220],[42,-477],[-15,55],[-6,137],[-26,146],[-2,197],[-8,140],[-11,60],[-9,326],[-12,41],[-3,77],[-40,54],[8,-120],[12,-20],[13,-132],[23,-363],[-6,-34],[-15,150],[-12,-75],[-16,-24],[-10,93],[-33,128],[15,-169],[10,-27],[3,-113],[-27,-31],[-13,-53],[-30,74],[-14,-32],[-25,-179],[-14,-33],[-19,7],[-10,84],[-17,-21],[-1,-103],[5,-109],[30,15],[43,80],[8,-91],[25,63],[31,52],[30,-8],[11,-39],[3,-92],[-14,-130],[4,-89],[-3,-172],[12,-120],[10,227],[-1,222],[32,170],[17,-36],[17,-144],[4,-89],[2,-234],[-15,-58],[13,-103],[-22,-89],[-30,-42],[-27,-228],[-15,-61],[-6,-77],[-23,-43],[-26,-13],[-40,12],[-7,100],[-20,-2],[-16,99],[8,152],[-17,20],[-11,-51],[17,-239],[-37,78],[-38,-9],[13,-63],[22,-30],[19,-67],[10,5],[33,-70],[4,-107],[-24,-288],[-40,-179],[-30,-64],[-37,164],[-7,-91],[12,-69],[25,-70],[24,-39],[36,139],[37,37],[17,95],[4,-205],[28,47],[-12,117],[32,-69],[-8,-113],[-19,-129],[-29,-125],[-6,-73],[-43,-96],[-60,19],[-14,-7],[-56,-100],[-6,26],[-35,-159],[-18,-111],[-52,-169],[-25,-106],[-30,-153],[-24,-166],[-15,-134],[-13,-168],[-21,-342],[-18,-13],[-29,41],[-36,9],[-36,-22],[-47,-89]],[[28949,36414],[-29,-259],[-17,15],[-23,-127],[-28,-269],[-7,-157],[4,-72],[-17,-154],[-4,-112],[-23,-224],[-9,-61],[-8,-170],[-22,-142],[-20,-2],[-15,267],[3,145],[13,126],[-5,31],[12,282],[9,112],[16,119],[6,95],[24,97],[18,195],[-18,46],[27,104]],[[28739,36274],[-14,0]],[[27075,35482],[7,-56],[-15,-61],[13,-59],[9,-184],[18,-117],[25,-23],[7,-72],[17,-70],[32,10],[35,129],[21,121],[38,-196],[31,83],[37,45],[9,-12],[28,97],[-10,71],[8,82],[20,-62],[22,0],[42,151],[12,15],[10,-112],[49,163],[-8,107],[19,59],[-10,184],[37,349],[45,224],[21,218],[-5,47],[27,207],[16,63],[-6,61],[19,93],[15,147],[-3,84],[14,222],[31,-78],[17,-178],[46,-87],[9,24],[19,131],[22,305],[11,12],[6,168],[22,195],[34,-166],[23,233],[14,81],[16,-4],[9,81],[13,-6],[8,128],[47,258],[-10,59],[6,113],[22,183],[-2,214],[144,-636],[23,310],[8,51]],[[28423,37573],[-20,-34],[-30,-230],[-5,-101],[13,-199],[11,-16],[62,97],[-3,-134],[19,-105],[0,-81],[34,-96],[22,6],[41,-34],[3,-74],[19,-70],[16,-155],[37,-85],[30,-109],[-8,-139],[-12,9],[1,-250],[-14,-134],[-50,77],[-2,90],[-12,121],[-33,97],[7,-127],[16,-21],[8,-151],[18,-104],[26,3],[1,-48],[27,-33],[-7,-108],[24,-52],[7,-205],[-17,-94],[-30,152],[-8,-81],[23,-187],[-41,-55],[30,-63],[5,-97],[20,-35],[11,-95],[-8,-150],[-11,12],[-20,-99],[-15,123],[-45,190],[6,62],[-7,89],[-17,32],[-18,-61],[11,-83],[15,50],[-2,-218],[23,-59],[28,-138],[2,-80],[46,-50],[-4,103],[9,51],[21,-56],[37,-61],[26,28],[13,-307],[16,-249],[7,-153]],[[25020,21227],[11,62],[21,53],[2,-92],[11,-74],[-35,14],[-10,37]],[[24271,20309],[14,70],[22,44],[33,-83],[20,-73],[-15,-59],[0,-65],[-22,-21],[-9,46],[-32,90],[-11,51]],[[24969,21474],[-17,-73],[-10,13],[-27,-170],[-27,-43],[-12,-81],[12,-133],[20,23],[0,-72],[11,-63],[20,-22],[11,31],[7,157],[-3,55],[25,89],[17,-7],[2,-134],[12,-41],[3,-95],[14,56],[12,131],[14,-44],[-5,-68],[-20,-55],[0,-95],[-19,-24],[-3,-95],[-10,-94],[2,-82],[-27,8],[-13,-81],[-30,-63],[-1,-169],[10,-65],[19,-54],[10,-64],[0,-105],[19,28],[24,-25],[12,-63],[21,-10],[8,-87],[10,76],[24,-174],[-2,-97],[29,-49],[-14,-163],[-22,-38],[-3,-94],[-17,2],[-1,80],[-27,-13],[12,221],[-12,53],[-9,-137],[-14,-11],[-23,174],[-34,73],[-9,71],[-42,72],[6,116],[-34,106],[-22,35],[-9,-114],[1,-63],[-31,-201],[17,-144],[-49,-195],[-24,350],[-25,75],[-11,75],[-11,-109],[-15,21],[-16,-61],[-17,-190],[-56,-185],[-13,130],[-17,83],[-29,-4],[-19,70],[-23,12],[-21,54],[-2,103],[16,88],[20,-194],[11,-11],[-1,177],[-25,107],[0,75],[-13,75],[-20,28],[-4,44],[-20,9],[-7,52],[-19,-30],[-10,202],[-20,-14],[0,215],[-41,8],[-22,-71],[-1,136],[7,95],[-14,11],[-43,-102],[-22,-80],[-5,50],[-19,-77],[18,-120],[9,-97],[-42,-136],[-19,-17],[-92,119],[-25,54],[-62,179],[-59,104],[-20,14],[-27,-29],[-35,12],[-75,-64],[-27,-86]]],"transform":{"scale":[0.003589242222422224,0.0005246538765387654],"translate":[-179.146711,18.92245]},"objects":{"in":{"type":"GeometryCollection","geometries":[{"arcs":[[0,1,2,3,4]],"type":"Polygon","properties":{"geoid":"35","name":"New Mexico"},"id":"35"},{"arcs":[[5,6,7,8,9,10]],"type":"Polygon","properties":{"geoid":"46","name":"South Dakota"},"id":"46"},{"arcs":[[[11]],[[12]],[[13]],[[14]],[[15]],[[16]],[[17,18,19,20]]],"type":"MultiPolygon","properties":{"geoid":"06","name":"California"},"id":"06"},{"arcs":[[[21,22,23,24,25,26,27]],[[28,29]]],"type":"MultiPolygon","properties":{"geoid":"21","name":"Kentucky"},"id":"21"},{"arcs":[[30,31,32,33,34]],"type":"Polygon","properties":{"geoid":"01","name":"Alabama"},"id":"01"},{"arcs":[[35,36,37,38,39,-32]],"type":"Polygon","properties":{"geoid":"13","name":"Georgia"},"id":"13"},{"arcs":[[40,41,42,43,44,45]],"type":"Polygon","properties":{"geoid":"05","name":"Arkansas"},"id":"05"},{"arcs":[[46,47,48,49,50,51,52,53]],"type":"Polygon","properties":{"geoid":"42","name":"Pennsylvania"},"id":"42"},{"arcs":[[54,55,-28,56,-30,57,-41,58,59,60]],"type":"Polygon","properties":{"geoid":"29","name":"Missouri"},"id":"29"},{"arcs":[[61,62,63,64,-1,65]],"type":"Polygon","properties":{"geoid":"08","name":"Colorado"},"id":"08"},{"arcs":[[66,67,-66,68,69]],"type":"Polygon","properties":{"geoid":"49","name":"Utah"},"id":"49"},{"arcs":[[-65,70,-59,-46,71,-2]],"type":"Polygon","properties":{"geoid":"40","name":"Oklahoma"},"id":"40"},{"arcs":[[-58,-29,-57,-27,72,73,-36,-31,74,-42]],"type":"Polygon","properties":{"geoid":"47","name":"Tennessee"},"id":"47"},{"arcs":[[-11,75,-62,-68,76,77]],"type":"Polygon","properties":{"geoid":"56","name":"Wyoming"},"id":"56"},{"arcs":[[[80]],[[81,82,83,84,85,86,-48]]],"type":"MultiPolygon","properties":{"geoid":"36","name":"New York"},"id":"36"},{"arcs":[[87,88,89,-23,90]],"type":"Polygon","properties":{"geoid":"18","name":"Indiana"},"id":"18"},{"arcs":[[91,-60,-71,-64]],"type":"Polygon","properties":{"geoid":"20","name":"Kansas"},"id":"20"},{"arcs":[[92,93,94,-77,-67,95,96]],"type":"Polygon","properties":{"geoid":"16","name":"Idaho"},"id":"16"},{"arcs":[[[97]],[[98]],[[99]],[[100]],[[101]],[[102]],[[103]],[[104]],[[105]],[[106]],[[107]],[[108]],[[109]],[[110]],[[111]],[[112]],[[113]],[[114]],[[115]],[[116]],[[117]],[[118]],[[119]],[[120]],[[121]],[[122]],[[123]],[[124]],[[125]],[[126]],[[127]],[[128]],[[129]],[[130]],[[131]],[[132]],[[133]],[[134]],[[135]],[[136]],[[137]],[[138]],[[139]],[[140]],[[141]],[[142]],[[143]],[[144]],[[145]],[[146]],[[147]],[[148]],[[149]],[[150]],[[151]],[[152]],[[153]],[[154]],[[155]],[[156]],[[157]],[[158]],[[159]],[[160]],[[161]],[[162]],[[163]],[[164]],[[165]],[[166]],[[167]],[[168]],[[169]],[[170]],[[171]],[[172]],[[173]],[[174]],[[175]],[[176]],[[177]],[[178]],[[179]],[[180]],[[181]],[[182]],[[183]],[[184]],[[185]],[[186]]],"type":"MultiPolygon","properties":{"geoid":"02","name":"Alaska"},"id":"02"},{"arcs":[[187,-96,-70,188,-19]],"type":"Polygon","properties":{"geoid":"32","name":"Nevada"},"id":"32"},{"arcs":[[189,190,191,-91,-22,-56]],"type":"Polygon","properties":{"geoid":"17","name":"Illinois"},"id":"17"},{"arcs":[[192,193,194,-83]],"type":"Polygon","properties":{"geoid":"50","name":"Vermont"},"id":"50"},{"arcs":[[195,196,197,-8,198]],"type":"Polygon","properties":{"geoid":"27","name":"Minnesota"},"id":"27"},{"arcs":[[-198,199,-190,-55,200,-9]],"type":"Polygon","properties":{"geoid":"19","name":"Iowa"},"id":"19"},{"arcs":[[201,202,-38]],"type":"Polygon","properties":{"geoid":"45","name":"South Carolina"},"id":"45"},{"arcs":[[203,204,205,206,-194]],"type":"Polygon","properties":{"geoid":"33","name":"New Hampshire"},"id":"33"},{"arcs":[[-51,209,210]],"type":"Polygon","properties":{"geoid":"10","name":"Delaware"},"id":"10"},{"arcs":[[211,212]],"type":"Polygon","properties":{"geoid":"11","name":"District of Columbia"},"id":"11"},{"arcs":[[213,214,215,-85]],"type":"Polygon","properties":{"geoid":"09","name":"Connecticut"},"id":"09"},{"arcs":[[[216]],[[217]],[[218]],[[219]],[[220]],[[221,222,-89]],[[223]],[[224,225]]],"type":"MultiPolygon","properties":{"geoid":"26","name":"Michigan"},"id":"26"},{"arcs":[[[226]],[[227]],[[-195,-207,228,229,230,231,-214,-84]]],"type":"MultiPolygon","properties":{"geoid":"25","name":"Massachusetts"},"id":"25"},{"arcs":[[[232]],[[233]],[[234]],[[-40,235,-33]]],"type":"MultiPolygon","properties":{"geoid":"12","name":"Florida"},"id":"12"},{"arcs":[[237,-49,-87,238,-208]],"type":"Polygon","properties":{"geoid":"34","name":"New Jersey"},"id":"34"},{"arcs":[[239,-199,-7,240]],"type":"Polygon","properties":{"geoid":"38","name":"North Dakota"},"id":"38"},{"arcs":[[[241,242]],[[-52,-211,243,244,245,246,-212,247,248]]],"type":"MultiPolygon","properties":{"geoid":"24","name":"Maryland"},"id":"24"},{"arcs":[[[249]],[[250]],[[251]],[[-205,252]]],"type":"MultiPolygon","properties":{"geoid":"23","name":"Maine"},"id":"23"},{"arcs":[[[253]],[[254]],[[255]],[[256]],[[257]],[[258]],[[259]],[[260]]],"type":"MultiPolygon","properties":{"geoid":"15","name":"Hawaii"},"id":"15"},{"arcs":[[[-230,261]],[[-215,-232,262]]],"type":"MultiPolygon","properties":{"geoid":"44","name":"Rhode Island"},"id":"44"},{"arcs":[[263,-241,-6,-78,-95]],"type":"Polygon","properties":{"geoid":"30","name":"Montana"},"id":"30"},{"arcs":[[-20,-189,-69,-5,264]],"type":"Polygon","properties":{"geoid":"04","name":"Arizona"},"id":"04"},{"arcs":[[-10,-201,-61,-92,-63,-76]],"type":"Polygon","properties":{"geoid":"31","name":"Nebraska"},"id":"31"},{"arcs":[[[265]],[[266]],[[267]],[[268]],[[269]],[[270]],[[-93,271,272]]],"type":"MultiPolygon","properties":{"geoid":"53","name":"Washington"},"id":"53"},{"arcs":[[[273]],[[274]],[[-72,-45,275,276,-3]]],"type":"MultiPolygon","properties":{"geoid":"48","name":"Texas"},"id":"48"},{"arcs":[[-223,277,-54,278,-24,-90]],"type":"Polygon","properties":{"geoid":"39","name":"Ohio"},"id":"39"},{"arcs":[[[279]],[[280]],[[281,-226,282,-191,-200,-197]]],"type":"MultiPolygon","properties":{"geoid":"55","name":"Wisconsin"},"id":"55"},{"arcs":[[-272,-97,-188,-18,283]],"type":"Polygon","properties":{"geoid":"41","name":"Oregon"},"id":"41"},{"arcs":[[-43,-75,-35,284,285]],"type":"Polygon","properties":{"geoid":"28","name":"Mississippi"},"id":"28"},{"arcs":[[[286]],[[287]],[[288]],[[289,290,-202,-37,-74]]],"type":"MultiPolygon","properties":{"geoid":"37","name":"North Carolina"},"id":"37"},{"arcs":[[[-245,291]],[[293,-248,-213,-247,294,-290,-73,-26]]],"type":"MultiPolygon","properties":{"geoid":"51","name":"Virginia"},"id":"51"},{"arcs":[[-279,-53,-249,-294,-25]],"type":"Polygon","properties":{"geoid":"54","name":"West Virginia"},"id":"54"},{"arcs":[[[295]],[[296]],[[-44,-286,297,-276]]],"type":"MultiPolygon","properties":{"geoid":"22","name":"Louisiana"},"id":"22"}]}}}