{"type":"Topology","arcs":[[[77388,8673],[6621,-438],[264,7]],[[84273,8242],[-568,-6567],[-6909,447]],[[76796,2122],[592,6551]],[[59130,94490],[56,5374]],[[59186,99864],[3801,-88],[63,-3204],[-1155,22],[53,-2161]],[[61948,94433],[-2819,2]],[[59129,94435],[1,55]],[[61106,61784],[5896,-354]],[[67002,61430],[-356,-5510]],[[66646,55920],[-5878,355]],[[60768,56275],[338,5509]],[[6924,41128],[364,1273],[1514,5594],[-382,20],[297,2755]],[[8717,50770],[1385,171]],[[10102,50941],[2503,-2532]],[[12605,48409],[-291,-3213],[-309,-4271]],[[12005,40925],[-1906,852],[-3175,-649]],[[50557,27752],[1,18]],[[50558,27770],[7066,-529]],[[57624,27241],[-515,-6431]],[[57109,20810],[-6840,501]],[[50269,21311],[-198,12]],[[50071,21323],[486,6429]],[[56150,78485],[6001,-309]],[[62151,78176],[-349,-5370],[-6042,335]],[[55760,73141],[390,5344]],[[38210,69429],[28,537]],[[38238,69966],[79,1396]],[[38317,71362],[158,2723]],[[38475,74085],[5950,-314]],[[44425,73771],[-366,-5412]],[[44059,68359],[0,-2]],[[44059,68357],[-5166,238]],[[38893,68595],[-693,651]],[[38200,69246],[10,183]],[[8170,84576],[6234,85],[767,13]],[[15171,84674],[575,-4223]],[[15746,80451],[-8066,-867]],[[7680,79584],[490,4992]],[[57109,20810],[-449,-5450]],[[56660,15360],[-77,-1082]],[[56583,14278],[-6840,521]],[[49743,14799],[526,6512]],[[72272,32953],[216,2258]],[[72488,35211],[4654,-308]],[[77142,34903],[-40,-1078],[-430,-5470]],[[76672,28355],[-4754,328]],[[71918,28683],[354,4270]],[[25136,33146],[8,235]],[[25144,33381],[5552,-299]],[[30696,33082],[-993,-410],[-13,-458],[783,-714],[882,-36],[-165,-1242],[-619,-978],[850,-489],[543,-49],[287,-463],[-400,-796]],[[31851,27447],[-2644,-29],[792,-1677]],[[29999,25741],[-5311,307]],[[24688,26048],[448,7098]],[[56583,14278],[-565,-6373]],[[56018,7905],[-569,-21],[-6200,395]],[[49249,8279],[494,6520]],[[38509,46065],[-12,1]],[[38497,46066],[12,-1]],[[37846,40183],[-383,95]],[[37463,40278],[383,-95]],[[36985,40416],[-204,36]],[[36781,40452],[-23,749],[732,492],[-415,868],[498,439],[1090,167],[429,-1053],[-1319,146],[78,-326],[1134,-15],[91,-827],[-584,-823],[-662,333],[-151,747],[-545,-112],[-149,-821]],[[35087,40772],[-207,42]],[[34880,40814],[207,-42]],[[34242,44868],[590,380],[1078,-454],[-1585,-101],[-83,175]],[[34504,46749],[152,62]],[[34656,46811],[374,-749],[-461,-75],[-65,762]],[[33632,41005],[385,-31]],[[34017,40974],[-204,9]],[[33813,40983],[-46,3]],[[33767,40986],[-135,19]],[[33609,41007],[-61,7]],[[33548,41014],[61,-7]],[[33289,41044],[-96,2]],[[33193,41046],[96,-2]],[[32774,45109],[515,-504],[-38,-1580],[-440,-240]],[[32811,42785],[-37,2324]],[[32461,46096],[365,69]],[[32826,46165],[-358,-78]],[[32468,46087],[-7,9]],[[52438,40674],[286,-17]],[[52724,40657],[-204,-2277]],[[52520,38380],[-532,358],[65,890],[390,249],[-5,797]],[[51030,39035],[-136,730],[601,-40],[-36,-546],[-429,-144]],[[48040,40927],[90,1]],[[48130,40928],[-90,-1]],[[48438,40930],[770,-54]],[[49208,40876],[-77,-995],[-661,-864],[-452,426],[-1721,981],[1105,162],[1036,344]],[[44072,34140],[-35,-388]],[[44037,33752],[35,388]],[[44032,33695],[64,741]],[[44096,34436],[9,257]],[[44105,34693],[35,758]],[[44140,35451],[219,3198]],[[44359,38649],[1065,-390],[845,-43],[54,743],[1545,-107],[864,-320],[1489,169],[-46,-1652],[1654,62],[649,315]],[[52478,37426],[-250,-3271]],[[52228,34155],[-1168,97],[-169,-2167]],[[50891,32085],[-6965,445]],[[43926,32530],[106,1165]],[[83706,49143],[5828,-233]],[[89534,48910],[-5,-117],[-245,-5223],[-2020,69]],[[87264,43639],[-3855,178]],[[83409,43817],[297,5326]],[[55055,62114],[6051,-330]],[[60768,56275],[-6045,303]],[[54723,56578],[332,5536]],[[56660,15360],[6763,-376]],[[63423,14984],[-57,-1075]],[[63366,13909],[-187,-3819],[-195,-2655]],[[62984,7435],[-1639,72],[-5320,344]],[[56025,7851],[-7,54]],[[80034,41242],[7078,-402]],[[87112,40840],[-419,-6569]],[[86693,34271],[-7159,476]],[[79534,34747],[500,6495]],[[91365,20904],[227,3235],[1151,-59]],[[92743,24080],[3472,-138],[-190,-3281]],[[96025,20661],[-66,-987],[-3498,54]],[[92461,19728],[-1141,61],[45,1115]],[[29665,58357],[1410,240],[170,485]],[[31245,59082],[715,-409]],[[31960,58673],[40,-127]],[[32000,58546],[145,92]],[[32145,58638],[431,-691]],[[32576,57947],[165,-309]],[[32741,57638],[-3072,215]],[[29669,57853],[-4,504]],[[24787,75502],[57,4626]],[[24844,80128],[3493,-255]],[[28337,79873],[-4,-1124],[-311,-422],[94,-1724],[211,-500],[321,-1615],[365,-1034],[-12,-627]],[[29001,72827],[-4218,326]],[[24783,73153],[4,2349]],[[52535,99981],[51,0],[224,-1]],[[52810,99980],[-41,-357],[-238,0],[4,358]],[[51728,83883],[39,758],[1328,158]],[[53095,84799],[3484,441],[-95,-1245]],[[56484,83995],[-334,-5510]],[[56150,78485],[-4691,236]],[[51459,78721],[147,2056],[122,3106]],[[9184,55513],[6818,-79]],[[16002,55434],[637,-7]],[[16639,55427],[-300,-3886]],[[16339,51541],[-6237,-600]],[[8717,50770],[467,4743]],[[18986,75856],[1416,-263],[655,-341],[2974,609],[168,-473],[588,114]],[[24783,73153],[11,-2517]],[[24794,70636],[-1595,-147],[80,-779],[-1605,-158],[58,-653],[-1538,-133]],[[20194,68766],[-1071,-85]],[[19123,68681],[-110,1567],[-561,-72],[-138,1460],[-230,43],[902,4177]],[[16339,51541],[227,24]],[[16566,51565],[1629,-3690]],[[18195,47875],[205,-1502],[-1196,-631],[34,-562]],[[17238,45180],[-1206,570],[-1758,1016],[-1669,1643]],[[49726,51290],[131,-5]],[[49857,51285],[871,-45]],[[50728,51240],[33,-2]],[[50761,51238],[559,-29]],[[51320,51209],[43,-877],[-1687,256],[-197,-776],[-477,-133],[-472,-828],[418,-268],[1373,-91],[-68,-1078],[900,-72],[187,-452]],[[51340,46890],[-1596,-458]],[[49744,46432],[-144,-54]],[[49600,46378],[-762,-76],[25,584],[-697,166],[1,400],[-600,340],[-1461,221],[-620,-152],[78,1122],[398,-16],[382,1634],[472,322],[125,512],[2785,-145]],[[42928,50758],[-1,-28]],[[42927,50730],[1,28]],[[42914,50007],[-27,-185]],[[42887,49822],[27,185]],[[42783,48492],[204,1097],[677,-360],[-881,-737]],[[6725,69252],[948,-1310],[1883,1169],[791,-1206],[1331,756],[310,-600]],[[11988,68061],[78,-837],[2022,-2791],[390,-673],[5,-553]],[[14483,63207],[-1086,-734],[534,-763],[-1721,662],[-1223,-744],[-1377,331]],[[9610,61959],[140,1992],[-3489,289],[464,5012]],[[92954,27300],[3607,-198]],[[96561,27102],[3438,-222],[-476,-6437]],[[99523,20443],[-3498,218]],[[92743,24080],[211,3220]],[[31851,27447],[2900,54],[681,-1979]],[[35432,25522],[842,-2438],[-3319,-1492]],[[32955,21592],[-867,-371],[-2089,4520]],[[77142,34903],[2392,-156]],[[86693,34271],[-481,-6559]],[[86212,27712],[-5326,337],[-1870,152]],[[79016,28201],[-2344,154]],[[54106,47146],[-48,-819]],[[54058,46327],[48,819]],[[54057,46307],[-71,-813]],[[53986,45494],[-346,12]],[[53640,45506],[-1440,96]],[[52200,45602],[237,491],[1620,214]],[[50728,51240],[33,-2]],[[49744,46432],[-144,-54]],[[51320,51209],[419,-24]],[[51739,51185],[2637,-147]],[[54376,51038],[-246,-3441]],[[54130,47597],[-564,359],[-588,33],[-54,-608],[-475,28],[-162,-896],[-542,-33],[-405,410]],[[43171,78063],[181,-9]],[[43352,78054],[-181,9]],[[38645,76731],[103,1538]],[[38748,78269],[2707,-166],[1693,-39]],[[43148,78064],[-812,-279],[-33,-492],[1052,-66],[261,544],[508,242]],[[44124,78013],[596,-31]],[[44720,77982],[-295,-4211]],[[38475,74085],[170,2646]],[[42692,95019],[6020,92]],[[48712,95111],[-62,-2823]],[[48650,92288],[-1205,25],[-62,-3812]],[[47383,88501],[-4706,62]],[[42677,88563],[15,6456]],[[57109,20810],[4462,-284],[2130,-91]],[[63701,20435],[-122,-2148]],[[63579,18287],[-156,-3303]],[[49910,73467],[5850,-326]],[[55760,73141],[-357,-5375]],[[55403,67766],[-5849,313]],[[49554,68079],[356,5388]],[[50891,32085],[-333,-4315]],[[50557,27752],[-5310,302]],[[45247,28054],[-1571,83],[250,4393]],[[47226,56976],[1580,-92]],[[48806,56884],[-73,-1245]],[[48733,55639],[-62,-942],[-745,-783],[-768,45],[-296,262]],[[46862,54221],[579,262],[-434,703],[-10,1293],[229,497]],[[44034,54901],[861,-180],[1077,-664],[813,-16]],[[46785,54041],[-305,-743],[-1068,55],[-466,179],[-912,1369]],[[43059,52759],[40,554],[1311,-122],[-84,-576],[-1267,144]],[[58102,33773],[589,8696]],[[58691,42469],[5325,-304]],[[64016,42165],[1756,-74]],[[65772,42091],[-485,-8718]],[[65287,33373],[-350,16]],[[64937,33389],[-6835,381]],[[58102,33770],[0,3]],[[15171,84674],[5896,79],[3802,42],[-7,-447],[1,-2796]],[[24863,81552],[-3871,-435],[-4292,-546]],[[16700,80571],[-954,-120]],[[63579,18287],[7453,-426]],[[71032,17861],[-150,-2086]],[[70882,15775],[-167,-2300]],[[70715,13475],[-7349,434]],[[60768,56275],[-360,-5605]],[[60408,50670],[-6032,368]],[[54376,51038],[347,5540]],[[71032,17861],[356,4357]],[[71388,22218],[7108,-499]],[[78496,21719],[-329,-4310]],[[78167,17409],[-154,-2136]],[[78013,15273],[-204,14]],[[77809,15287],[-6927,488]],[[48712,95111],[89,4340],[6,548],[3480,-13]],[[52287,99986],[-114,-5371]],[[52173,94615],[-73,-2698]],[[52100,91917],[-3459,18],[9,353]],[[54636,45806],[-21,-352]],[[54615,45454],[-337,31]],[[54278,45485],[358,321]],[[54106,47146],[24,451]],[[60408,50670],[-142,-2178],[604,413],[582,-232],[-32,-494],[555,-307],[-35,-628],[-879,56],[-97,-1490],[-846,526],[-85,-1191]],[[60033,45145],[-4808,277]],[[55225,45422],[-589,384]],[[54636,45806],[-579,514]],[[54057,46320],[1,7]],[[10594,30162],[587,1220],[2024,597],[1009,167]],[[14214,32146],[755,-232],[549,-477],[744,75],[467,-800],[858,-195],[382,-316],[1726,1212]],[[19695,31413],[-259,-6385]],[[19436,25028],[-3139,153],[-4467,245],[-3455,272]],[[8375,25698],[2219,4464]],[[83980,54545],[213,5289]],[[84193,59834],[4887,-113],[925,-86]],[[90005,59635],[-4,-21],[-222,-5297]],[[89779,54317],[-5800,178]],[[83979,54495],[1,50]],[[72514,52570],[339,-17]],[[72853,52553],[97,-4]],[[72950,52549],[824,846],[531,313],[-482,464],[152,736],[656,238]],[[74631,55146],[-182,12]],[[74449,55158],[-206,11]],[[74243,55169],[-97,4]],[[74146,55173],[-311,13]],[[73835,55186],[1436,593],[599,641],[1040,-71],[487,148],[-277,-1506]],[[77120,54991],[-200,15]],[[76920,55006],[-427,29]],[[76493,55035],[514,-453],[-454,-398],[-88,-675],[443,-25],[361,-569],[565,-345],[448,257]],[[78282,52827],[170,-361],[771,97],[864,-411],[-220,-924],[-832,-92],[-448,379],[-460,-378]],[[78127,51137],[-721,-457],[-101,-411],[-2960,195],[-2307,-831]],[[72038,49633],[-363,328]],[[71675,49961],[-723,383],[155,1203],[489,-218],[1049,-61],[116,747],[-247,555]],[[93356,33847],[3653,-190],[-228,-3351],[-220,-3204]],[[92954,27300],[-1126,67]],[[91828,27367],[273,4381],[1114,-65],[141,2164]],[[34951,47775],[108,-67]],[[35059,47708],[-108,67]],[[34504,46749],[152,62]],[[32461,46096],[-47,-10]],[[32414,46086],[-1,6],[413,73]],[[28870,47938],[705,-409],[77,-1057],[626,-508],[-61,-318]],[[30217,45646],[-1151,109]],[[29066,45755],[-196,2183]],[[28425,51213],[706,101]],[[29131,51314],[718,14]],[[29849,51328],[572,54]],[[30421,51382],[192,51]],[[30613,51433],[1419,524]],[[32032,51957],[136,-642],[477,-188],[898,667],[583,-725],[-26,-1123],[147,-558],[-420,-467],[-935,684],[-233,-986],[-1626,-80],[-371,-618],[-793,-212],[35,684],[-468,185],[-569,-617]],[[28867,47961],[-442,3252]],[[67406,67133],[4855,-277],[-72,-1399],[891,-48]],[[73080,65409],[-282,-4300]],[[72798,61109],[-5796,321]],[[67002,61430],[404,5703]],[[33125,79610],[5701,-237]],[[38826,79373],[-78,-1104]],[[38645,76731],[-5722,279]],[[32923,77010],[202,2600]],[[46052,82910],[1467,-95],[110,1361],[751,86]],[[48380,84262],[1095,-210],[2253,-169]],[[51459,78721],[-1201,70]],[[50258,78791],[-4761,267]],[[45497,79058],[185,2826],[292,-16],[78,1042]],[[24506,47634],[148,247],[-65,1486],[-207,321],[223,578],[-83,638],[2556,-85],[99,1274]],[[27177,52093],[250,87]],[[27427,52180],[906,-109]],[[28333,52071],[92,-858]],[[28867,47961],[3,-23]],[[29066,45755],[91,-1073],[-982,-122],[78,745],[-640,-3],[-923,-668],[-532,750],[-1124,-558]],[[25034,44826],[-284,1188],[246,309],[-906,1146],[416,165]],[[32796,18263],[159,3329]],[[35432,25522],[4071,-147]],[[39503,25375],[132,-357],[775,-672],[503,-731]],[[40913,23615],[-117,-1130],[514,-752]],[[41310,21733],[1104,-1673],[56,-1603],[338,-558]],[[42808,17899],[-6456,242]],[[36352,18141],[-3556,122]],[[40913,23615],[855,298],[-253,1102],[323,838],[854,-101],[526,192],[608,-243],[975,967],[446,1386]],[[50071,21323],[-4652,247]],[[45419,21570],[-4109,163]],[[77906,44174],[5503,-357]],[[87264,43639],[-140,-2799]],[[87124,40840],[-12,0]],[[80034,41242],[-2330,152]],[[77704,41394],[202,2780]],[[33704,52111],[973,-379]],[[34677,51732],[332,-37]],[[35009,51695],[1311,-601],[721,-193],[250,-617],[-187,-3587],[-435,-229]],[[36669,46468],[-38,2]],[[36631,46470],[-724,147]],[[35907,46617],[-848,1091]],[[34951,47775],[-371,477],[-401,3009],[-491,839]],[[33688,52100],[16,11]],[[25947,41972],[1209,-980],[1597,-1079],[829,-662],[1093,-35]],[[30675,39216],[-67,-638],[881,66],[104,342],[727,166]],[[32320,39152],[212,-4]],[[32532,39148],[212,4]],[[32744,39152],[8,0]],[[32752,39152],[-106,-2254],[201,-1419],[-132,-2444]],[[32715,33035],[-2019,47]],[[25144,33381],[-432,6736]],[[24712,40117],[-79,1027],[1314,828]],[[77919,48740],[779,215],[48,531]],[[78746,49486],[4962,-272]],[[83708,49214],[-2,-71]],[[77906,44174],[-316,613],[329,3953]],[[85479,18004],[249,3224]],[[85728,21228],[5637,-324]],[[92461,19728],[-197,-3190]],[[92264,16538],[-4646,284],[43,1083],[-2182,99]],[[84241,64972],[2521,50],[2698,-64],[801,-76],[-241,-4091],[-15,-1156]],[[84193,59834],[48,5138]],[[77380,8674],[76,1578],[353,5035]],[[78013,15273],[6648,-395]],[[84661,14878],[-388,-6636]],[[77388,8673],[-8,1]],[[18195,47875],[1807,-1],[4504,-240]],[[25034,44826],[312,-502],[-79,-575],[604,-570],[382,-932],[-306,-275]],[[24712,40117],[-5244,-266]],[[19468,39851],[-63,1712],[-478,1570],[-1523,97],[-166,1950]],[[44425,73771],[5485,-304]],[[49554,68079],[-5495,280]],[[60408,50670],[5836,-327]],[[66244,50343],[-343,-5482],[-129,-2770]],[[64016,42165],[145,2784],[-4128,196]],[[61948,94433],[1188,4],[-29,-959],[100,-5512],[-1178,10]],[[62029,87976],[-2950,38]],[[59079,88014],[50,6421]],[[52173,94615],[6957,-125]],[[59079,88014],[-4695,64]],[[54384,88078],[49,2187],[-1788,26],[14,1080],[-574,11],[15,535]],[[53986,45494],[292,-9]],[[54615,45454],[610,-32]],[[58691,42469],[-5237,325]],[[53454,42794],[186,2712]],[[32261,68612],[517,319],[-165,1319],[352,276],[95,1127]],[[33060,71653],[246,-16]],[[33306,71637],[-53,-601],[565,-43],[54,606]],[[33872,71599],[848,-51],[491,313],[474,-356]],[[35685,71505],[-355,-910],[779,-55],[381,-422],[717,319],[441,-436],[590,-35]],[[38210,69429],[-10,-183]],[[38893,68595],[124,-818],[-868,531]],[[38149,68308],[-495,276],[-829,84],[-736,-340],[180,-1505],[-56,-452],[653,-425]],[[36866,65946],[1,-351],[1131,11]],[[37998,65606],[584,-90],[-47,-751],[-588,-24]],[[37947,64741],[-646,34],[-925,1190]],[[36376,65965],[-535,538],[-2644,155]],[[33197,66658],[-36,424]],[[33161,67082],[229,728],[-1176,97]],[[32214,67907],[47,705]],[[52287,99986],[248,-5]],[[52810,99980],[291,-3],[3749,-68],[2336,-13],[0,-32]],[[84661,14878],[646,-30]],[[85307,14848],[6409,-412]],[[91716,14436],[-505,-6682],[-6938,488]],[[42023,15236],[3017,-154]],[[45040,15082],[4703,-283]],[[49249,8279],[-4035,241],[-5001,252],[191,599],[902,156],[102,784],[-357,437],[-494,-27]],[[40557,10721],[-968,848],[-3,1997],[189,581],[2248,1089]],[[42808,17899],[-12,-418],[-826,114],[-172,-622],[485,-922],[50,-633],[-310,-182]],[[40557,10721],[-4239,166],[-251,9]],[[36067,10896],[285,7245]],[[32715,33035],[6586,-254]],[[39301,32781],[176,-226],[-200,-834],[482,-1585],[-64,-1230],[315,-447],[-974,-709],[8,-400],[662,-56],[-418,-689],[-30,-936],[245,-294]],[[28341,55214],[932,147],[-228,2118],[-278,1396],[579,395],[319,-893]],[[29665,58377],[0,-20]],[[29669,57853],[-14,-2666],[-1314,27]],[[64670,27429],[267,5960]],[[65287,33373],[4602,-249],[2383,-171]],[[71918,28683],[-184,-2235]],[[71734,26448],[-2409,150]],[[69325,26598],[-1549,89],[-343,426],[382,1053],[-100,909],[-1154,288],[248,-813],[-338,-981],[-590,-140],[35,1148],[-962,-124],[-284,-1024]],[[56484,83995],[5980,-303]],[[62464,83692],[-313,-5516]],[[52228,34155],[2733,-204],[3141,-178]],[[58102,33770],[-478,-6529]],[[16639,55427],[5564,-70]],[[22203,55357],[5239,-121]],[[27442,55236],[-200,-2413]],[[27242,52823],[-6465,506],[-2491,164],[-116,-1757],[-1604,-171]],[[49342,65041],[114,1758]],[[49456,66799],[98,1280]],[[55403,67766],[-348,-5652]],[[55055,62114],[-5908,360]],[[49147,62474],[195,2567]],[[78167,17409],[4927,-342],[2312,-113]],[[85406,16954],[-99,-2106]],[[77380,8674],[-7014,418]],[[70366,9092],[349,4383]],[[42656,58064],[-123,-137]],[[42533,57927],[-132,-149]],[[42401,57778],[-88,-98]],[[42313,57680],[-259,-288]],[[42054,57392],[-163,-144]],[[41891,57248],[-28,2]],[[41863,57250],[-406,19]],[[41457,57269],[-2053,101]],[[39404,57370],[335,1166],[1690,-274],[530,89],[697,-287]],[[39113,57381],[-47,2]],[[39066,57383],[47,-2]],[[15887,62054],[3485,472],[129,-689],[632,-341],[428,445],[560,45]],[[21121,61986],[145,-1031],[449,51]],[[21715,61006],[-652,-374],[1012,-1374],[422,-769],[103,-711],[-403,-234],[224,-1750],[-218,-437]],[[16002,55434],[-201,331],[371,489],[77,766],[-297,621],[338,433],[-156,693],[-417,734],[892,517],[-674,235],[-309,451],[367,407],[-106,943]],[[24794,70636],[60,-5278],[497,2]],[[25351,65360],[152,-893],[-1141,-218],[-667,-269],[-283,-690],[-910,116],[101,-632],[-1582,-112]],[[21021,62662],[-492,2842],[-335,3262]],[[6783,69935],[495,5374]],[[7278,75309],[1580,-392],[296,1374],[1509,-382],[-175,-822],[1465,-325],[-114,-481],[1445,-270]],[[13284,74011],[811,-162],[-615,-2368],[225,-1430],[680,71],[-170,-854],[114,-1002]],[[14329,68266],[-2341,-205]],[[6725,69252],[58,683]],[[9247,56594],[363,5365]],[[14483,63207],[828,-1186],[576,33]],[[9184,55513],[63,1081]],[[24863,81552],[-19,-1424]],[[18986,75856],[-1418,267]],[[17568,76123],[142,778],[-828,96],[-436,843],[71,1658],[183,1073]],[[51675,42236],[904,-85],[550,-375],[47,-905],[-452,-214]],[[52438,40674],[-862,48],[99,1514]],[[58964,27160],[803,-48],[39,538],[423,513],[1431,-92],[323,223],[131,852],[914,-52],[-88,-454],[443,-373],[733,24],[554,-862]],[[69325,26598],[-28,-423],[-645,23],[-42,-656],[-1646,83],[-931,-232],[-11,-566],[-1202,-72],[-307,-590]],[[64513,24165],[-473,92],[67,835],[-720,343],[-1075,-42],[95,1201],[-715,98],[-384,322],[-609,35],[-505,-312],[-1221,-107],[-9,530]],[[79016,28201],[-520,-6482]],[[71388,22218],[346,4230]],[[52478,37426],[42,954]],[[51675,42236],[42,669],[1737,-111]],[[63701,20435],[626,-27],[186,3757]],[[42657,83583],[20,4980]],[[47383,88501],[-14,-1082],[1144,-27],[-133,-3130]],[[46052,82910],[-3326,225],[-69,448]],[[54384,88078],[-1203,40],[-86,-3319]],[[44720,77982],[67,1104],[710,-28]],[[50258,78791],[-165,-2799],[-253,-2227],[70,-298]],[[38826,79373],[247,3755],[3584,455]],[[44124,78013],[-772,41]],[[43171,78063],[-23,1]],[[27242,52823],[-31,-302]],[[27211,52521],[-15,-147]],[[27196,52374],[-19,-281]],[[19433,38066],[35,1785]],[[25136,33146],[-1304,-1270],[-378,514],[-388,-339],[-1372,263]],[[21694,32314],[-571,1851],[-435,-39],[-1659,693],[18,585],[389,594],[-494,479],[491,1589]],[[12271,40805],[502,269],[695,-272],[380,455],[579,-487],[1097,-370],[366,-855],[-306,-211]],[[15584,39334],[-525,-482],[-1308,-107],[-737,-603],[434,-278],[-477,-527],[-903,313],[-402,643],[-951,-341],[11,743],[621,218],[635,524],[-455,465],[527,256],[217,647]],[[14049,32383],[364,89],[563,1435],[-899,802],[81,1158],[2921,1287],[2354,912]],[[21694,32314],[-1306,-403],[-693,-498]],[[14214,32146],[-165,237]],[[378,30459],[3630,-315],[247,992]],[[4255,31136],[3608,-275],[154,-536],[2577,-163]],[[8375,25698],[-811,64],[-7564,540],[378,4157]],[[66244,50343],[14,-1]],[[66258,50342],[5417,-381]],[[72038,49633],[-107,-1784],[-702,170],[-517,-710],[1181,-66],[304,-580],[1083,971]],[[73280,47634],[-329,-646],[-713,-656],[302,-189],[249,-962],[-141,-656],[596,-39],[-167,-2379]],[[73077,42107],[-651,-393],[-6654,377]],[[61441,67468],[5965,-335]],[[61106,61784],[335,5684]],[[55403,67766],[6038,-298]],[[78127,51137],[-74,-884],[546,-110],[147,-657]],[[77919,48740],[69,805],[-1614,125],[-555,-1322],[-947,71],[-1592,-785]],[[72798,61109],[-39,-582]],[[72759,60527],[-352,-4939]],[[72407,55588],[-5761,332]],[[62984,7435],[7221,-429]],[[70205,7006],[-299,-4474]],[[69906,2532],[-191,-1947],[-7170,481]],[[62545,1066],[439,6369]],[[70366,9092],[-161,-2086]],[[55606,1505],[419,6346]],[[62545,1066],[-79,-1066],[-2326,118],[-4605,370],[71,1017]],[[78282,52827],[167,2028]],[[78449,54855],[5531,-310]],[[83979,54495],[-271,-5281]],[[78452,54889],[347,5189]],[[78799,60078],[3947,-209],[1447,-35]],[[78449,54855],[3,34]],[[76493,55035],[427,-29]],[[77120,54991],[1332,-102]],[[72377,55254],[1458,-68]],[[74146,55173],[97,-4]],[[74449,55158],[182,-12]],[[72950,52549],[-97,4]],[[72514,52570],[-297,17],[160,2667]],[[54057,46307],[0,13]],[[66646,55920],[-388,-5578]],[[49456,66799],[-227,-277],[-1172,-25],[-902,-422],[-93,-624],[731,-35],[-234,-515],[1252,-573],[531,713]],[[49147,62474],[-5462,317]],[[43685,62791],[374,5566]],[[37998,65606],[16,280]],[[38014,65886],[135,2422]],[[43685,62791],[-5831,312]],[[37854,63103],[93,1638]],[[38014,65886],[-1148,60]],[[35685,71505],[2632,-143]],[[33306,71637],[566,-38]],[[36376,65965],[-3084,133]],[[33292,66098],[-95,560]],[[32358,69943],[131,1748]],[[32489,71691],[571,-38]],[[32261,68612],[97,1331]],[[33161,67082],[-987,180]],[[32174,67262],[40,645]],[[49147,62474],[-341,-5590]],[[47226,56976],[-9,1]],[[47217,56977],[-34,921],[-2415,223],[-1368,240]],[[43400,58361],[285,4430]],[[54723,56578],[-5917,306]],[[37854,63103],[-239,-4890],[543,-789]],[[38158,57424],[-362,11]],[[37796,57435],[-220,9]],[[37576,57444],[-996,36]],[[36580,57480],[-394,17]],[[36186,57497],[-1594,69]],[[34592,57566],[-1851,72]],[[32576,57947],[-388,1402],[-27,1340],[804,-43],[327,5452]],[[42533,57927],[-132,-149]],[[42401,57778],[-88,-98]],[[42054,57392],[-134,-145]],[[41920,57247],[-29,1]],[[41863,57250],[-406,19]],[[43400,58361],[-744,-297]],[[39404,57370],[-291,11]],[[39066,57383],[-908,41]],[[28337,79873],[4788,-263]],[[32923,77010],[-434,-5319]],[[32358,69943],[-2549,177],[-36,762],[-324,1149],[-448,796]],[[32174,67262],[-1001,62],[-490,-1043],[-2485,-259],[102,-669]],[[28300,65353],[-2949,7]],[[86693,34271],[4355,-279]],[[91048,33992],[2308,-145]],[[91828,27367],[-5616,345]],[[86212,27712],[-484,-6484]],[[85728,21228],[-7232,491]],[[85479,18004],[-73,-1050]],[[73077,42107],[2740,-181],[-30,-406],[1917,-126]],[[72488,35211],[589,6896]],[[39301,32781],[4625,-251]],[[24254,19101],[26,556]],[[24280,19657],[588,-395],[478,-869],[540,112],[-107,536],[657,439],[851,-549],[310,169],[919,-267],[191,-847],[850,534],[613,-220],[199,485]],[[30369,18785],[-432,-7635]],[[29937,11150],[-6207,301],[524,7650]],[[45123,16713],[603,47],[638,620],[64,880],[-868,261],[102,-542],[-473,-199]],[[45189,17780],[34,618]],[[45223,18398],[12,271]],[[45235,18669],[37,742]],[[45272,19411],[23,501]],[[45295,19912],[124,1658]],[[45040,15082],[83,1631]],[[30369,18785],[794,291],[366,-545],[1267,-268]],[[36067,10896],[-6130,254]],[[51675,42236],[-1133,148],[-40,1518],[633,191],[-476,479],[-215,1114],[1756,-84]],[[48438,40930],[770,-54]],[[48040,40927],[90,1]],[[45459,45724],[289,338],[2550,196],[67,-690],[411,-889],[391,-68],[-50,-705],[-1107,38],[4,-309],[-2074,137],[48,1797],[-529,155]],[[42927,50730],[-13,-723]],[[42887,49822],[-718,53],[161,916],[598,-33]],[[27211,52521],[523,46],[283,-379],[1723,255],[635,284],[724,-21],[193,420],[773,-206],[1063,-34],[-38,757],[358,488]],[[33448,54131],[33,112]],[[33481,54243],[982,-25],[129,3348]],[[36186,57497],[278,-1211],[1064,95]],[[37528,56381],[30,686]],[[37558,57067],[-902,-35],[-76,448]],[[37576,57444],[220,-9]],[[41920,57247],[24,-1]],[[41944,57246],[-96,-688]],[[41848,56558],[-209,-906],[648,-397],[937,217]],[[43224,55472],[810,-571]],[[46785,54041],[77,180]],[[48733,55639],[579,101],[1695,-229],[23,-959],[329,-556],[-312,-502],[-810,-92],[162,-771],[-547,-424],[-126,-917]],[[44359,38649],[25,371],[-1909,110],[58,-1085],[-759,-164],[-83,519]],[[41691,38400],[-890,-527],[-75,-1256],[543,-35],[-127,-1188],[181,-553],[645,-23],[132,1058],[715,-35],[104,-540],[865,436],[356,-286]],[[44105,34693],[-9,-257]],[[44032,33695],[-204,462],[-1205,4],[-349,-844],[-724,-11],[-941,476],[-244,-555],[-1273,76]],[[39092,33303],[-926,-141],[-65,899],[963,-78],[332,192]],[[39396,34175],[623,78],[81,727],[-611,258]],[[39489,35238],[-598,1040],[195,508],[-382,250],[-117,811],[426,602],[-595,400],[122,1176],[-694,158]],[[37463,40278],[-9,-383],[-1352,140],[145,408],[-1160,329]],[[34880,40814],[-1032,-805],[-688,317],[-385,-497]],[[32775,39829],[-31,-677]],[[32532,39148],[-212,4]],[[30675,39216],[470,1095],[-403,446],[-33,880],[-607,-345],[-924,193],[1238,766],[-929,909],[365,2330],[365,156]],[[32032,51957],[-94,400],[-1269,-189],[-56,-735]],[[30421,51382],[-572,-54]],[[29131,51314],[-252,712],[-546,45]],[[27427,52180],[-231,194]],[[32774,45109],[-37,-526],[-1622,-116],[-8,-790],[472,-622],[1232,-270]],[[32414,46086],[54,1]],[[33193,41046],[574,-60]],[[33813,40983],[204,-9]],[[33632,41005],[-23,2]],[[33548,41014],[-259,30]],[[35907,46617],[624,-1030]],[[36531,45587],[2235,-399],[-257,877]],[[38497,46066],[-1672,82],[-156,320]],[[35009,51695],[-332,37]],[[33704,52111],[-16,-11]],[[36827,54258],[235,-314]],[[37062,53944],[-177,-4]],[[36885,53940],[43,-238]],[[36928,53702],[388,-220]],[[37316,53482],[107,-4]],[[37423,53478],[1538,-519],[1068,-49],[218,877],[31,1601],[-1205,347],[-1330,-157],[90,-1003],[-535,340],[-595,23]],[[36703,54938],[-1076,-62],[-35,-805],[1084,-125],[151,312]],[[36781,40452],[204,-36]],[[37387,52659],[1,125]],[[37388,52784],[-1,-125]],[[37324,51588],[16,182]],[[37340,51770],[-16,-182]],[[37367,52051],[306,393],[1204,-61],[14,248],[-1422,-56],[-102,-524]],[[43171,44892],[468,64],[-1,-1522],[1052,-66],[154,2164],[-254,412],[-833,-69],[-586,-983]],[[44072,34140],[-35,-388]],[[49857,51285],[1404,-26],[478,-74]],[[36531,45587],[100,883]],[[32752,39152],[23,677]],[[39489,35238],[-93,-1063]],[[39092,33303],[209,-522]],[[37316,53482],[107,-4]],[[37340,51770],[-16,-182]],[[37388,52784],[-1,-125]],[[37062,53944],[-177,-4]],[[36885,53940],[43,-238]],[[37558,57067],[-30,-686]],[[36703,54938],[124,-680]],[[33448,54131],[33,112]],[[62029,87976],[-2,-2065],[592,71],[-155,-2290]],[[57624,27241],[1340,-81]],[[19468,39851],[-1449,-438],[-2435,-79]],[[12271,40805],[-266,120]],[[32000,58546],[145,92]],[[31245,59082],[732,536],[-17,-945]],[[76796,2122],[-6890,410]],[[27442,55236],[899,-22]],[[45272,19411],[-771,-708],[734,-34]],[[45223,18398],[-34,-618]],[[45123,16713],[-2057,-41],[-86,-423],[909,-66],[-73,-439],[-1024,30],[-33,929],[488,1701],[-751,47],[12,1351],[887,-569],[514,785],[1386,-106]],[[14049,32383],[-1636,1932],[-439,1764],[-743,-92],[-2963,664],[-304,777],[-2132,67]],[[5832,37495],[672,2586],[420,1047]],[[78806,60188],[315,4910]],[[79121,65098],[4906,-123],[214,-3]],[[78799,60078],[7,110]],[[89779,54317],[-245,-5407]],[[19123,68681],[-4794,-415]],[[13284,74011],[234,1014],[2096,-411],[227,1056],[1565,-241],[162,694]],[[7397,76635],[283,2949]],[[7278,75309],[119,1326]],[[21021,62662],[100,-676]],[[21715,61006],[3254,330],[1309,-1351],[394,140],[-107,1169],[1109,217],[-18,228],[1934,185]],[[29590,61924],[75,-3547]],[[28300,65353],[1225,-11],[65,-3418]],[[72759,60527],[6047,-339]],[[72377,55254],[30,334]],[[41848,56558],[510,-34],[902,-432],[-36,-620]],[[5429,36026],[403,1469]],[[4255,31136],[1174,4890]],[[73080,65409],[5062,-258],[979,-53]],[[92264,16538],[-112,-1714],[88,-420]],[[92240,14404],[-524,32]],[[87124,40840],[4395,-288],[-471,-6560]],[[24688,26048],[-80,-1333]],[[24608,24715],[-5172,313]],[[41944,57246],[5273,-269]],[[99523,20443],[-468,-6478],[-487,45],[-6328,394]],[[24280,19657],[328,5058]]],"transform":{"scale":[0.000016291272912729074,0.000013508705087050918],"translate":[-83.65333,39.361565999999996]},"objects":{"in":{"type":"GeometryCollection","geometries":[{"arcs":[[0,1,2]],"type":"Polygon","properties":{"geoid":"3907374405","name":"Starr"},"id":"3907374405"},{"arcs":[[3,4,5,6]],"type":"Polygon","properties":{"geoid":"3911777602","name":"Troy"},"id":"3911777602"},{"arcs":[[7,8,9,10]],"type":"Polygon","properties":{"geoid":"3908943232","name":"Liberty"},"id":"3908943232"},{"arcs":[[11,12,13,14,15]],"type":"Polygon","properties":{"geoid":"3909772960","name":"Somerford"},"id":"3909772960"},{"arcs":[[16,17,18,19,20,21]],"type":"Polygon","properties":{"geoid":"3904501637","name":"Amanda"},"id":"3904501637"},{"arcs":[[22,23,24]],"type":"Polygon","properties":{"geoid":"3911773061","name":"South Bloomfield"},"id":"3911773061"},{"arcs":[[25,26,27,28,29,30,31,32,33]],"type":"Polygon","properties":{"geoid":"3904109428","name":"Brown"},"id":"3904109428"},{"arcs":[[34,35,36,37]],"type":"Polygon","properties":{"geoid":"3915981662","name":"Washington"},"id":"3915981662"},{"arcs":[[-20,38,39,40,41]],"type":"Polygon","properties":{"geoid":"3904515686","name":"Clearcreek"},"id":"3904515686"},{"arcs":[[42,43,44,45,46]],"type":"Polygon","properties":{"geoid":"3904566684","name":"Richland"},"id":"3904566684"},{"arcs":[[47,48,49,50,51,52]],"type":"Polygon","properties":{"geoid":"3912920156","name":"Darby"},"id":"3912920156"},{"arcs":[[-41,53,54,55]],"type":"Polygon","properties":{"geoid":"3912970184","name":"Saltcreek"},"id":"3912970184"},{"arcs":[[[60,61]],[[64]],[[65,66]],[[67,68,69,70]],[[75,76]],[[77,78,79]]],"type":"MultiPolygon","properties":{"geoid":"3904928280","name":"Franklin"},"id":"3904928280"},{"arcs":[[[80,81,82]],[[83]],[[86,87]],[[90,91,92,93,94,95,96,97,98]]],"type":"MultiPolygon","properties":{"geoid":"3904946410","name":"Madison"},"id":"3904946410"},{"arcs":[[99,100,101,102]],"type":"Polygon","properties":{"geoid":"3908936316","name":"Hopewell"},"id":"3908936316"},{"arcs":[[103,-11,104,105]],"type":"Polygon","properties":{"geoid":"3908951450","name":"Monroe"},"id":"3908951450"},{"arcs":[[-54,-40,106,107,108,109,110]],"type":"Polygon","properties":{"geoid":"3907361868","name":"Perry"},"id":"3907361868"},{"arcs":[[111,112,113,114]],"type":"Polygon","properties":{"geoid":"3912736386","name":"Hopewell"},"id":"3912736386"},{"arcs":[[115,116,117,118]],"type":"Polygon","properties":{"geoid":"3912763366","name":"Pleasant"},"id":"3912763366"},{"arcs":[[119,120,121,122,123,124,125,126]],"type":"Polygon","properties":{"geoid":"3904181242","name":"Washington"},"id":"3904181242"},{"arcs":[[127,128,129,130,131]],"type":"Polygon","properties":{"geoid":"3904176617","name":"Thompson"},"id":"3904176617"},{"arcs":[[132,133]],"type":"Polygon","properties":{"geoid":"3911729162","name":"Galion"},"id":"3911729162"},{"arcs":[[134,135,136,137,138]],"type":"Polygon","properties":{"geoid":"3911733600","name":"Harmony"},"id":"3911733600"},{"arcs":[[139,140,141,142,-13,143]],"type":"Polygon","properties":{"geoid":"3909762666","name":"Pike"},"id":"3909762666"},{"arcs":[[144,-132,145,146,147,148]],"type":"Polygon","properties":{"geoid":"3915942490","name":"Leesburg"},"id":"3915942490"},{"arcs":[[149,150,151,152,-14,-143]],"type":"Polygon","properties":{"geoid":"3909751478","name":"Monroe"},"id":"3909751478"},{"arcs":[[[153,154,155,156,157,158,159,160]],[[165]]],"type":"MultiPolygon","properties":{"geoid":"3904950064","name":"Mifflin"},"id":"3904950064"},{"arcs":[[166,167,168,169]],"type":"Polygon","properties":{"geoid":"3915901336","name":"Allen"},"id":"3915901336"},{"arcs":[[170,171,172,-117,173]],"type":"Polygon","properties":{"geoid":"3912704584","name":"Bearfield"},"id":"3912704584"},{"arcs":[[174,175,176,-51]],"type":"Polygon","properties":{"geoid":"3912953256","name":"Muhlenberg"},"id":"3912953256"},{"arcs":[[177,-114,178,179,180,-45]],"type":"Polygon","properties":{"geoid":"3912765760","name":"Reading"},"id":"3912765760"},{"arcs":[[[183,184,185,186]],[[189,190,191,192,-158]]],"type":"MultiPolygon","properties":{"geoid":"3904938612","name":"Jefferson"},"id":"3904938612"},{"arcs":[[195,196,197,198,199,-29,200]],"type":"Polygon","properties":{"geoid":"3904159262","name":"Oxford"},"id":"3904159262"},{"arcs":[[201,202,203,204,205]],"type":"Polygon","properties":{"geoid":"3911711248","name":"Canaan"},"id":"3911711248"},{"arcs":[[206,207,208,-107,-39]],"type":"Polygon","properties":{"geoid":"3904546382","name":"Madison"},"id":"3904546382"},{"arcs":[[209,210,211,212]],"type":"Polygon","properties":{"geoid":"3904164178","name":"Porter"},"id":"3904164178"},{"arcs":[[-98,213,-17,214,215]],"type":"Polygon","properties":{"geoid":"3912946564","name":"Madison"},"id":"3912946564"},{"arcs":[[[216,217,218,219]],[[220,221]],[[222]]],"type":"MultiPolygon","properties":{"geoid":"3904906922","name":"Blendon"},"id":"3904906922"},{"arcs":[[223,224,225,226,227,228,229]],"type":"Polygon","properties":{"geoid":"3904543120","name":"Liberty"},"id":"3904543120"},{"arcs":[[230,231,232,-36]],"type":"Polygon","properties":{"geoid":"3915938108","name":"Jackson"},"id":"3915938108"},{"arcs":[[-209,233,234,235,236,-108]],"type":"Polygon","properties":{"geoid":"3907330842","name":"Good Hope"},"id":"3907330842"},{"arcs":[[-105,237,238,239]],"type":"Polygon","properties":{"geoid":"3908939102","name":"Jersey"},"id":"3908939102"},{"arcs":[[240,241,242,243,244,245,-235]],"type":"Polygon","properties":{"geoid":"3907347740","name":"Marion"},"id":"3907347740"},{"arcs":[[-203,246,247,248,249]],"type":"Polygon","properties":{"geoid":"3911781508","name":"Washington"},"id":"3911781508"},{"arcs":[[[250,251,252]],[[-182,253,-192,-239,254,255,256,257,258]]],"type":"MultiPolygon","properties":{"geoid":"3908961112","name":"Pataskala"},"id":"3908961112"},{"arcs":[[259,260,261,262,263]],"type":"Polygon","properties":{"geoid":"3909765480","name":"Range"},"id":"3909765480"},{"arcs":[[264,265,266,267,268]],"type":"Polygon","properties":{"geoid":"3908961924","name":"Perry"},"id":"3908961924"},{"arcs":[[269,270,271,272,273,274,275,276,277,278,279,280,281,282,283]],"type":"Polygon","properties":{"geoid":"3908954040","name":"Newark"},"id":"3908954040"},{"arcs":[[284,-171,285,286]],"type":"Polygon","properties":{"geoid":"3912733964","name":"Harrison"},"id":"3912733964"},{"arcs":[[[-78,290,291]],[[292,293,294]],[[295,296,297,298,299,300,301]]],"type":"MultiPolygon","properties":{"geoid":"3904957344","name":"Norwich"},"id":"3904957344"},{"arcs":[[302,303,304,305]],"type":"Polygon","properties":{"geoid":"3908910366","name":"Burlington"},"id":"3908910366"},{"arcs":[[306,307,-196,308,309]],"type":"Polygon","properties":{"geoid":"3904147908","name":"Marlboro"},"id":"3904147908"},{"arcs":[[310,311,-139,312,313,314]],"type":"Polygon","properties":{"geoid":"3911743680","name":"Lincoln"},"id":"3911743680"},{"arcs":[[315,316,317,318,-302,319,-295,320,321]],"type":"Polygon","properties":{"geoid":"3904909442","name":"Brown"},"id":"3904909442"},{"arcs":[[322,-176,323,324,325,326,327,328]],"type":"Polygon","properties":{"geoid":"3912937982","name":"Jackson"},"id":"3912937982"},{"arcs":[[329,-215,-22,330,331,-326]],"type":"Polygon","properties":{"geoid":"3912980598","name":"Walnut"},"id":"3912980598"},{"arcs":[[332,-102,333,334,-112,335,336]],"type":"Polygon","properties":{"geoid":"3908907944","name":"Bowling Green"},"id":"3908907944"},{"arcs":[[337,338,339,340,341,342,-288,343,344]],"type":"Polygon","properties":{"geoid":"3904979002","name":"Upper Arlington"},"id":"3904979002"},{"arcs":[[345,346,347,348,349,350,351,-49,352,353]],"type":"Polygon","properties":{"geoid":"3904963254","name":"Pleasant"},"id":"3904963254"},{"arcs":[[354,355,356,-103,-333,357]],"type":"Polygon","properties":{"geoid":"3908928336","name":"Franklin"},"id":"3908928336"},{"arcs":[[358,359,-119,360,361]],"type":"Polygon","properties":{"geoid":"3912770226","name":"Salt Lick"},"id":"3912770226"},{"arcs":[[362,-266,363]],"type":"Polygon","properties":{"geoid":"3908926530","name":"Fallsbury"},"id":"3908926530"},{"arcs":[[364,-245,365,366,-1,367]],"type":"Polygon","properties":{"geoid":"3907331780","name":"Green"},"id":"3907331780"},{"arcs":[[368,-322,369,-354,370,371,-152]],"type":"Polygon","properties":{"geoid":"3909738696","name":"Jefferson"},"id":"3909738696"},{"arcs":[[372,-213,373,-30]],"type":"Polygon","properties":{"geoid":"3904140362","name":"Kingston"},"id":"3904140362"},{"arcs":[[374,375,-226,376,-255]],"type":"Polygon","properties":{"geoid":"3908933894","name":"Harrison"},"id":"3908933894"},{"arcs":[[-6,377,378,379]],"type":"Polygon","properties":{"geoid":"3911761980","name":"Perry"},"id":"3911761980"},{"arcs":[[-249,380,-7,-380,381,382]],"type":"Polygon","properties":{"geoid":"3911718294","name":"Congress"},"id":"3911718294"},{"arcs":[[-185,383,-252,384,-256,-377,-225,385,386]],"type":"Polygon","properties":{"geoid":"3908925690","name":"Etna"},"id":"3908925690"},{"arcs":[[387,388,389,390,391,-26,392,-33,393,394,395,396,397,398,399,400,401]],"type":"Polygon","properties":{"geoid":"3904121469","name":"Delaware City"},"id":"3904121469"},{"arcs":[[402,-134,403,-4,-381,-248]],"type":"Polygon","properties":{"geoid":"3911756224","name":"North Bloomfield"},"id":"3911756224"},{"arcs":[[404,405,406,-367]],"type":"Polygon","properties":{"geoid":"3907380780","name":"Ward"},"id":"3907380780"},{"arcs":[[407,408,-56,409,410]],"type":"Polygon","properties":{"geoid":"3912962484","name":"Pickaway"},"id":"3912962484"},{"arcs":[[-328,411,-411,412,413]],"type":"Polygon","properties":{"geoid":"3912982264","name":"Wayne"},"id":"3912982264"},{"arcs":[[-352,414,415,-324,-175,-50]],"type":"Polygon","properties":{"geoid":"3912970870","name":"Scioto"},"id":"3912970870"},{"arcs":[[416,417,-127,418]],"type":"Polygon","properties":{"geoid":"3915981242","name":"Washington"},"id":"3915981242"},{"arcs":[[419,-228,420,-47,421,422,423]],"type":"Polygon","properties":{"geoid":"3904563240","name":"Pleasant"},"id":"3904563240"},{"arcs":[[424,425,-23,-137]],"type":"Polygon","properties":{"geoid":"3911714030","name":"Chester"},"id":"3911714030"},{"arcs":[[-97,426,-230,427,-18,-214]],"type":"Polygon","properties":{"geoid":"3904506950","name":"Bloom"},"id":"3904506950"},{"arcs":[[428,429,430,431,-150,-142]],"type":"Polygon","properties":{"geoid":"3909720142","name":"Darby"},"id":"3909720142"},{"arcs":[[432,433,-212,434,435,436]],"type":"Polygon","properties":{"geoid":"3904177336","name":"Trenton"},"id":"3904177336"},{"arcs":[[[437,438,-405,-366,-244]],[[-236,-246,-365,439,440]]],"type":"MultiPolygon","properties":{"geoid":"3907326488","name":"Falls"},"id":"3907326488"},{"arcs":[[441,442,443,444,445,446,447,448,449]],"type":"Polygon","properties":{"geoid":"3904118010","name":"Columbus City"},"id":"3904118010"},{"arcs":[[452,453,454,-429,-141,455]],"type":"Polygon","properties":{"geoid":"3915920170","name":"Darby"},"id":"3915920170"},{"arcs":[[-147,456,457,458]],"type":"Polygon","properties":{"geoid":"3915922484","name":"Dover"},"id":"3915922484"},{"arcs":[[459,460,461,462,-167,463]],"type":"Polygon","properties":{"geoid":"3915943358","name":"Liberty"},"id":"3915943358"},{"arcs":[[464,-169,465,-456,-140,466]],"type":"Polygon","properties":{"geoid":"3915978582","name":"Union"},"id":"3915978582"},{"arcs":[[-232,467,-128,-145,468,469]],"type":"Polygon","properties":{"geoid":"3915915112","name":"Claibourne"},"id":"3915915112"},{"arcs":[[470,-81,471]],"type":"Polygon","properties":{"geoid":"3904518000","name":"Columbus"},"id":"3904518000"},{"arcs":[[472,-424,473,474]],"type":"Polygon","properties":{"geoid":"3904541740","name":"Lancaster City"},"id":"3904541740"},{"arcs":[[-422,-46,-181,475,-242,476]],"type":"Polygon","properties":{"geoid":"3904569120","name":"Rush Creek"},"id":"3904569120"},{"arcs":[[-386,-224,-427,-96,477,-82,-471,478]],"type":"Polygon","properties":{"geoid":"3904580206","name":"Violet"},"id":"3904580206"},{"arcs":[[479,-474,-423,-477,-241,-234,-208]],"type":"Polygon","properties":{"geoid":"3904505956","name":"Berne"},"id":"3904505956"},{"arcs":[[480,-205,481,-311,482]],"type":"Polygon","properties":{"geoid":"3911712098","name":"Cardington"},"id":"3911712098"},{"arcs":[[-204,-250,-383,483,-135,-312,-482]],"type":"Polygon","properties":{"geoid":"3911730128","name":"Gilead"},"id":"3911730128"},{"arcs":[[484,-314,485,-373,-200]],"type":"Polygon","properties":{"geoid":"3911762260","name":"Peru"},"id":"3911762260"},{"arcs":[[486,-483,-315,-485,-199,487,-194,488,-197,-308]],"type":"Polygon","properties":{"geoid":"3911783454","name":"Westfield"},"id":"3911783454"},{"arcs":[[-432,489,490,491,-316,-369,-151]],"type":"Polygon","properties":{"geoid":"3909711234","name":"Canaan"},"id":"3909711234"},{"arcs":[[492,-371,-353,-48,493,494]],"type":"Polygon","properties":{"geoid":"3909726068","name":"Fairfield"},"id":"3909726068"},{"arcs":[[495,496]],"type":"Polygon","properties":{"geoid":"3909744674","name":"London"},"id":"3909744674"},{"arcs":[[497,-495,498,-261,499]],"type":"Polygon","properties":{"geoid":"3909757708","name":"Oak Run"},"id":"3909757708"},{"arcs":[[500,501,-264,502]],"type":"Polygon","properties":{"geoid":"3909774784","name":"Stokes"},"id":"3909774784"},{"arcs":[[503,504,-283,505,506,507,-376]],"type":"Polygon","properties":{"geoid":"3908978400","name":"Union"},"id":"3908978400"},{"arcs":[[508,-306,-8,509]],"type":"Polygon","properties":{"geoid":"3908905494","name":"Bennington"},"id":"3908905494"},{"arcs":[[510,-510,-104,-435]],"type":"Polygon","properties":{"geoid":"3908934188","name":"Hartford"},"id":"3908934188"},{"arcs":[[-282,511,-355,512,-506]],"type":"Polygon","properties":{"geoid":"3908934748","name":"Heath"},"id":"3908934748"},{"arcs":[[-305,513,514,515,-9]],"type":"Polygon","properties":{"geoid":"3908946116","name":"McKean"},"id":"3908946116"},{"arcs":[[516,517,518,519]],"type":"Polygon","properties":{"geoid":"3907305578","name":"Benton"},"id":"3907305578"},{"arcs":[[-237,-441,520,-517,-109]],"type":"Polygon","properties":{"geoid":"3907342056","name":"Laurel"},"id":"3907342056"},{"arcs":[[521,-110,-520,522]],"type":"Polygon","properties":{"geoid":"3907370142","name":"Salt Creek"},"id":"3907370142"},{"arcs":[[-281,523,524,-269,525,-356,-512]],"type":"Polygon","properties":{"geoid":"3908946508","name":"Madison"},"id":"3908946508"},{"arcs":[[526,527,-265,-525,528]],"type":"Polygon","properties":{"geoid":"3908948132","name":"Mary Ann"},"id":"3908948132"},{"arcs":[[[529,-278,530,-529,-524,-280]],[[531,-276,532,-274,533,-272,534,-270,535]]],"type":"MultiPolygon","properties":{"geoid":"3908954054","name":"Newark"},"id":"3908954054"},{"arcs":[[[-257,-385,-251]],[[536,-258,-253,-384,-184]]],"type":"MultiPolygon","properties":{"geoid":"3908966396","name":"Reynoldsburg City"},"id":"3908966396"},{"arcs":[[-10,537,-504,-375,-238]],"type":"Polygon","properties":{"geoid":"3908969456","name":"St. Albans"},"id":"3908969456"},{"arcs":[[-31,-374,-434,538,-437,539,540]],"type":"Polygon","properties":{"geoid":"3904105774","name":"Berkshire"},"id":"3904105774"},{"arcs":[[-397,541,542,-394,-32,-541,543,544]],"type":"Polygon","properties":{"geoid":"3904105788","name":"Berlin"},"id":"3904105788"},{"arcs":[[[-543,545,-395]],[[546,-27,-392]],[[547,-390]],[[-399,548,549]],[[550,551,-388,552]],[[-401,553,554]]],"type":"MultiPolygon","properties":{"geoid":"3904121448","name":"Delaware"},"id":"3904121448"},{"arcs":[[-540,555,-217,556,557,558]],"type":"Polygon","properties":{"geoid":"3904129694","name":"Genoa"},"id":"3904129694"},{"arcs":[[-436,-106,559,-556]],"type":"Polygon","properties":{"geoid":"3904133516","name":"Harlem"},"id":"3904133516"},{"arcs":[[[-546,-542,-396]],[[-549,-398,-545,560,561,562,563,564,565,566,-125,567]]],"type":"MultiPolygon","properties":{"geoid":"3904143106","name":"Liberty"},"id":"3904143106"},{"arcs":[[[570,571,-446]],[[-544,-559,573,-450,574,-452,575,-561]]],"type":"MultiPolygon","properties":{"geoid":"3904158618","name":"Orange"},"id":"3904158618"},{"arcs":[[576,-310,577,-551,578,-130]],"type":"Polygon","properties":{"geoid":"3904165312","name":"Radnor"},"id":"3904165312"},{"arcs":[[-146,-131,-579,-553,-402,-555,579,580,-457]],"type":"Polygon","properties":{"geoid":"3904170842","name":"Scioto"},"id":"3904170842"},{"arcs":[[-433,-539]],"type":"Polygon","properties":{"geoid":"3904175620","name":"Sunbury Village"},"id":"3904175620"},{"arcs":[[-309,-201,-28,-547,-391,-548,-389,-552,-578]],"type":"Polygon","properties":{"geoid":"3904177560","name":"Troy"},"id":"3904177560"},{"arcs":[[581,582,-287,583,-179]],"type":"Polygon","properties":{"geoid":"3912715658","name":"Clayton"},"id":"3912715658"},{"arcs":[[-180,584,585,-476]],"type":"Polygon","properties":{"geoid":"3912737968","name":"Jackson"},"id":"3912737968"},{"arcs":[[-586,-359,586,-438,-243]],"type":"Polygon","properties":{"geoid":"3912751198","name":"Monday Creek"},"id":"3912751198"},{"arcs":[[-584,-286,-174,-116,-360,-585]],"type":"Polygon","properties":{"geoid":"3912762680","name":"Pike"},"id":"3912762680"},{"arcs":[[587,-336,-115,-178,-44,588]],"type":"Polygon","properties":{"geoid":"3912776659","name":"Thorn"},"id":"3912776659"},{"arcs":[[589,-216,-330,-325,-416]],"type":"Polygon","properties":{"geoid":"3912933978","name":"Harrison"},"id":"3912933978"},{"arcs":[[590,591,592,593]],"type":"Polygon","properties":{"geoid":"3912962008","name":"Perry"},"id":"3912962008"},{"arcs":[[594,595,596,597,598,599,-331,-21,-42,-409,600]],"type":"Polygon","properties":{"geoid":"3912981550","name":"Washington"},"id":"3912981550"},{"arcs":[[601,-329,-414,602,-593]],"type":"Polygon","properties":{"geoid":"3912921168","name":"Deercreek"},"id":"3912921168"},{"arcs":[[-186,-387,-479,603]],"type":"Polygon","properties":{"geoid":"3904977714","name":"Truro"},"id":"3904977714"},{"arcs":[[606]],"type":"Polygon","properties":{"geoid":"3904984742","name":"Whitehall"},"id":"3904984742"},{"arcs":[[-163,607,-165,608]],"type":"Polygon","properties":{"geoid":"3904916112","name":"Clinton"},"id":"3904916112"},{"arcs":[[[609,610,611,-566,612,613,614,-564,615,-562,-576,-451,-575,-449,-573,-447,-572,616,617,618,619,-222,620,-219,621,-161,-189,-159,-193,-254,-183,-259,-537,-187,-604,-472,-83,-478,-95,622,623,-93,624,-91,625,626,627,628,-60,629,-64,630,631,-349,632,-347,633,-293,-320,-301,634,-299,635,-297,636,-318,637,-491],[-76,638],[-79,-292,639],[640,-70,641,-68,642,-73,643,-75],[-344,-289,-343,644,645,-58,646,-340,647,-338,648],[-290,-67],[-65],[649,650,651,652,653,654,655],[656,-62],[661],[-164,-608,-162,-609],[-166],[-223],[662],[-607],[-605,-88],[-84]],[[-190,-157,-188,-155,664]]],"type":"MultiPolygon","properties":{"geoid":"3904918000","name":"Columbus"},"id":"3904918000"},{"arcs":[[-341,-647,-57,-646,665]],"type":"Polygon","properties":{"geoid":"3904931304","name":"Grandview Heights"},"id":"3904931304"},{"arcs":[[[-74,-644,-72,-643,-71,-641]],[[666,-631,-63,-630,-59,-629,667,-627,668,-415,-351]]],"type":"MultiPolygon","properties":{"geoid":"3904937772","name":"Jackson"},"id":"3904937772"},{"arcs":[[[-565,-615,674,-613]],[[675,-656]]],"type":"MultiPolygon","properties":{"geoid":"3904961840","name":"Perry"},"id":"3904961840"},{"arcs":[[-508,-589,-43,-421,-227]],"type":"Polygon","properties":{"geoid":"3904580570","name":"Walnut"},"id":"3904580570"},{"arcs":[[-382,-379,677,-425,-136,-484]],"type":"Polygon","properties":{"geoid":"3911728378","name":"Franklin"},"id":"3911728378"},{"arcs":[[678,-475,-480,-207,-19]],"type":"Polygon","properties":{"geoid":"3904535812","name":"Hocking"},"id":"3904535812"},{"arcs":[[-153,-372,679,-496,680,-15]],"type":"Polygon","properties":{"geoid":"3909721154","name":"Deer Creek"},"id":"3909721154"},{"arcs":[[-121,682]],"type":"Polygon","properties":{"geoid":"3904171976","name":"Shawnee Hills"},"id":"3904171976"},{"arcs":[[-521,-440,-368,-3,683,-518]],"type":"Polygon","properties":{"geoid":"3907381354","name":"Washington"},"id":"3907381354"},{"arcs":[[[-300,-635]],[[-296,-319,-637]],[[-431,684,-419,-126,-567,-612,-677,-610,-490]],[[-638,-317,-492]]],"type":"MultiPolygon","properties":{"geoid":"3904981242","name":"Washington"},"id":"3904981242"},{"arcs":[[-229,-420,-473,-679,-428]],"type":"Polygon","properties":{"geoid":"3904532060","name":"Greenfield"},"id":"3904532060"},{"arcs":[[-599,685,-597,686,-595,687]],"type":"Polygon","properties":{"geoid":"3912915070","name":"Circleville"},"id":"3912915070"},{"arcs":[[-16,-681,-497,-680,-493,-498,688,689]],"type":"Polygon","properties":{"geoid":"3909778428","name":"Union"},"id":"3909778428"},{"arcs":[[690,691,-364,-528,692]],"type":"Polygon","properties":{"geoid":"3908924332","name":"Eden"},"id":"3908924332"},{"arcs":[[-526,-268,693,-100,-357]],"type":"Polygon","properties":{"geoid":"3908933299","name":"Hanover"},"id":"3908933299"},{"arcs":[[[-667,-350,-632]],[[-291,-80,-640]],[[-77,-639]],[[-321,-294,-634,-346,-370]]],"type":"MultiPolygon","properties":{"geoid":"3904964570","name":"Prairie"},"id":"3904964570"},{"arcs":[[-469,-149,694,-462,695]],"type":"Polygon","properties":{"geoid":"3915976194","name":"Taylor"},"id":"3915976194"},{"arcs":[[[-623,-94,-624]],[[-628,-668]],[[-626,-99,-590,-669]]],"type":"MultiPolygon","properties":{"geoid":"3904933026","name":"Hamilton"},"id":"3904933026"},{"arcs":[[-218,-560,-240,-191,-665,-154,-622]],"type":"Polygon","properties":{"geoid":"3904962974","name":"Plain"},"id":"3904962974"},{"arcs":[[696,-37,-233,-470,-696,-461,697]],"type":"Polygon","properties":{"geoid":"3915987122","name":"York"},"id":"3915987122"},{"arcs":[[-463,-695,-148,-459,698,-453,-466,-168]],"type":"Polygon","properties":{"geoid":"3915959864","name":"Paris"},"id":"3915959864"},{"arcs":[[699,700,-417,-685,-430,-455]],"type":"Polygon","properties":{"geoid":"3915939046","name":"Jerome"},"id":"3915939046"},{"arcs":[[-458,-581,701,-700,-454,-699]],"type":"Polygon","properties":{"geoid":"3915950288","name":"Millcreek"},"id":"3915950288"},{"arcs":[[-489,-195,-488,-198]],"type":"Polygon","properties":{"geoid":"3904102582","name":"Ashley"},"id":"3904102582"},{"arcs":[[-513,-358,-337,-588,-507]],"type":"Polygon","properties":{"geoid":"3908943456","name":"Licking"},"id":"3908943456"},{"arcs":[[-515,702,-693,-527,-531,-277,-532,703]],"type":"Polygon","properties":{"geoid":"3908955580","name":"Newton"},"id":"3908955580"},{"arcs":[[[704,-619]],[[-662]],[[-655,-670,-653,-674,-673,-650,-676]]],"type":"MultiPolygon","properties":{"geoid":"3904971787","name":"Sharon"},"id":"3904971787"},{"arcs":[[705,-689,-500,-260,-502,706]],"type":"Polygon","properties":{"geoid":"3909759528","name":"Paint"},"id":"3909759528"},{"arcs":[[-516,-704,-536,-284,-505,-538]],"type":"Polygon","properties":{"geoid":"3908931416","name":"Granville"},"id":"3908931416"},{"arcs":[[-304,707,-691,-703,-514]],"type":"Polygon","properties":{"geoid":"3908981410","name":"Washington"},"id":"3908981410"},{"arcs":[[-587,-362,708,709,-406,-439]],"type":"Polygon","properties":{"geoid":"3912716350","name":"Coal"},"id":"3912716350"},{"arcs":[[-313,-138,-25,-210,-486]],"type":"Polygon","properties":{"geoid":"3911705508","name":"Bennington"},"id":"3911705508"},{"arcs":[[-335,710,-582,-113]],"type":"Polygon","properties":{"geoid":"3912746550","name":"Madison"},"id":"3912746550"},{"arcs":[[-499,-494,-53,711,712,-262]],"type":"Polygon","properties":{"geoid":"3909763338","name":"Pleasant"},"id":"3909763338"},{"arcs":[[713,-557,-220,-621,-221,-620,-705,-618]],"type":"Polygon","properties":{"geoid":"3904983342","name":"Westerville"},"id":"3904983342"},{"arcs":[[-361,-118,-173,714,-709]],"type":"Polygon","properties":{"geoid":"3912751520","name":"Monroe"},"id":"3912751520"},{"arcs":[[-663]],"type":"Polygon","properties":{"geoid":"3904906278","name":"Bexley"},"id":"3904906278"},{"arcs":[[-712,-52,-177,-323,-602,-592,715]],"type":"Polygon","properties":{"geoid":"3912951534","name":"Monroe"},"id":"3912951534"},{"arcs":[[-554,-400,-550,-568,-124,-682,-122,-683,-120,-418,-701,-702,-580]],"type":"Polygon","properties":{"geoid":"3904118140","name":"Concord"},"id":"3904118140"},{"arcs":[[[-598,-686]],[[-332,-600,-688,-601,-408,-412,-327]]],"type":"MultiPolygon","properties":{"geoid":"3912915077","name":"Circleville"},"id":"3912915077"},{"arcs":[[-571,-445,-570,-569,-442,-574,-558,-714,-617]],"type":"Polygon","properties":{"geoid":"3904183349","name":"Westerville City"},"id":"3904183349"},{"arcs":[[-342,-666,-645]],"type":"Polygon","properties":{"geoid":"3904947474","name":"Marble Cliff"},"id":"3904947474"}]}}}