{"type":"Topology","arcs":[[[55606,1505],[419,6346]],[[56025,7851],[5320,-344],[1639,-72]],[[62984,7435],[-439,-6369]],[[62545,1066],[-79,-1066],[-2326,118],[-4605,370],[71,1017]],[[52100,91917],[73,2698]],[[52173,94615],[6957,-125]],[[59130,94490],[-1,-55]],[[59129,94435],[-50,-6421]],[[59079,88014],[-4694,84]],[[54385,88098],[48,2167],[-1788,26],[14,1080],[-574,11],[15,535]],[[65772,42091],[6654,-377],[651,393]],[[73077,42107],[-589,-6896]],[[72488,35211],[-216,-2258]],[[72272,32953],[-2383,171],[-4602,249]],[[65287,33373],[485,8718]],[[15171,84674],[5896,79],[3795,45],[0,-450],[1,-2796]],[[24863,81552],[-4463,-508],[-3696,-472]],[[16704,80572],[-880,-112]],[[15824,80460],[-266,1357],[-387,2857]],[[85406,16954],[73,1050]],[[85479,18004],[2182,-99],[-43,-1083],[4646,-284]],[[92264,16538],[-112,-1714],[88,-420]],[[92240,14404],[-524,32]],[[91716,14436],[-6409,412]],[[85307,14848],[99,2106]],[[87112,40840],[12,0]],[[87124,40840],[4395,-288],[-471,-6560]],[[91048,33992],[-4355,279]],[[86693,34271],[419,6569]],[[60768,56275],[5878,-355]],[[66646,55920],[-388,-5578]],[[66258,50342],[-14,1]],[[66244,50343],[-5836,327]],[[60408,50670],[360,5605]],[[50258,78791],[1201,-70]],[[51459,78721],[4691,-236]],[[56150,78485],[-390,-5344]],[[55760,73141],[-5850,326]],[[49910,73467],[-70,298],[253,2227],[165,2799]],[[56484,83995],[5980,-303]],[[62464,83692],[-313,-5516]],[[62151,78176],[-6001,309]],[[56150,78485],[334,5510]],[[92264,16538],[197,3190]],[[92461,19728],[3498,-54],[66,987]],[[96025,20661],[3498,-218]],[[99523,20443],[-468,-6478],[-487,45],[-6328,394]],[[6783,69935],[482,5316]],[[7265,75251],[1595,-327],[299,1387],[1489,-376],[-198,-837],[1535,-293],[-54,-523],[1353,-271]],[[13284,74011],[816,-163],[-610,-2370],[226,-1420],[683,61],[-177,-850],[116,-1002]],[[14338,68267],[-2322,-203]],[[12016,68064],[-336,597],[-1326,-753],[-793,1185],[-1907,-1177],[-932,1308]],[[6722,69224],[61,711]],[[42692,95019],[6020,92]],[[48712,95111],[-62,-2823]],[[48650,92288],[-1205,25],[-62,-3812]],[[47383,88501],[-4706,62]],[[42677,88563],[15,6456]],[[46052,82910],[1467,-95],[110,1361],[751,86]],[[48380,84262],[1095,-210],[2253,-169]],[[51728,83883],[-122,-3106],[-147,-2056]],[[50258,78791],[-4761,267]],[[45497,79058],[185,2826],[292,-16],[78,1042]],[[63701,20435],[626,-27],[186,3757]],[[64513,24165],[307,590],[1191,69],[22,569],[932,240],[1645,-91],[42,656],[645,-23],[28,423]],[[69325,26598],[2409,-150]],[[71734,26448],[-346,-4230]],[[71388,22218],[-356,-4357]],[[71032,17861],[-7453,426]],[[63579,18287],[122,2148]],[[50269,21311],[6840,-501]],[[57109,20810],[-449,-5450]],[[56660,15360],[-77,-1082]],[[56583,14278],[-6840,521]],[[49743,14799],[526,6512]],[[5479,36043],[399,1451]],[[5878,37494],[2086,-66],[304,-777],[2963,-664],[742,93],[440,-1765],[1636,-1932]],[[14049,32383],[165,-237]],[[14214,32146],[-1009,-167],[-2024,-597],[-587,-1220]],[[10594,30162],[-2577,163],[-154,536],[-3675,276]],[[4188,31137],[1291,4906]],[[92954,27300],[3607,-198]],[[96561,27102],[3438,-222],[-476,-6437]],[[96025,20661],[190,3281],[-3472,138]],[[92743,24080],[211,3220]],[[91365,20904],[227,3235],[1151,-59]],[[92461,19728],[-1141,61],[45,1115]],[[67406,67133],[4855,-277],[-72,-1399],[891,-48]],[[73080,65409],[-282,-4300]],[[72798,61109],[-5796,321]],[[67002,61430],[404,5703]],[[83706,49143],[5828,-233]],[[89534,48910],[-5,-117],[-242,-5219],[-2023,65]],[[87264,43639],[-3855,178]],[[83409,43817],[297,5326]],[[55055,62114],[6051,-330]],[[61106,61784],[-338,-5509]],[[60768,56275],[-6045,303]],[[54723,56578],[332,5536]],[[72514,52570],[339,-17]],[[72853,52553],[97,-4]],[[72950,52549],[824,846],[531,313],[-482,464],[152,736],[656,238]],[[74631,55146],[-182,12]],[[74449,55158],[-206,11]],[[74243,55169],[-97,4]],[[74146,55173],[-311,13]],[[73835,55186],[1436,593],[599,641],[1040,-71],[487,148],[-277,-1506]],[[77120,54991],[-200,15]],[[76920,55006],[-427,29]],[[76493,55035],[-28,-1526],[443,-25],[365,-576],[561,-338],[448,257]],[[78282,52827],[165,-361],[776,97],[866,-409],[-222,-926],[-832,-92],[-448,379],[-460,-378]],[[78127,51137],[-721,-457],[-26,-415],[-3035,199],[-2307,-831]],[[72038,49633],[-363,328]],[[71675,49961],[-723,383],[179,1188],[465,-203],[1049,-61],[116,747],[-247,555]],[[73080,65409],[5062,-258],[979,-53]],[[79121,65098],[-315,-4910]],[[78806,60188],[-6047,339]],[[72759,60527],[39,582]],[[62984,7435],[7221,-429]],[[70205,7006],[-299,-4474]],[[69906,2532],[-191,-1947],[-7170,481]],[[84661,14878],[646,-30]],[[91716,14436],[-505,-6682],[-6938,488]],[[84273,8242],[388,6636]],[[25136,33146],[8,235]],[[25144,33381],[5552,-299]],[[30696,33082],[-993,-410],[-13,-458],[783,-714],[882,-36],[-165,-1242],[-619,-978],[850,-489],[543,-49],[287,-463],[-400,-796]],[[31851,27447],[-2644,-29],[792,-1677]],[[29999,25741],[-5311,307]],[[24688,26048],[448,7098]],[[56583,14278],[-565,-6373]],[[56018,7905],[-569,-21],[-6200,395]],[[49249,8279],[494,6520]],[[35907,46617],[706,-147]],[[36613,46470],[-55,-897]],[[36558,45573],[-651,1044]],[[45459,45724],[289,338],[2550,196],[67,-690],[411,-889],[391,-68],[-50,-705],[-1107,38],[4,-309],[-2074,137],[48,1797],[-529,155]],[[37947,64741],[588,24],[47,751],[-584,90]],[[37998,65606],[16,280]],[[38014,65886],[135,2422]],[[38149,68308],[868,-531],[-124,818]],[[38893,68595],[5166,-238]],[[44059,68357],[-374,-5566]],[[43685,62791],[-5831,312]],[[37854,63103],[93,1638]],[[29665,58357],[1410,240],[170,485]],[[31245,59082],[715,-409]],[[31960,58673],[40,-127]],[[32000,58546],[145,92]],[[32145,58638],[431,-691]],[[32576,57947],[165,-309]],[[32741,57638],[-3065,214]],[[29676,57852],[-11,505]],[[33125,79610],[5701,-237]],[[38826,79373],[-78,-1104]],[[38748,78269],[-103,-1538]],[[38645,76731],[-5722,279]],[[32923,77010],[202,2600]],[[53640,45506],[346,-12]],[[53986,45494],[292,-9]],[[54278,45485],[337,-31]],[[54615,45454],[610,-32]],[[55225,45422],[4808,-277]],[[60033,45145],[4128,-196],[-145,-2784]],[[64016,42165],[-5325,304]],[[58691,42469],[-5237,325]],[[53454,42794],[186,2712]],[[79016,28201],[1870,-152],[5326,-337]],[[86212,27712],[-484,-6484]],[[85728,21228],[-7232,491]],[[78496,21719],[520,6482]],[[54636,45806],[589,-384]],[[54615,45454],[21,352]],[[54057,46307],[0,13]],[[54057,46320],[579,-514]],[[54636,45806],[-358,-321]],[[53986,45494],[71,813]],[[42657,83583],[20,4980]],[[47383,88501],[-14,-1082],[1144,-27],[-133,-3130]],[[46052,82910],[-3326,225],[-69,448]],[[52438,40674],[286,-17]],[[52724,40657],[-204,-2277]],[[52520,38380],[-527,433],[86,1018],[364,46],[-5,797]],[[51030,39035],[-136,730],[601,-40],[-36,-546],[-429,-144]],[[48040,40927],[90,1]],[[48130,40928],[-90,-1]],[[48438,40930],[770,-54]],[[49208,40876],[-77,-995],[-661,-864],[-603,534],[-1570,873],[1105,162],[1036,344]],[[44366,38755],[-5,-75]],[[44361,38680],[5,75]],[[44072,34140],[-35,-388]],[[44037,33752],[35,388]],[[44032,33695],[64,741]],[[44096,34436],[9,249]],[[44105,34685],[35,766]],[[44140,35451],[219,3198]],[[44359,38649],[1159,-436],[751,3],[54,743],[1545,-107],[827,-854],[332,519],[1194,184],[-46,-1652],[1654,62],[649,315]],[[52478,37426],[-250,-3271]],[[52228,34155],[-1168,97],[-169,-2167]],[[50891,32085],[-6965,445]],[[43926,32530],[106,1165]],[[71734,26448],[184,2235]],[[71918,28683],[4754,-328]],[[76672,28355],[2344,-154]],[[78496,21719],[-7108,499]],[[63423,14984],[156,3303]],[[71032,17861],[-150,-2086]],[[70882,15775],[-167,-2300]],[[70715,13475],[-7349,434]],[[63366,13909],[57,1075]],[[31851,27447],[2957,59],[708,-1987]],[[35516,25519],[850,-2396],[-3411,-1531]],[[32955,21592],[-867,-371],[-2089,4520]],[[51675,42236],[904,-85],[550,-375],[47,-905],[-452,-214]],[[52438,40674],[-862,48],[99,1514]],[[8170,84576],[6234,85],[767,13]],[[15824,80460],[-8144,-876]],[[7680,79584],[490,4992]],[[61106,61784],[5896,-354]],[[67002,61430],[-356,-5510]],[[50557,27752],[1,18]],[[50558,27770],[7066,-529]],[[57624,27241],[-515,-6431]],[[50269,21311],[-198,12]],[[50071,21323],[486,6429]],[[55760,73141],[-357,-5375]],[[55403,67766],[-5849,313]],[[49554,68079],[356,5388]],[[57109,20810],[3642,-244],[2950,-131]],[[63423,14984],[-6763,376]],[[52535,99981],[51,0],[224,-1]],[[52810,99980],[-41,-357],[-238,0],[4,358]],[[62151,78176],[-349,-5370],[-6042,335]],[[77906,44174],[5503,-357]],[[87264,43639],[-140,-2799]],[[87112,40840],[-7078,402]],[[80034,41242],[-2330,152]],[[77704,41394],[202,2780]],[[70715,13475],[-349,-4383]],[[70366,9092],[-161,-2086]],[[62984,7435],[195,2655],[187,3819]],[[32775,39829],[-23,-677]],[[32752,39152],[-8,0]],[[32744,39152],[31,677]],[[32532,39148],[-212,4]],[[32320,39152],[212,-4]],[[32414,46086],[47,10]],[[32461,46096],[7,-9]],[[32468,46087],[-54,-1]],[[32774,45109],[-15,-2313]],[[32759,42796],[-1180,259],[-472,622],[1,790],[1630,106],[36,536]],[[25034,44826],[1124,558],[532,-750],[923,668],[640,3],[-78,-745],[982,122],[-91,1073]],[[29066,45755],[122,-32]],[[29188,45723],[439,-51]],[[29627,45672],[590,-26]],[[30217,45646],[-365,-156],[-365,-2330],[929,-909],[-1238,-766],[924,-193],[607,350],[33,-885],[403,-446],[-533,-1092]],[[30612,39219],[-1030,32],[-2426,1741],[-1209,980]],[[25947,41972],[306,275],[-382,932],[-604,570],[94,560],[-327,517]],[[32261,68612],[517,319],[-165,1319],[352,276],[95,1127]],[[33060,71653],[246,-16]],[[33306,71637],[-53,-601],[565,-43],[54,606]],[[33872,71599],[848,-51],[491,313],[474,-356]],[[35685,71505],[-355,-910],[779,-55],[381,-422],[717,319],[441,-436],[590,-35]],[[38238,69966],[-28,-537]],[[38210,69429],[-10,-183]],[[38200,69246],[693,-651]],[[38149,68308],[-495,276],[-829,84],[-736,-340],[180,-1505],[-56,-452],[653,-425]],[[36866,65946],[1,-351],[1131,11]],[[37947,64741],[-646,34],[-925,1190]],[[36376,65965],[-535,538],[-2644,155]],[[33197,66658],[-36,424]],[[33161,67082],[-75,428],[-599,33],[-273,364]],[[32214,67907],[47,705]],[[378,30459],[3515,-312],[295,990]],[[10594,30162],[-2219,-4464]],[[8375,25698],[-811,64],[-7564,540],[378,4157]],[[59130,94490],[56,5374]],[[59186,99864],[3801,-88],[63,-3204],[-1155,22],[53,-2161]],[[61948,94433],[-2819,2]],[[78452,54889],[347,5189]],[[78799,60078],[3947,-209],[1447,-35]],[[84193,59834],[-213,-5289]],[[83980,54545],[-5531,310]],[[78449,54855],[3,34]],[[43148,78064],[23,-1]],[[43171,78063],[181,-9]],[[43352,78054],[772,-41]],[[44124,78013],[-508,-242],[-261,-544],[-1052,66],[33,492],[812,279]],[[32174,67262],[987,-180]],[[33197,66658],[95,-560]],[[33292,66098],[-327,-5452],[-804,43],[27,-1340],[388,-1402]],[[32145,58638],[-145,-92]],[[31960,58673],[-13,938],[-749,-183],[47,-346]],[[29665,58357],[0,20]],[[29665,58377],[-75,3547]],[[29590,61924],[-65,3418],[-1225,11]],[[28300,65353],[-102,669],[2485,259],[490,1043],[1001,-62]],[[49456,66799],[-114,-1758]],[[49342,65041],[-531,-713],[-1252,573],[234,515],[-731,35],[93,624],[902,422],[1172,25],[227,277]],[[30696,33082],[2019,-47]],[[32715,33035],[6586,-254]],[[39301,32781],[-17,-1037],[475,-1608],[-64,-1230],[315,-447],[-974,-709],[8,-400],[662,-56],[-418,-689],[-30,-936],[245,-294]],[[39503,25375],[-3987,144]],[[41944,57246],[5273,-269]],[[47217,56977],[9,-1]],[[47226,56976],[-229,-497],[10,-1293],[434,-715],[-579,-250]],[[46862,54221],[-77,-180]],[[46785,54041],[-815,16],[-1207,773],[-729,71]],[[44034,54901],[-810,571]],[[43224,55472],[36,620],[-902,432],[-510,34]],[[41848,56558],[96,688]],[[72853,52553],[97,-4]],[[66646,55920],[5761,-332]],[[72407,55588],[-30,-334]],[[72377,55254],[-160,-2667],[297,-17]],[[71675,49961],[-5417,381]],[[78282,52827],[167,2028]],[[83980,54545],[-1,-50]],[[83979,54495],[-271,-5281]],[[83708,49214],[-4962,272]],[[78746,49486],[-147,657],[-546,110],[74,884]],[[16339,51541],[227,24]],[[16566,51565],[1629,-3690]],[[18195,47875],[205,-1502],[-1196,-631],[34,-562]],[[17238,45180],[-1206,570],[-1758,1016],[-1669,1643]],[[12605,48409],[-2503,2532]],[[10102,50941],[6237,600]],[[28337,79873],[4788,-263]],[[32923,77010],[-434,-5319]],[[32489,71691],[-131,-1748]],[[32358,69943],[-2549,177],[-36,762],[-324,1149],[-448,796]],[[29001,72827],[12,627],[-365,1034],[-321,1615],[-211,500],[-94,1724],[311,422],[4,1124]],[[16566,51565],[1604,171],[116,1757],[2491,-164],[6465,-506]],[[27242,52823],[-31,-302]],[[27211,52521],[-14,-132]],[[27197,52389],[-20,-296]],[[27177,52093],[-99,-1274],[-2556,85],[83,-638],[-223,-578],[207,-321],[65,-1486],[-148,-247]],[[24506,47634],[-4504,240],[-1807,1]],[[38238,69966],[79,1396]],[[38317,71362],[158,2723]],[[38475,74085],[5950,-314]],[[44425,73771],[-366,-5412]],[[44059,68359],[0,-2]],[[38200,69246],[10,183]],[[49456,66799],[98,1280]],[[55403,67766],[-348,-5652]],[[55055,62114],[-5908,360]],[[49147,62474],[195,2567]],[[24254,19101],[26,556]],[[24280,19657],[588,-395],[478,-869],[540,112],[-107,536],[657,439],[851,-549],[310,169],[919,-267],[158,-846],[883,533],[580,-247],[232,512]],[[30369,18785],[-432,-7635]],[[29937,11150],[-6207,301],[524,7650]],[[51452,51210],[-132,-1]],[[51320,51209],[-559,29]],[[50761,51238],[-33,2]],[[50728,51240],[-871,45]],[[49857,51285],[1595,-75]],[[27211,52521],[523,46],[283,-379],[1723,255],[635,284],[724,-21],[193,420],[773,-206],[1063,-34],[-23,904],[353,342]],[[33458,54132],[23,113]],[[33481,54245],[983,-47],[128,3368]],[[34592,57566],[1594,-69]],[[36186,57497],[278,-1211],[1064,95]],[[37528,56381],[30,686]],[[37558,57067],[-902,-35],[-76,448]],[[36580,57480],[996,-36]],[[37576,57444],[220,-9]],[[37796,57435],[362,-11]],[[38158,57424],[1250,-55]],[[39408,57369],[2049,-100]],[[41457,57269],[406,-19]],[[41863,57250],[28,-2]],[[41891,57248],[29,-1]],[[41920,57247],[24,-1]],[[41848,56558],[-207,-950],[552,-331],[1031,195]],[[44034,54901],[141,-432],[771,-937],[466,-179],[1068,-55],[305,743]],[[46862,54221],[296,-262],[768,-45],[260,580],[59,1082],[488,63]],[[48733,55639],[267,-260],[609,342],[220,-548],[673,450],[505,-112],[23,-959],[329,-556],[-312,-502],[-810,-92],[191,-766],[-640,42],[-62,-1388]],[[49726,51290],[-2785,145],[-54,-759],[-543,-75],[-382,-1634],[-412,11],[-64,-1117],[660,166],[1421,-235],[608,-371],[-9,-369],[712,-248],[-40,-502],[762,76]],[[49600,46378],[140,53]],[[49740,46431],[1600,459]],[[51340,46890],[405,-410],[542,33],[162,896],[475,-28],[54,608],[588,-33],[568,-362]],[[54134,47594],[-28,-448]],[[54106,47146],[-48,-819]],[[54058,46327],[-1,-7]],[[54057,46307],[-1725,-230],[-132,-475]],[[52200,45602],[-1756,84],[215,-1114],[-200,-1239],[52,-792],[403,-315],[761,10]],[[52520,38380],[-42,-954]],[[44359,38649],[2,31]],[[44366,38755],[18,265],[-1909,110],[58,-1085],[-759,-164],[-497,372],[-476,-380],[-75,-1256],[543,-35],[-127,-1188],[181,-553],[645,-23],[132,1058],[1684,-139],[356,-286]],[[44105,34685],[-9,-249]],[[44032,33695],[-588,342],[-821,124],[-342,-831],[-664,-70],[-1015,510],[-237,-543],[-1273,76]],[[39092,33303],[-727,-204],[-264,962],[963,-78],[332,192]],[[39396,34175],[623,78],[81,727],[-611,258]],[[39489,35238],[-593,980],[170,604],[-362,214],[-114,839],[423,574],[-595,400],[60,902],[-625,-229],[-7,661]],[[37846,40183],[-383,95]],[[37463,40278],[-164,-678],[-1197,435],[145,408],[-955,90],[-205,239]],[[35087,40772],[-207,42]],[[34880,40814],[-1032,-805],[-688,317],[-385,-497]],[[32744,39152],[-212,-4]],[[32320,39152],[-727,-166],[-104,-342],[-881,-66],[4,641]],[[30217,45646],[-590,26]],[[29188,45723],[-129,189]],[[29059,45912],[-17,204]],[[29042,46116],[-38,859],[544,-28],[27,582],[-702,451]],[[28873,47980],[-2,12]],[[28871,47992],[565,586],[468,-185],[-35,-684],[793,212],[39,445],[1073,253],[885,0],[217,992],[951,-690],[409,521],[-136,504],[26,1123],[-583,725],[-235,-553],[-663,-114],[-484,219],[-129,611]],[[32032,51957],[-457,258],[-906,-47],[-56,-735]],[[30613,51433],[-202,-54]],[[30411,51379],[-562,-51]],[[29849,51328],[-718,-14]],[[29131,51314],[-252,712],[-546,45]],[[28333,52071],[-896,111]],[[27437,52182],[-240,207]],[[32759,42796],[492,229]],[[33251,43025],[38,1580],[-515,504]],[[32468,46087],[504,105]],[[32972,46192],[-146,-20],[-413,-80],[1,-6]],[[33193,41046],[55,-277],[763,-42],[-77,337]],[[33934,41064],[-181,49]],[[33753,41113],[-497,-69]],[[33256,41044],[-63,2]],[[33688,52100],[491,-839],[401,-3009],[371,-477]],[[34951,47775],[108,-67]],[[35059,47708],[848,-1091]],[[36558,45573],[2207,-388],[-267,879],[-1672,89],[-157,315]],[[36669,46468],[442,229],[180,3587],[-250,617],[-717,192],[-1315,602]],[[35009,51695],[-332,37]],[[34677,51732],[-973,379]],[[33704,52111],[-16,-11]],[[34656,46811],[-152,-62]],[[34504,46749],[65,-762],[461,75],[-374,749]],[[34325,44693],[1585,101],[-1105,509],[-480,-610]],[[36827,54258],[58,-318]],[[36885,53940],[43,-238]],[[36928,53702],[388,-220]],[[37316,53482],[107,-4]],[[37423,53478],[1538,-519],[1068,-49],[-103,886],[344,-9],[8,1601],[-1205,347],[-1347,-245],[-428,-575],[-595,23]],[[36703,54938],[-1076,-62],[-35,-805],[1084,-125],[151,312]],[[36872,40400],[14,5]],[[36886,40405],[255,826],[690,15],[4,-645],[657,-332],[584,823],[-91,827],[-1134,15],[-78,326],[1319,-146],[-429,1053],[-1108,-149],[-480,-457],[31,-598],[-418,-444],[-37,-835],[221,-284]],[[37324,51588],[16,182]],[[37340,51770],[-16,-182]],[[37367,52051],[306,393],[1154,-109],[64,296],[-1211,99],[-313,-679]],[[42883,49824],[31,183]],[[42914,50007],[13,723]],[[42927,50730],[1,28]],[[42928,50758],[-598,33],[-161,-916],[714,-51]],[[42774,48267],[588,541],[-516,455],[-72,-996]],[[43054,52682],[1272,-67],[84,576],[-1311,122],[-45,-631]],[[43171,44892],[468,64],[-1,-1522],[1052,-66],[154,2164],[-254,412],[-833,-69],[-586,-983]],[[44072,34140],[-35,-388]],[[49208,40876],[-770,54]],[[48130,40928],[-90,-1]],[[91048,33992],[2308,-145]],[[93356,33847],[-141,-2164],[-1114,65],[-273,-4381]],[[91828,27367],[-5616,345]],[[86212,27712],[481,6559]],[[54723,56578],[-5917,306]],[[48806,56884],[341,5590]],[[58691,42469],[-589,-8696]],[[58102,33773],[-5874,382]],[[51675,42236],[42,669],[1737,-111]],[[85728,21228],[-249,-3224]],[[85406,16954],[-2312,113],[-4927,342]],[[78167,17409],[329,4310]],[[24608,24715],[80,1333]],[[32955,21592],[-159,-3329]],[[32796,18263],[-1267,268],[-366,545],[-794,-291]],[[24280,19657],[328,5058]],[[48712,95111],[89,4340],[6,548],[3480,-13]],[[52287,99986],[-114,-5371]],[[52100,91917],[-3459,18],[9,353]],[[14214,32146],[755,-232],[549,-477],[744,75],[467,-800],[858,-195],[382,-316],[1726,1212]],[[19695,31413],[-259,-6385]],[[19436,25028],[-3139,153],[-4467,245],[-3455,272]],[[36872,40400],[14,5]],[[33193,41046],[63,-2]],[[33753,41113],[181,-49]],[[34880,40814],[207,-42]],[[37463,40278],[383,-95]],[[39489,35238],[-93,-1063]],[[39092,33303],[209,-522]],[[32715,33035],[132,2444],[-201,1419],[106,2254]],[[55403,67766],[6038,-298]],[[61441,67468],[-335,-5684]],[[34504,46749],[152,62]],[[32461,46096],[511,96]],[[6754,41088],[355,1326],[1528,5589],[-212,59],[292,2708]],[[8717,50770],[1385,171]],[[12605,48409],[-291,-3213],[-309,-4271]],[[12005,40925],[-1906,852],[-3345,-689]],[[39301,32781],[4625,-251]],[[43926,32530],[-250,-4393],[1571,-83]],[[45247,28054],[-446,-1386],[-975,-967],[-608,243],[-486,-182],[-894,91],[-323,-838],[269,-1247],[-871,-153]],[[40913,23615],[-503,731],[-775,672],[-132,357]],[[24506,47634],[-416,-165],[906,-1146],[-246,-309],[284,-1188]],[[25947,41972],[-1314,-828],[79,-1027]],[[24712,40117],[-5244,-266]],[[19468,39851],[-63,1712],[-478,1570],[-1523,97],[-166,1950]],[[9184,55513],[6821,-79]],[[16005,55434],[634,-7]],[[16639,55427],[-300,-3886]],[[8717,50770],[467,4743]],[[19695,31413],[693,498],[1306,403]],[[21694,32314],[1372,-263],[388,339],[378,-514],[1304,1270]],[[24608,24715],[-5172,313]],[[12005,40925],[266,-120]],[[12271,40805],[-214,-651],[-532,-250],[455,-465],[-634,-521],[-615,-232],[-16,-734],[1018,365],[333,-676],[1473,-328],[-88,549],[-437,280],[789,654],[1460,67],[321,471]],[[15584,39334],[2435,79],[1449,438]],[[19468,39851],[-35,-1785]],[[19433,38066],[-2354,-912],[-2921,-1287],[-81,-1158],[899,-802],[-563,-1435],[-364,-89]],[[5878,37494],[876,3594]],[[57624,27241],[1340,-81]],[[58964,27160],[9,-530],[684,78],[993,-207],[49,548],[609,-35],[384,-322],[715,-98],[-95,-1201],[1084,-38],[711,-263],[-67,-835],[473,-92]],[[64016,42165],[1756,-74]],[[65287,33373],[-350,16]],[[64937,33389],[-6835,381]],[[58102,33770],[0,3]],[[93356,33847],[3653,-190],[-228,-3351],[-220,-3204]],[[92954,27300],[-1126,67]],[[91365,20904],[-5637,324]],[[15908,62059],[3470,454],[114,-691],[643,-333],[1009,214]],[[21144,61703],[115,-742],[456,45]],[[21715,61006],[-629,-361],[1411,-2156],[101,-713],[-388,-245],[-53,-2173]],[[22157,55358],[-5518,69]],[[16005,55434],[-190,316],[370,524],[67,743],[-291,624],[329,433],[-459,306],[298,399],[-406,709],[898,522],[-587,963],[-126,1086]],[[59079,88014],[2950,-38]],[[62029,87976],[-2,-2065],[592,71],[-155,-2290]],[[56484,83995],[95,1245],[-3484,-441]],[[53095,84799],[86,3319],[1204,-20]],[[52287,99986],[248,-5]],[[52810,99980],[291,-3],[3749,-68],[2336,-13],[0,-32]],[[44720,77982],[67,1104],[710,-28]],[[49910,73467],[-5485,304]],[[44425,73771],[295,4211]],[[38826,79373],[247,3755],[3584,455]],[[44720,77982],[-596,31]],[[43352,78054],[-181,9]],[[43148,78064],[-4400,205]],[[21715,61006],[49,6]],[[21764,61012],[928,100]],[[22692,61112],[2132,208],[481,-252],[816,-1237],[549,309],[-109,1199],[1184,398],[1845,187]],[[29665,58377],[-320,961],[-592,-420],[351,-1800]],[[29104,57118],[169,-1757],[-932,-147]],[[28341,55214],[-899,22]],[[27442,55236],[-5285,122]],[[17566,76116],[1420,-260]],[[18986,75856],[-902,-4177],[230,-43],[138,-1460],[570,73],[101,-1568]],[[19123,68681],[-4785,-414]],[[13284,74011],[236,997],[2088,-392],[226,1051],[1572,-238],[160,687]],[[9247,56594],[363,5365]],[[9610,61959],[1394,-347],[1206,760],[1737,-660],[-535,756],[1084,747]],[[14496,63215],[832,-1204],[580,48]],[[9184,55513],[63,1081]],[[7397,76635],[283,2949]],[[16704,80572],[-274,-2733],[413,-812],[870,-114],[-147,-797]],[[7265,75251],[132,1384]],[[79121,65098],[4906,-123],[214,-3]],[[84241,64972],[-48,-5138]],[[78799,60078],[7,110]],[[77919,48740],[779,215],[48,531]],[[83708,49214],[-2,-71]],[[77906,44174],[-316,613],[329,3953]],[[66244,50343],[-343,-5482],[-129,-2770]],[[60033,45145],[85,1191],[846,-526],[97,1490],[879,-56],[35,628],[-555,307],[32,494],[-582,232],[-604,-413],[142,2178]],[[77919,48740],[69,805],[-1614,125],[-555,-1322],[-947,71],[-1592,-785]],[[73280,47634],[-1083,-971],[-1040,-259],[41,600],[-486,305],[517,710],[702,-170],[107,1784]],[[60408,50670],[-6032,368]],[[54376,51038],[347,5540]],[[77704,41394],[-1917,126],[30,406],[-2740,181]],[[73077,42107],[167,2379],[-596,39],[141,656],[-249,962],[-302,189],[713,656],[329,646]],[[76493,55035],[427,-29]],[[77120,54991],[1332,-102]],[[72377,55254],[1458,-68]],[[74146,55173],[97,-4]],[[74449,55158],[182,-12]],[[72407,55588],[352,4939]],[[54058,46327],[48,819]],[[54134,47594],[242,3444]],[[84661,14878],[-6648,395]],[[78013,15273],[154,2136]],[[70882,15775],[6927,-488]],[[77809,15287],[-353,-5035],[-76,-1578]],[[77380,8674],[-7014,418]],[[56025,7851],[-7,54]],[[77380,8674],[8,-1]],[[77388,8673],[-592,-6551]],[[76796,2122],[-6890,410]],[[45295,19912],[-23,-501]],[[45272,19411],[-771,-708],[734,-34]],[[45235,18669],[-12,-271]],[[45223,18398],[-34,-618]],[[45189,17780],[473,199],[-102,542],[868,-261],[-64,-880],[-638,-620],[-603,-47]],[[45123,16713],[-2057,-41],[-86,-423],[909,-66],[-73,-439],[-1024,30],[-33,929],[488,1701],[-751,47],[12,1351],[887,-569],[514,785],[1386,-106]],[[32796,18263],[3556,-122]],[[36352,18141],[-285,-7245]],[[36067,10896],[-6130,254]],[[42023,15236],[3017,-154]],[[45040,15082],[4703,-283]],[[49249,8279],[-4035,241],[-5001,252],[191,599],[902,156],[102,784],[-357,437],[-494,-27]],[[40557,10721],[-968,848],[-3,1997],[189,581],[2248,1089]],[[44059,68359],[5495,-280]],[[49147,62474],[-5462,317]],[[42704,58109],[-171,-182]],[[42533,57927],[-132,-149]],[[42401,57778],[-88,-98]],[[42313,57680],[-259,-288]],[[42054,57392],[-163,-144]],[[41863,57250],[-406,19]],[[39408,57369],[331,1167],[1690,-274],[530,89],[745,-242]],[[48806,56884],[-1580,92]],[[47217,56977],[78,879],[-929,183],[-1464,76],[-1502,246]],[[43400,58361],[285,4430]],[[38475,74085],[170,2646]],[[24787,75520],[57,4608]],[[24844,80128],[3493,-255]],[[29001,72827],[-4218,326]],[[24783,73153],[4,2367]],[[38317,71362],[-2632,143]],[[33872,71599],[-566,38]],[[33060,71653],[-571,38]],[[27177,52093],[260,89]],[[28333,52071],[48,-416]],[[28381,51655],[490,-3663]],[[28873,47980],[169,-1864]],[[29059,45912],[7,-157]],[[42928,50758],[-1,-28]],[[42914,50007],[-31,-183]],[[49726,51290],[131,-5]],[[50728,51240],[33,-2]],[[51320,51209],[43,-877],[-1687,256],[-201,-833],[-473,-76],[-446,-830],[392,-266],[1373,-91],[-68,-1078],[822,-51],[265,-473]],[[49740,46431],[-140,-53]],[[48733,55639],[73,1245]],[[54376,51038],[-2924,172]],[[52200,45602],[1440,-96]],[[34677,51732],[332,-37]],[[36669,46468],[-56,2]],[[35059,47708],[-108,67]],[[33688,52100],[16,11]],[[41920,57247],[134,145]],[[42313,57680],[88,98]],[[42401,57778],[132,149]],[[42704,58109],[696,252]],[[15584,39334],[306,211],[-370,857],[-1092,369],[-580,486],[-380,-455],[-695,272],[-502,-269]],[[38158,57424],[-543,789],[239,4890]],[[53095,84799],[-1328,-158],[-39,-758]],[[12016,68064],[94,-836],[1978,-2795],[390,-673],[18,-545]],[[9610,61959],[140,1992],[-3489,289],[461,4984]],[[77809,15287],[204,-14]],[[84273,8242],[-264,-7],[-6621,438]],[[58964,27160],[803,-48],[39,538],[423,513],[1431,-92],[323,223],[131,852],[914,-52],[-88,-454],[443,-373],[733,24],[554,-862]],[[64670,27429],[284,1024],[962,124],[-35,-1148],[590,140],[90,1794],[1154,-288],[100,-909],[-382,-1053],[343,-426],[1549,-89]],[[83979,54495],[5800,-178]],[[89779,54317],[-245,-5407]],[[28381,51655],[750,-341]],[[29849,51328],[562,51]],[[30613,51433],[1419,524]],[[45223,18398],[-34,-618]],[[45272,19411],[-37,-742]],[[41310,21733],[4109,-163]],[[45419,21570],[-124,-1658]],[[45123,16713],[-83,-1631]],[[42023,15236],[310,182],[-50,633],[-485,922],[172,622],[826,-114],[12,418]],[[42808,17899],[-338,558],[-56,1603],[-1104,1673]],[[45419,21570],[4652,-247]],[[84273,8242],[-568,-6567],[-6909,447]],[[29676,57852],[-21,-2665],[-1314,27]],[[36866,65946],[1148,-60]],[[33292,66098],[3084,-133]],[[37796,57435],[-220,9]],[[36580,57480],[-394,17]],[[34592,57566],[-1851,72]],[[32358,69943],[-97,-1331]],[[32214,67907],[-40,-645]],[[28300,65353],[-2877,7]],[[25423,65360],[-569,-2],[-60,5278]],[[24794,70636],[-11,2517]],[[72488,35211],[4654,-308]],[[77142,34903],[-40,-1078],[-430,-5470]],[[71918,28683],[354,4270]],[[24863,81552],[-19,-1424]],[[24787,75520],[-587,-136],[-148,477],[-2961,-608],[-689,340],[-1416,263]],[[36352,18141],[6456,-242]],[[40557,10721],[-4239,166],[-251,9]],[[19433,38066],[-491,-1589],[494,-479],[-389,-594],[-18,-585],[1659,-693],[435,39],[571,-1851]],[[84193,59834],[4887,-113],[925,-86]],[[90005,59635],[-4,-21],[-222,-5297]],[[24794,70636],[-1595,-147],[80,-779],[-1609,-159],[58,-653],[-1554,-134]],[[20174,68764],[-1051,-83]],[[80034,41242],[-500,-6495]],[[79534,34747],[-2392,156]],[[61441,67468],[5965,-335]],[[86693,34271],[-7159,476]],[[58102,33770],[-478,-6529]],[[50558,27770],[333,4315]],[[27442,55236],[-200,-2413]],[[61948,94433],[1188,4],[-29,-959],[100,-5512],[-1178,10]],[[25423,65360],[122,-860],[-1850,-520],[-231,-676],[-960,102],[99,-632],[-784,-61]],[[21819,62713],[-354,1070],[-633,-40],[-270,1769],[-388,3252]],[[21144,61703],[620,-691]],[[22692,61112],[-1650,1304],[777,297]],[[64670,27429],[267,5960]],[[84241,64972],[2521,50],[2698,-64],[801,-76],[-238,-4073],[-18,-1174]],[[24712,40117],[432,-6736]],[[45247,28054],[5310,-302]],[[41310,21733],[-514,752],[117,1130]],[[33481,54245],[-23,-113]],[[37528,56381],[30,686]],[[37324,51588],[16,182]],[[37423,53478],[-107,4]],[[36928,53702],[-43,238]],[[36827,54258],[-124,680]]],"transform":{"scale":[0.000016291272912729074,0.000013508705087050849],"translate":[-83.65333,39.361566]},"objects":{"in":{"type":"GeometryCollection","geometries":[{"arcs":[[0,1,2,3]],"type":"Polygon","properties":{"geoid":"3907370142","name":"Salt Creek"},"id":"3907370142"},{"arcs":[[4,5,6,7,8,9]],"type":"Polygon","properties":{"geoid":"3911718294","name":"Congress"},"id":"3911718294"},{"arcs":[[10,11,12,13,14]],"type":"Polygon","properties":{"geoid":"3904580570","name":"Walnut"},"id":"3904580570"},{"arcs":[[15,16,17,18]],"type":"Polygon","properties":{"geoid":"3915938108","name":"Jackson"},"id":"3915938108"},{"arcs":[[19,20,21,22,23,24]],"type":"Polygon","properties":{"geoid":"3912716350","name":"Coal"},"id":"3912716350"},{"arcs":[[25,26,27,28]],"type":"Polygon","properties":{"geoid":"3912746550","name":"Madison"},"id":"3912746550"},{"arcs":[[29,30,31,32,33]],"type":"Polygon","properties":{"geoid":"3908969456","name":"St. Albans"},"id":"3908969456"},{"arcs":[[34,35,36,37,38]],"type":"Polygon","properties":{"geoid":"3911705508","name":"Bennington"},"id":"3911705508"},{"arcs":[[39,40,41,42]],"type":"Polygon","properties":{"geoid":"3911714030","name":"Chester"},"id":"3911714030"},{"arcs":[[43,44,45,46,-22]],"type":"Polygon","properties":{"geoid":"3912751520","name":"Monroe"},"id":"3912751520"},{"arcs":[[47,48,49,50,51,52]],"type":"Polygon","properties":{"geoid":"3915943358","name":"Liberty"},"id":"3915943358"},{"arcs":[[53,54,55,56,57]],"type":"Polygon","properties":{"geoid":"3911711248","name":"Canaan"},"id":"3911711248"},{"arcs":[[58,59,60,-35,61,62]],"type":"Polygon","properties":{"geoid":"3911743680","name":"Lincoln"},"id":"3911743680"},{"arcs":[[63,64,65,66,67,68,69]],"type":"Polygon","properties":{"geoid":"3904505956","name":"Berne"},"id":"3904505956"},{"arcs":[[70,71,72,73,74]],"type":"Polygon","properties":{"geoid":"3904515686","name":"Clearcreek"},"id":"3904515686"},{"arcs":[[75,76,77,78,79,80]],"type":"Polygon","properties":{"geoid":"3909759528","name":"Paint"},"id":"3909759528"},{"arcs":[[81,82,-46,83,84]],"type":"Polygon","properties":{"geoid":"3912704584","name":"Bearfield"},"id":"3912704584"},{"arcs":[[85,-84,-45,86]],"type":"Polygon","properties":{"geoid":"3912763366","name":"Pleasant"},"id":"3912763366"},{"arcs":[[87,88,89,90]],"type":"Polygon","properties":{"geoid":"3908910366","name":"Burlington"},"id":"3908910366"},{"arcs":[[91,92,93,94]],"type":"Polygon","properties":{"geoid":"3908936316","name":"Hopewell"},"id":"3908936316"},{"arcs":[[95,96,97,98]],"type":"Polygon","properties":{"geoid":"3908951450","name":"Monroe"},"id":"3908951450"},{"arcs":[[99,100,101,102,103,104,105,106,107,108,109,110,111,112,113]],"type":"Polygon","properties":{"geoid":"3908954040","name":"Newark"},"id":"3908954040"},{"arcs":[[-89,114,115,116,117]],"type":"Polygon","properties":{"geoid":"3908981410","name":"Washington"},"id":"3908981410"},{"arcs":[[118,119,120,-3]],"type":"Polygon","properties":{"geoid":"3907305578","name":"Benton"},"id":"3907305578"},{"arcs":[[121,-24,122,123]],"type":"Polygon","properties":{"geoid":"3907380780","name":"Ward"},"id":"3907380780"},{"arcs":[[124,125,126,127,128,129]],"type":"Polygon","properties":{"geoid":"3912920156","name":"Darby"},"id":"3912920156"},{"arcs":[[-74,130,131,132]],"type":"Polygon","properties":{"geoid":"3912970184","name":"Saltcreek"},"id":"3912970184"},{"arcs":[[133,134,135]],"type":"Polygon","properties":{"geoid":"3904947474","name":"Marble Cliff"},"id":"3904947474"},{"arcs":[[136]],"type":"Polygon","properties":{"geoid":"3904984742","name":"Whitehall"},"id":"3904984742"},{"arcs":[[137,138,139,140,141,142,143,144]],"type":"Polygon","properties":{"geoid":"3904105788","name":"Berlin"},"id":"3904105788"},{"arcs":[[145,146,147,148,149,150,151,152]],"type":"Polygon","properties":{"geoid":"3904181242","name":"Washington"},"id":"3904181242"},{"arcs":[[153,154,155,156,157]],"type":"Polygon","properties":{"geoid":"3904147908","name":"Marlboro"},"id":"3904147908"},{"arcs":[[158,159,160,161,162,163,164,165,166]],"type":"Polygon","properties":{"geoid":"3908925690","name":"Etna"},"id":"3908925690"},{"arcs":[[167,168,169,170]],"type":"Polygon","properties":{"geoid":"3912737968","name":"Jackson"},"id":"3912737968"},{"arcs":[[[171,-162,172]],[[173,174,175,-160,176]]],"type":"MultiPolygon","properties":{"geoid":"3908966396","name":"Reynoldsburg City"},"id":"3908966396"},{"arcs":[[177,-57,178,-59,179]],"type":"Polygon","properties":{"geoid":"3911712098","name":"Cardington"},"id":"3911712098"},{"arcs":[[[180,181,182]],[[183]],[[186,187]],[[192,193,194,195,196,197,198,199,200]]],"type":"MultiPolygon","properties":{"geoid":"3904946410","name":"Madison"},"id":"3904946410"},{"arcs":[[201,202,203,-171,204,-67]],"type":"Polygon","properties":{"geoid":"3904569120","name":"Rush Creek"},"id":"3904569120"},{"arcs":[[205,-69,206,207,208,209]],"type":"Polygon","properties":{"geoid":"3907330842","name":"Good Hope"},"id":"3907330842"},{"arcs":[[210,211,212,-128]],"type":"Polygon","properties":{"geoid":"3912953256","name":"Muhlenberg"},"id":"3912953256"},{"arcs":[[213,-181,214]],"type":"Polygon","properties":{"geoid":"3904518000","name":"Columbus"},"id":"3904518000"},{"arcs":[[215,-19,216,217]],"type":"Polygon","properties":{"geoid":"3915981662","name":"Washington"},"id":"3915981662"},{"arcs":[[218,219,-30,-97]],"type":"Polygon","properties":{"geoid":"3908943232","name":"Liberty"},"id":"3908943232"},{"arcs":[[220,221,222,-71,223,224]],"type":"Polygon","properties":{"geoid":"3904501637","name":"Amanda"},"id":"3904501637"},{"arcs":[[-38,225,226,227]],"type":"Polygon","properties":{"geoid":"3904164178","name":"Porter"},"id":"3904164178"},{"arcs":[[228,-70,-206,229,-72]],"type":"Polygon","properties":{"geoid":"3904546382","name":"Madison"},"id":"3904546382"},{"arcs":[[230,231]],"type":"Polygon","properties":{"geoid":"3911729162","name":"Galion"},"id":"3911729162"},{"arcs":[[-42,232,-37]],"type":"Polygon","properties":{"geoid":"3911773061","name":"South Bloomfield"},"id":"3911773061"},{"arcs":[[233,-94,234,-26,235,236,237]],"type":"Polygon","properties":{"geoid":"3908907944","name":"Bowling Green"},"id":"3908907944"},{"arcs":[[-209,238,239,-119,240]],"type":"Polygon","properties":{"geoid":"3907342056","name":"Laurel"},"id":"3907342056"},{"arcs":[[[241,242,243]],[[246,247,248]],[[249,250]],[[251,252,253,254,255,256,257]]],"type":"MultiPolygon","properties":{"geoid":"3904964570","name":"Prairie"},"id":"3904964570"},{"arcs":[[258,259,260,261,262,263,264,265,-141,266,267,-138,268,269,270,271,272]],"type":"Polygon","properties":{"geoid":"3904121469","name":"Delaware City"},"id":"3904121469"},{"arcs":[[273,-80,274,275]],"type":"Polygon","properties":{"geoid":"3909774784","name":"Stokes"},"id":"3909774784"},{"arcs":[[276,277,278,-7]],"type":"Polygon","properties":{"geoid":"3911777602","name":"Troy"},"id":"3911777602"},{"arcs":[[279,280,281,282,283]],"type":"Polygon","properties":{"geoid":"3908948132","name":"Mary Ann"},"id":"3908948132"},{"arcs":[[284,285,286,287]],"type":"Polygon","properties":{"geoid":"3904102582","name":"Ashley"},"id":"3904102582"},{"arcs":[[288,-271,289,290,-150,291,-148,292,-146,293,294,295,296]],"type":"Polygon","properties":{"geoid":"3904118140","name":"Concord"},"id":"3904118140"},{"arcs":[[297,298]],"type":"Polygon","properties":{"geoid":"3904175620","name":"Sunbury Village"},"id":"3904175620"},{"arcs":[[299,300,301,302,-211,-127]],"type":"Polygon","properties":{"geoid":"3912970870","name":"Scioto"},"id":"3912970870"},{"arcs":[[303,304,305,306,307,308,309,310]],"type":"Polygon","properties":{"geoid":"3904983342","name":"Westerville"},"id":"3904983342"},{"arcs":[[312,313,314,-114,315,-31]],"type":"Polygon","properties":{"geoid":"3908931416","name":"Granville"},"id":"3908931416"},{"arcs":[[-111,316,-283,317,318,319,320]],"type":"Polygon","properties":{"geoid":"3908946508","name":"Madison"},"id":"3908946508"},{"arcs":[[321,322,323,324,325,326]],"type":"Polygon","properties":{"geoid":"3909751478","name":"Monroe"},"id":"3909751478"},{"arcs":[[327,-158,328,329,330,331]],"type":"Polygon","properties":{"geoid":"3904165312","name":"Radnor"},"id":"3904165312"},{"arcs":[[332,333,334,335,336,337,-323]],"type":"Polygon","properties":{"geoid":"3909711234","name":"Canaan"},"id":"3909711234"},{"arcs":[[-264,338,339,340,341,342,-142,-266,343]],"type":"Polygon","properties":{"geoid":"3904109428","name":"Brown"},"id":"3904109428"},{"arcs":[[-298,344,-227,345,346,347]],"type":"Polygon","properties":{"geoid":"3904177336","name":"Trenton"},"id":"3904177336"},{"arcs":[[348,349,350,351]],"type":"Polygon","properties":{"geoid":"3912962008","name":"Perry"},"id":"3912962008"},{"arcs":[[[352,353,354,355,356]],[[357,358,359,360,361,362,363,364,365,366,367,368,369,370,371,372,-311,373,-309,374,-307,375,376,377,378,379,380,381,382,383,-174,384,385,-215,-183,386,-197,387,-189,388,-195,389,-193,390,391,392,393,394,395,396,397,-244,398,-246,399,-256,400,-254,401,402,403,404,405,406,407,408,409,410,411,412,-335],[413,414,-251],[415,416,-249],[417,418,419,420],[421,422,423,-136,424,425,426,427,428],[429,430],[431],[432,433,434,435,436,437],[438,439],[442],[443,444,445,446],[447],[448],[449],[-137],[451,-188],[-184]]],"type":"MultiPolygon","properties":{"geoid":"3904918000","name":"Columbus"},"id":"3904918000"},{"arcs":[[-28,453,454,455,456]],"type":"Polygon","properties":{"geoid":"3912715658","name":"Clayton"},"id":"3912715658"},{"arcs":[[-347,-99,457,458]],"type":"Polygon","properties":{"geoid":"3904133516","name":"Harlem"},"id":"3904133516"},{"arcs":[[-166,459,460,-198,-387,-182,-214,461]],"type":"Polygon","properties":{"geoid":"3904580206","name":"Violet"},"id":"3904580206"},{"arcs":[[-170,462,-20,463,464]],"type":"Polygon","properties":{"geoid":"3912751198","name":"Monday Creek"},"id":"3912751198"},{"arcs":[[-147,-293]],"type":"Polygon","properties":{"geoid":"3904171976","name":"Shawnee Hills"},"id":"3904171976"},{"arcs":[[465,-129,-213,466,467,-350,468]],"type":"Polygon","properties":{"geoid":"3912951534","name":"Monroe"},"id":"3912951534"},{"arcs":[[-55,469,470,-5,471]],"type":"Polygon","properties":{"geoid":"3911781508","name":"Washington"},"id":"3911781508"},{"arcs":[[-79,472,473,474,-275]],"type":"Polygon","properties":{"geoid":"3909765480","name":"Range"},"id":"3909765480"},{"arcs":[[[476,-420,477,-418]],[[-242,-398,478,-396,479,-394,480,-392,481,-301,482]]],"type":"MultiPolygon","properties":{"geoid":"3904937772","name":"Jackson"},"id":"3904937772"},{"arcs":[[483,484,-96,-346]],"type":"Polygon","properties":{"geoid":"3908934188","name":"Hartford"},"id":"3908934188"},{"arcs":[[[-476,-440]],[[-432]],[[485,-431]],[[-415,-414,-250]],[[486,-416,-248]]],"type":"MultiPolygon","properties":{"geoid":"3904928280","name":"Franklin"},"id":"3904928280"},{"arcs":[[487,488,-326,489,490]],"type":"Polygon","properties":{"geoid":"3909772960","name":"Somerford"},"id":"3909772960"},{"arcs":[[491,492,493,494,-302]],"type":"Polygon","properties":{"geoid":"3912933978","name":"Harrison"},"id":"3912933978"},{"arcs":[[-338,495,-258,496,497,498,-324]],"type":"Polygon","properties":{"geoid":"3909738696","name":"Jefferson"},"id":"3909738696"},{"arcs":[[499,500,501,-327,-489,502]],"type":"Polygon","properties":{"geoid":"3909762666","name":"Pike"},"id":"3909762666"},{"arcs":[[503,504,-130,-466,505,-474]],"type":"Polygon","properties":{"geoid":"3909763338","name":"Pleasant"},"id":"3909763338"},{"arcs":[[-491,506,507,508,509,510,-77,511]],"type":"Polygon","properties":{"geoid":"3909778428","name":"Union"},"id":"3909778428"},{"arcs":[[512,513,-64,-229,-223]],"type":"Polygon","properties":{"geoid":"3904535812","name":"Hocking"},"id":"3904535812"},{"arcs":[[-460,-165,514,-15,515,516,517]],"type":"Polygon","properties":{"geoid":"3904543120","name":"Liberty"},"id":"3904543120"},{"arcs":[[518,-82,519,-455]],"type":"Polygon","properties":{"geoid":"3912733964","name":"Harrison"},"id":"3912733964"},{"arcs":[[-456,-520,-85,-86,520,-169]],"type":"Polygon","properties":{"geoid":"3912762680","name":"Pike"},"id":"3912762680"},{"arcs":[[-463,-521,-87,-44,-21]],"type":"Polygon","properties":{"geoid":"3912770226","name":"Salt Lick"},"id":"3912770226"},{"arcs":[[521,522,523,524,-501,525]],"type":"Polygon","properties":{"geoid":"3915920170","name":"Darby"},"id":"3915920170"},{"arcs":[[-9,526,527,-40,528,529]],"type":"Polygon","properties":{"geoid":"3911728378","name":"Franklin"},"id":"3911728378"},{"arcs":[[530,-232,531,-277,-6,-471]],"type":"Polygon","properties":{"geoid":"3911756224","name":"North Bloomfield"},"id":"3911756224"},{"arcs":[[532,-62,-39,533,534]],"type":"Polygon","properties":{"geoid":"3911762260","name":"Peru"},"id":"3911762260"},{"arcs":[[535,-180,-63,-533,536,-287,537,-285,538,-155]],"type":"Polygon","properties":{"geoid":"3911783454","name":"Westfield"},"id":"3911783454"},{"arcs":[[539,540,541,-295,542,543,544,545,-524]],"type":"Polygon","properties":{"geoid":"3915939046","name":"Jerome"},"id":"3915939046"},{"arcs":[[546,547,548,-50,549]],"type":"Polygon","properties":{"geoid":"3915976194","name":"Taylor"},"id":"3915976194"},{"arcs":[[550,551,552,-526,-500,553]],"type":"Polygon","properties":{"geoid":"3915978582","name":"Union"},"id":"3915978582"},{"arcs":[[554,-217,-18,555,-550,-49,556]],"type":"Polygon","properties":{"geoid":"3915987122","name":"York"},"id":"3915987122"},{"arcs":[[-116,557,558,-281,559]],"type":"Polygon","properties":{"geoid":"3908924332","name":"Eden"},"id":"3908924332"},{"arcs":[[560,-320,561,-95,-234,562]],"type":"Polygon","properties":{"geoid":"3908928336","name":"Franklin"},"id":"3908928336"},{"arcs":[[-33,563,-515,-164,564]],"type":"Polygon","properties":{"geoid":"3908933894","name":"Harrison"},"id":"3908933894"},{"arcs":[[-112,-321,-561,565,566]],"type":"Polygon","properties":{"geoid":"3908934748","name":"Heath"},"id":"3908934748"},{"arcs":[[-98,-34,567,568]],"type":"Polygon","properties":{"geoid":"3908939102","name":"Jersey"},"id":"3908939102"},{"arcs":[[-566,-563,-238,569,570]],"type":"Polygon","properties":{"geoid":"3908943456","name":"Licking"},"id":"3908943456"},{"arcs":[[[571,-108,572,-284,-317,-110]],[[573,-106,574,-104,575,-102,-312,-100,-315]]],"type":"MultiPolygon","properties":{"geoid":"3908954054","name":"Newark"},"id":"3908954054"},{"arcs":[[576,-117,-560,-280,-573,-107,-574,-314]],"type":"Polygon","properties":{"geoid":"3908955580","name":"Newton"},"id":"3908955580"},{"arcs":[[[-173,-161,-176]],[[577,-382,578,-568,-565,-163,-172,-175,-384]]],"type":"MultiPolygon","properties":{"geoid":"3908961112","name":"Pataskala"},"id":"3908961112"},{"arcs":[[[-464,-25,-122,579,580]],[[-208,581,582,583,-239]]],"type":"MultiPolygon","properties":{"geoid":"3907326488","name":"Falls"},"id":"3907326488"},{"arcs":[[-131,-73,-230,-210,-241,-2,584]],"type":"Polygon","properties":{"geoid":"3907361868","name":"Perry"},"id":"3907361868"},{"arcs":[[-240,-584,585,586,587,-120]],"type":"Polygon","properties":{"geoid":"3907381354","name":"Washington"},"id":"3907381354"},{"arcs":[[588,589,590,591,592,593]],"type":"Polygon","properties":{"geoid":"3912915070","name":"Circleville"},"id":"3912915070"},{"arcs":[[-468,594,595,596,-351]],"type":"Polygon","properties":{"geoid":"3912921168","name":"Deercreek"},"id":"3912921168"},{"arcs":[[597,598,-133,599,600]],"type":"Polygon","properties":{"geoid":"3912962484","name":"Pickaway"},"id":"3912962484"},{"arcs":[[-343,601,-345,-299,-348,602,-143]],"type":"Polygon","properties":{"geoid":"3904105774","name":"Berkshire"},"id":"3904105774"},{"arcs":[[603,604,605,606,607,-371,608,-369,609]],"type":"Polygon","properties":{"geoid":"3904118010","name":"Columbus City"},"id":"3904118010"},{"arcs":[[-603,-459,610,-305,611,612]],"type":"Polygon","properties":{"geoid":"3904129694","name":"Genoa"},"id":"3904129694"},{"arcs":[[-534,-228,-602,-342]],"type":"Polygon","properties":{"geoid":"3904140362","name":"Kingston"},"id":"3904140362"},{"arcs":[[-156,-539,-288,-537,-535,-341,613]],"type":"Polygon","properties":{"geoid":"3904159262","name":"Oxford"},"id":"3904159262"},{"arcs":[[614,615,-332,616,617]],"type":"Polygon","properties":{"geoid":"3904176617","name":"Thompson"},"id":"3904176617"},{"arcs":[[-157,-614,-340,618,-262,619,-260,620,-329]],"type":"Polygon","properties":{"geoid":"3904177560","name":"Troy"},"id":"3904177560"},{"arcs":[[-450]],"type":"Polygon","properties":{"geoid":"3904906278","name":"Bexley"},"id":"3904906278"},{"arcs":[[-337,621,-412,622,623,-405,624,-403,625,-252,-496]],"type":"Polygon","properties":{"geoid":"3904909442","name":"Brown"},"id":"3904909442"},{"arcs":[[626,-445,627,-447]],"type":"Polygon","properties":{"geoid":"3904916112","name":"Clinton"},"id":"3904916112"},{"arcs":[[[628,-356,629,-354,630,-380,631,-378]],[[-448]]],"type":"MultiPolygon","properties":{"geoid":"3904950064","name":"Mifflin"},"id":"3904950064"},{"arcs":[[632,-458,-569,633,-357,-629,-377]],"type":"Polygon","properties":{"geoid":"3904962974","name":"Plain"},"id":"3904962974"},{"arcs":[[634,-167,-462,-386]],"type":"Polygon","properties":{"geoid":"3904977714","name":"Truro"},"id":"3904977714"},{"arcs":[[-428,635,-426,636,-134,-424,637,-422,638]],"type":"Polygon","properties":{"geoid":"3904979002","name":"Upper Arlington"},"id":"3904979002"},{"arcs":[[-637,-425,-135]],"type":"Polygon","properties":{"geoid":"3904931304","name":"Grandview Heights"},"id":"3904931304"},{"arcs":[[-32,-316,-113,-567,-571,-11,-564]],"type":"Polygon","properties":{"geoid":"3908978400","name":"Union"},"id":"3908978400"},{"arcs":[[639,-607,640,641,-604,642,-612,-304,-373]],"type":"Polygon","properties":{"geoid":"3904183349","name":"Westerville City"},"id":"3904183349"},{"arcs":[[-325,-499,-509,643,-507,-490]],"type":"Polygon","properties":{"geoid":"3909721154","name":"Deer Creek"},"id":"3909721154"},{"arcs":[[[-640,-372,-608]],[[-144,-613,-643,-610,-368,644]]],"type":"MultiPolygon","properties":{"geoid":"3904158618","name":"Orange"},"id":"3904158618"},{"arcs":[[-56,-472,-10,-530,645,-60,-179]],"type":"Polygon","properties":{"geoid":"3911730128","name":"Gilead"},"id":"3911730128"},{"arcs":[[-646,-529,-43,-36,-61]],"type":"Polygon","properties":{"geoid":"3911733600","name":"Harmony"},"id":"3911733600"},{"arcs":[[-52,646,-552,647]],"type":"Polygon","properties":{"geoid":"3915901336","name":"Allen"},"id":"3915901336"},{"arcs":[[-583,648,-580,-124,649,-586]],"type":"Polygon","properties":{"geoid":"3907331780","name":"Green"},"id":"3907331780"},{"arcs":[[650,651,-65,-514]],"type":"Polygon","properties":{"geoid":"3904541740","name":"Lancaster City"},"id":"3904541740"},{"arcs":[[-319,652,653,-92,-562]],"type":"Polygon","properties":{"geoid":"3908933299","name":"Hanover"},"id":"3908933299"},{"arcs":[[[-611,-633,-376,-306]],[[-308,-375]],[[-449]]],"type":"MultiPolygon","properties":{"geoid":"3904906922","name":"Blendon"},"id":"3904906922"},{"arcs":[[[-177,-159,-635,-385]],[[-353,-634,-579,-381,-631]]],"type":"MultiPolygon","properties":{"geoid":"3904938612","name":"Jefferson"},"id":"3904938612"},{"arcs":[[[-487,-247,-417]],[[-402,-253,-626]],[[-404,-625]],[[654,-410,655,-408,656,-406,-624]]],"type":"MultiPolygon","properties":{"geoid":"3904957344","name":"Norwich"},"id":"3904957344"},{"arcs":[[[658,-590]],[[659,660,-594,661,-598,662,663]]],"type":"MultiPolygon","properties":{"geoid":"3912915077","name":"Circleville"},"id":"3912915077"},{"arcs":[[-593,-658,-591,-659,-589,-661,664,-224,-75,-599,-662]],"type":"Polygon","properties":{"geoid":"3912981550","name":"Washington"},"id":"3912981550"},{"arcs":[[[-190,-388,-196,-389]],[[-393,-481]],[[-391,-201,-492,-482]]],"type":"MultiPolygon","properties":{"geoid":"3904933026","name":"Hamilton"},"id":"3904933026"},{"arcs":[[-650,665,-587]],"type":"Polygon","properties":{"geoid":"3907374405","name":"Starr"},"id":"3907374405"},{"arcs":[[-544,-543,-294,-153,666]],"type":"Polygon","properties":{"geoid":"3915981242","name":"Washington"},"id":"3915981242"},{"arcs":[[[667,-139,-268]],[[668,-269,-145,-645,-367,669,-365,670,-361,671,-151,-291]]],"type":"MultiPolygon","properties":{"geoid":"3904143106","name":"Liberty"},"id":"3904143106"},{"arcs":[[-617,-331,672,-273,673,-297,674,675,676]],"type":"Polygon","properties":{"geoid":"3904170842","name":"Scioto"},"id":"3904170842"},{"arcs":[[-13,677,678,-203,679]],"type":"Polygon","properties":{"geoid":"3904566684","name":"Richland"},"id":"3904566684"},{"arcs":[[-17,680,-615,681,-547,-556]],"type":"Polygon","properties":{"geoid":"3915915112","name":"Claibourne"},"id":"3915915112"},{"arcs":[[682,-663,-601,683,-596]],"type":"Polygon","properties":{"geoid":"3912982264","name":"Wayne"},"id":"3912982264"},{"arcs":[[-511,684,-504,-473,-78]],"type":"Polygon","properties":{"geoid":"3909757708","name":"Oak Run"},"id":"3909757708"},{"arcs":[[-282,685,686,-653,-318]],"type":"Polygon","properties":{"geoid":"3908961924","name":"Perry"},"id":"3908961924"},{"arcs":[[-682,-618,-677,687,688,-548]],"type":"Polygon","properties":{"geoid":"3915942490","name":"Leesburg"},"id":"3915942490"},{"arcs":[[-570,-237,689,690,-678,-12]],"type":"Polygon","properties":{"geoid":"3912776659","name":"Thorn"},"id":"3912776659"},{"arcs":[[691,-91,-219,-485]],"type":"Polygon","properties":{"geoid":"3908905494","name":"Bennington"},"id":"3908905494"},{"arcs":[[-236,-29,692,-690]],"type":"Polygon","properties":{"geoid":"3912736386","name":"Hopewell"},"id":"3912736386"},{"arcs":[[-199,-461,-518,693,-222,694]],"type":"Polygon","properties":{"geoid":"3904506950","name":"Bloom"},"id":"3904506950"},{"arcs":[[-525,-546,695,-333,-322,-502]],"type":"Polygon","properties":{"geoid":"3909720142","name":"Darby"},"id":"3909720142"},{"arcs":[[-279,696,-527,-8]],"type":"Polygon","properties":{"geoid":"3911761980","name":"Perry"},"id":"3911761980"},{"arcs":[[-676,697,698,-688]],"type":"Polygon","properties":{"geoid":"3915922484","name":"Dover"},"id":"3915922484"},{"arcs":[[[699,-540,-523]],[[-698,-675,-296,-542,700]]],"type":"MultiPolygon","properties":{"geoid":"3915950288","name":"Millcreek"},"id":"3915950288"},{"arcs":[[701,-516,-14,-680,-202,-66,-652]],"type":"Polygon","properties":{"geoid":"3904563240","name":"Pleasant"},"id":"3904563240"},{"arcs":[[-517,-702,-651,-513,-694]],"type":"Polygon","properties":{"geoid":"3904532060","name":"Greenfield"},"id":"3904532060"},{"arcs":[[702,-686,-559]],"type":"Polygon","properties":{"geoid":"3908926530","name":"Fallsbury"},"id":"3908926530"},{"arcs":[[-90,-118,-577,-313,-220]],"type":"Polygon","properties":{"geoid":"3908946116","name":"McKean"},"id":"3908946116"},{"arcs":[[-510,-498,703,-125,-505,-685]],"type":"Polygon","properties":{"geoid":"3909726068","name":"Fairfield"},"id":"3909726068"},{"arcs":[[-691,-693,-457,-168,-204,-679]],"type":"Polygon","properties":{"geoid":"3912765760","name":"Reading"},"id":"3912765760"},{"arcs":[[-494,704,-225,-665,-660,705]],"type":"Polygon","properties":{"geoid":"3912980598","name":"Walnut"},"id":"3912980598"},{"arcs":[[-257,-400,-245,-399,-243,-483,-300,-126,-704,-497]],"type":"Polygon","properties":{"geoid":"3904963254","name":"Pleasant"},"id":"3904963254"},{"arcs":[[-467,-212,-303,-495,-706,-664,-683,-595]],"type":"Polygon","properties":{"geoid":"3912937982","name":"Jackson"},"id":"3912937982"},{"arcs":[[-51,-549,-689,-699,-701,-541,-700,-522,-553,-647]],"type":"Polygon","properties":{"geoid":"3915959864","name":"Paris"},"id":"3915959864"},{"arcs":[[[-140,-668,-267]],[[-619,-339,-263]],[[-620,-261]],[[-270,-669,-290]],[[-330,-621,-259,-673]],[[-272,-289,-674]]],"type":"MultiPolygon","properties":{"geoid":"3904121448","name":"Delaware"},"id":"3904121448"},{"arcs":[[-200,-695,-221,-705,-493]],"type":"Polygon","properties":{"geoid":"3912946564","name":"Madison"},"id":"3912946564"},{"arcs":[[[-657,-407]],[[-655,-623,-411]],[[-696,-545,-667,-152,-672,-360,706,-358,-334]],[[-413,-622,-336]]],"type":"MultiPolygon","properties":{"geoid":"3904981242","name":"Washington"},"id":"3904981242"},{"arcs":[[-644,-508]],"type":"Polygon","properties":{"geoid":"3909744674","name":"London"},"id":"3909744674"},{"arcs":[[[-310,-374]],[[-443]],[[-437,709,-435,710,-433,711]]],"type":"MultiPolygon","properties":{"geoid":"3904971787","name":"Sharon"},"id":"3904971787"},{"arcs":[[[-671,-364,-708,-362]],[[-712,-438]]],"type":"MultiPolygon","properties":{"geoid":"3904961840","name":"Perry"},"id":"3904961840"},{"arcs":[[-68,-205,-465,-581,-649,-582,-207]],"type":"Polygon","properties":{"geoid":"3907347740","name":"Marion"},"id":"3907347740"}]}}}