{"type":"Topology","arcs":[[[66304,86779],[549,-359],[1565,-251],[2211,353],[872,-250],[3371,2058],[1628,1509],[955,470]],[[77455,90309],[19,-1716],[2251,-9]],[[79725,88584],[-16,-6199]],[[79709,82385],[-4797,81],[293,-1184],[518,-848],[-2832,-40]],[[72891,80394],[-4489,-59]],[[68402,80335],[25,2117],[-2192,17],[69,4310]],[[32647,89966],[5818,116]],[[38465,90082],[1436,-271],[868,-510],[896,-1111],[1358,-880],[1334,-232],[996,505],[821,1501],[1130,-1313],[1572,35],[-199,-849],[-910,-258],[-1835,-20],[-895,-366],[-1647,-9],[-479,-585],[-1475,-260]],[[41436,85459],[-6981,-16],[-19,1222],[-1758,-27]],[[32678,86638],[-31,3328]],[[21790,86283],[59,6510]],[[21849,92793],[2726,97],[7191,254],[-169,-1029],[2526,-236],[392,520],[2277,-1540],[1673,-777]],[[32647,89966],[-3580,-55],[-995,-1298],[-1893,-902],[-404,-1204],[-1000,-916],[-1208,-736],[-1784,-616]],[[21783,84239],[7,2044]],[[8462,63815],[1381,1]],[[9843,63816],[4045,29],[1,-812],[2670,28],[3,-416],[5291,45]],[[21853,62690],[4,-2967]],[[21857,59723],[-2646,-99],[-198,-1457]],[[19013,58167],[-7830,-57],[9,-2864],[-2215,-14],[-8,-664]],[[8969,54568],[-489,113],[-18,9134]],[[48462,89525],[393,456],[876,-246],[11,-455],[-1280,245]],[[57474,84628],[134,-4055]],[[57608,80573],[-7410,86],[-4195,95]],[[46003,80754],[-145,3932],[-1292,-9]],[[44566,84677],[1040,307],[1067,803],[1348,-723],[1254,569],[1745,-1138],[599,-131],[2002,-972],[758,-81],[1932,912],[1163,405]],[[9779,92395],[910,21],[11160,377]],[[21790,86283],[-4500,-41],[-6171,-15]],[[11119,86227],[-3,800],[-900,-5],[-13,2878],[-397,7],[-27,2488]],[[21783,84239],[48,-6905]],[[21831,77334],[-8069,-55]],[[13762,77279],[-5,7332],[-2632,-6]],[[11125,84605],[-6,1622]],[[13036,24232],[5874,-441]],[[18910,23791],[318,-23]],[[19228,23768],[-279,-3470],[-472,-4043],[-634,-6003]],[[17843,10252],[-437,-25],[-1963,684],[-1325,302],[-407,608],[-35,1328],[-59,514],[-1249,1751],[-384,1418],[-354,438]],[[11630,17270],[476,4249],[536,839],[-1014,548],[1408,1326]],[[73703,63346],[54,6883]],[[73757,70229],[5286,-210],[93,2294],[537,2]],[[79673,72315],[7136,-14]],[[86809,72301],[-8,-2419]],[[86801,69882],[-15,-4865]],[[86786,65017],[-2591,37],[-894,-157],[-94,-2043],[-1778,29]],[[81429,62883],[-3943,27],[-3764,-488]],[[73722,62422],[-19,924]],[[36448,36118],[203,3277]],[[36651,39395],[4791,-194],[4961,-296]],[[46403,38905],[-310,-4070],[-124,-2466],[2590,-197]],[[48559,32172],[-214,-2410]],[[48345,29762],[-5986,327],[130,737],[-6373,276]],[[36116,31102],[332,5016]],[[79709,82385],[9030,-12]],[[88739,82373],[24,-5981]],[[88763,76392],[13,-4098],[-1967,7]],[[79673,72315],[36,10070]],[[54807,42695],[1026,-222],[4294,-257]],[[60127,42216],[1665,-109],[-179,-2481],[2258,-126],[-86,-1268]],[[63785,38232],[-84,-1211],[1303,-84],[-358,-4884],[-184,17]],[[64462,32070],[-2596,161]],[[61866,32231],[-2427,156],[37,796],[-2742,173],[125,1629]],[[56859,34985],[197,2451],[-888,59],[178,2476],[-1762,116],[223,2608]],[[11151,68692],[5369,53],[2,1224],[2658,10],[-1,413],[2669,17]],[[21848,70409],[9,-2814]],[[21857,67595],[-4,-4905]],[[9843,63816],[-14,3668],[1332,5],[-10,1203]],[[86786,65017],[3956,-25],[-23,-2336],[1333,-25],[-28,-1209]],[[92024,61422],[-36,-1231],[-1334,25],[-84,-2473],[-363,11],[-41,-1222]],[[90166,56532],[-7626,246]],[[82540,56778],[121,3683],[-1323,44],[91,2378]],[[48716,72514],[6787,-76]],[[55503,72438],[348,0],[24,-4993],[658,-179],[223,-586],[13,-1682],[911,-13],[52,-4806]],[[57732,60179],[-881,-115],[-5783,-28]],[[51068,60036],[-83,4466],[-2324,50]],[[48661,64552],[55,7962]],[[10577,33153],[1870,-10],[3966,-312]],[[16413,32831],[3190,-247]],[[19603,32584],[-693,-8793]],[[13036,24232],[-77,491],[-2103,110]],[[10856,24833],[384,4583],[107,2598],[-759,-139],[-11,1278]],[[392,72339],[9388,26]],[[9780,72365],[25,-2437],[1336,9],[10,-1245]],[[8462,63815],[0,1216],[-8043,-5]],[[419,65026],[-19,5442],[-8,1871]],[[88763,76392],[11232,-22]],[[99995,76370],[4,-232],[-18,-6292]],[[99981,69846],[-7025,17],[7,807],[-1725,12],[-5,-817],[-4432,17]],[[62560,72407],[6985,-99],[3264,9]],[[72809,72317],[949,-1],[-1,-2087]],[[73703,63346],[-6107,-41],[-4963,44]],[[62633,63349],[-27,3808],[54,2295],[-100,2955]],[[27271,38290],[1375,-119],[1671,6758]],[[30317,44929],[289,2835]],[[30606,47764],[6916,-105]],[[37522,47659],[-138,-1670],[-968,32],[-164,-1299],[446,-1406],[373,-568],[-613,-417],[193,-2936]],[[36448,36118],[-4839,269],[-4481,331]],[[27128,36718],[143,1572]],[[140,36991],[40,5327]],[[180,42318],[5026,-5],[2578,49]],[[7784,42362],[143,-9166]],[[7927,33196],[6,-623],[-6606,-61],[-1208,31]],[[119,32543],[21,4448]],[[99981,69846],[17,-1371],[1,-5950],[-1343,-688],[-512,309],[-827,-256],[-781,-941]],[[96536,60949],[-1845,23],[4,383],[-2671,67]],[[19603,32584],[7133,-530]],[[26736,32054],[2183,-159],[-339,-4642]],[[28580,27253],[-4509,-3243],[-546,-1069],[-607,589],[-727,45]],[[22191,23575],[-2963,193]],[[57608,80573],[-41,-2362],[176,-3734]],[[57743,74477],[-2334,-11],[94,-2028]],[[48716,72514],[-2435,27]],[[46281,72541],[-246,7242]],[[46035,79783],[-32,971]],[[88765,96518],[2368,441],[1753,684],[531,441],[673,-25],[3317,988],[2582,952],[3,-3582],[2,-9787]],[[99994,86630],[-4509,-5],[-6742,54]],[[88743,86679],[-12,5975]],[[88731,92654],[34,3864]],[[39696,72453],[6035,6],[550,82]],[[48661,64552],[-3047,34],[-2,-207]],[[45612,64379],[-5884,-59]],[[39728,64320],[-32,8133]],[[58832,27406],[215,2483],[2628,-185],[191,2527]],[[64462,32070],[-192,-2541],[4903,-275]],[[69173,29254],[-204,-3696],[861,-451],[-40,-825],[2244,-85],[-87,-1504]],[[71947,22693],[-703,-988]],[[71244,21705],[-6823,329],[-5099,321]],[[59322,22355],[194,2496],[-889,58],[205,2497]],[[36116,31102],[-2464,-3886]],[[33652,27216],[-5072,37]],[[26736,32054],[392,4664]],[[33652,27216],[-175,-582],[-21,-2995],[876,-459],[-234,-998]],[[34098,22182],[-746,-3985]],[[33352,18197],[-5254,-1017],[-1428,43]],[[26670,17223],[-4631,25],[152,6327]],[[72163,48903],[1055,-33],[77,2001],[1044,-32]],[[74339,50839],[6617,-198]],[[80956,50641],[-35,-1183],[2642,-53]],[[83563,49405],[-189,-6125]],[[83374,43280],[-2643,66],[-889,-82],[-19,-817],[-1766,55],[-31,-810],[-2662,88],[-40,-1640],[-2647,99]],[[72677,40239],[71,2466],[-872,28],[287,6170]],[[9780,72365],[1339,10],[7,4894]],[[11126,77269],[2636,10]],[[21831,77334],[17,-6925]],[[41834,56787],[93,1419],[1357,173],[14,4324],[2280,35],[34,1641]],[[51068,60036],[-222,-750],[-310,-4983],[-2288,127]],[[48248,54430],[-4294,238],[112,1593],[-2262,108],[30,418]],[[46595,4635],[1758,740],[-600,1330],[54,988],[1337,-69],[255,2029],[756,-56],[299,2830]],[[50454,12427],[1731,-129]],[[52185,12298],[-165,-1831],[2304,-190],[388,-862],[-130,-1657],[2743,-174],[-167,-2544],[1734,-73]],[[58892,4967],[-398,-2415],[-460,-1317],[-1529,-417],[-352,140],[-2390,-800],[-1486,-158],[-508,467],[-473,1475],[-1201,874],[-570,845],[-811,607],[-1270,40],[-849,327]],[[377,84562],[10748,43]],[[11126,77269],[0,1219],[-2684,10],[-4,1234],[-8051,-26]],[[387,79706],[-2,523],[-8,4333]],[[18535,49793],[190,2505]],[[18725,52298],[5367,-383],[-34,-407],[5441,-444]],[[29499,51064],[1322,-109],[-215,-3191]],[[30317,44929],[-2702,170],[-9386,670]],[[18229,45769],[306,4024]],[[63785,38232],[8816,-430]],[[72601,37802],[1338,-61],[-77,-2456],[1327,-47],[-48,-2156]],[[75141,33082],[-2342,99],[-593,-175],[-211,-1026],[428,-465],[-80,-1406],[-1219,56],[-1446,317],[-60,-1257],[-445,29]],[[52185,12298],[28,252],[2771,-249],[462,5332]],[[55446,17633],[2614,-207]],[[58060,17426],[-24,-406],[5311,-291],[-79,-1244]],[[63268,15485],[-1030,-1686],[-39,-1613],[-1684,-1254],[15,-765],[413,-297],[381,-1370],[-195,-795],[437,-1523],[-388,-868],[-702,-92],[-628,190],[-956,-445]],[[30222,58754],[2362,32]],[[32584,58786],[3963,51],[-9,-1765]],[[36538,57072],[4,-5585],[1769,-6],[54,-2832]],[[38365,48649],[-5,-1008],[-838,18]],[[29499,51064],[723,7690]],[[83563,49405],[2647,-61],[5329,-236]],[[91539,49108],[2711,-122],[1473,60]],[[95723,49046],[-170,-1615],[-660,-669],[124,-1185],[-159,-1751],[-567,-677],[199,-841],[-1103,62],[-131,-435],[439,-867],[-724,-624]],[[92971,40444],[-4552,277],[-5121,223]],[[83298,40944],[76,2336]],[[47855,48167],[257,4230]],[[48112,52397],[6385,-344],[-27,-528],[3715,-174],[2827,-15]],[[61012,51336],[304,-13],[-99,-2008]],[[61217,49315],[-272,-6067],[-765,26],[-53,-1058]],[[54807,42695],[-247,-149],[-7186,409]],[[47374,42955],[202,1020],[279,4192]],[[36538,57072],[5296,-285]],[[48248,54430],[-136,-2033]],[[47855,48167],[-9490,482]],[[17882,41279],[347,4490]],[[27271,38290],[-2133,232],[-45,217],[-2058,244],[45,694],[-2647,176],[34,407],[-2648,198]],[[17819,40458],[63,821]],[[61217,49315],[2188,-120],[8758,-292]],[[72677,40239],[-76,-2437]],[[47374,42955],[-276,-809],[-188,-2458],[-507,-783]],[[57474,84628],[2169,173],[1787,1036],[3858,1233],[1016,-291]],[[68402,80335],[-2196,-6],[-32,-2099],[-2292,0],[-42,-1774],[-2223,18],[-37,-2060]],[[61580,74414],[-3837,63]],[[72891,80394],[-82,-8077]],[[62560,72407],[-1024,7],[44,2000]],[[57732,60179],[2717,370]],[[60449,60549],[954,137],[-128,-3270]],[[61275,57416],[-263,-6080]],[[99994,86630],[0,-305],[1,-9955]],[[88739,82373],[4,4306]],[[96536,60949],[940,-1307],[221,-945],[437,-545],[-293,-2203],[-416,-248],[514,-712],[-121,-613],[300,-840],[-525,-1565],[-908,-895],[-471,-1238],[-491,-792]],[[91539,49108],[263,6158],[141,1216],[-1777,50]],[[214,44786],[164,8538],[-5,1194]],[[373,54518],[4753,-28],[3837,70]],[[8963,54560],[48,-4401]],[[9011,50159],[155,-7765]],[[9166,42394],[-1382,-32]],[[180,42318],[34,2468]],[[62633,63349],[-2197,-18],[13,-2782]],[[416,60661],[3,4365]],[[8969,54568],[-6,-8]],[[373,54518],[43,6143]],[[32678,86638],[-122,-6892]],[[32556,79746],[-28,-2441]],[[32528,77305],[-1834,-29],[-5282,77],[-3581,-19]],[[21857,67595],[8466,-50]],[[30323,67545],[456,-5],[14,-3260],[1291,20],[472,-431]],[[32556,63869],[28,-5083]],[[30222,58754],[12,155],[-8376,624],[-1,190]],[[46802,15198],[493,6178]],[[47295,21376],[447,-28],[88,1125]],[[47830,22473],[2623,-160],[-33,-355],[2678,-247],[-93,-1015],[2688,-187],[-247,-2876]],[[50454,12427],[-2573,162],[170,2533],[-1249,76]],[[9011,50159],[4973,83],[-11,-126],[4562,-323]],[[17882,41279],[-2469,173],[-11,1035],[-6236,-93]],[[41436,85459],[807,-584],[739,342],[679,-831],[905,291]],[[46035,79783],[-6777,30],[-1972,-88],[-4730,21]],[[56859,34985],[-2692,189],[-135,-1647],[-2823,161],[-59,-1249],[-2562,142],[-29,-409]],[[77455,90309],[1086,1196],[2063,1502],[1541,910],[1381,210],[2665,1395],[2574,996]],[[88731,92654],[-2293,-23],[20,-2039],[-4493,-16],[-28,-1986],[-2212,-6]],[[330,92122],[9449,273]],[[377,84562],[-18,2914],[-29,4646]],[[16,25193],[4130,-3],[274,197],[2473,-246],[442,75],[3521,-383]],[[11630,17270],[-607,416],[-1416,244],[-532,352],[-70,1008],[-877,761],[-826,-738],[-1041,120],[-495,-484],[-1193,-216],[-1541,834],[-670,921],[-834,269],[-687,-801],[-841,-352],[16,5589]],[[112,31262],[7,1281]],[[7927,33196],[2650,-43]],[[16,25193],[96,6069]],[[30323,67545],[27,2435],[883,-4],[-1,1215],[445,4],[-4,1208],[872,6]],[[32545,72409],[7151,44]],[[39728,64320],[-4494,-26],[-1,-416],[-2677,-9]],[[32528,77305],[17,-4896]],[[48345,29762],[-183,-2805]],[[48162,26957],[-332,-4484]],[[47295,21376],[-13197,806]],[[75141,33082],[2667,-102],[7,1754],[476,-415],[907,-18],[436,-811],[895,-225],[1695,-47],[11,391]],[[82235,33609],[437,-13],[406,-736],[4883,-194],[-45,-897]],[[87916,31769],[-1444,-1480],[-480,-824],[-388,-391],[-1111,-365],[-875,-1251],[-1096,-4],[-1787,-1124],[-551,-103],[-572,377],[-251,911],[-1150,593],[-2358,-1973],[-295,-1991],[-887,235],[-1626,-64],[-419,-469],[117,-814],[-796,-339]],[[58060,17426],[377,4978],[885,-49]],[[71244,21705],[260,-899],[-61,-1485],[-658,-476],[-751,157],[-89,-683],[1103,-1240],[-409,-1409],[597,-879],[-686,-206],[-664,560],[-704,-488],[-97,-765],[-943,-760],[-451,117],[-420,640],[607,1018],[-758,1399],[-1029,141],[-407,834],[-954,84],[-362,-871],[-872,-515],[-228,-494]],[[58832,27406],[-5227,324],[-72,-736],[-2715,182],[-31,-403],[-2625,184]],[[36021,17094],[1292,-669],[73,-889],[5611,-136],[3805,-202]],[[46595,4635],[-725,684],[-374,2075],[-333,585],[179,1064],[-565,795],[-1981,-857],[-1197,-12],[-516,-832],[-1154,-518],[-932,-1462],[-1387,-228],[-861,326],[-652,-287]],[[36097,5968],[-24,7395],[-52,3731]],[[92971,40444],[-112,-1438],[-859,-655],[-53,-614],[741,-908],[-657,-761],[-115,-1148],[-319,-894],[-1474,-385],[-2207,-1872]],[[82235,33609],[57,2836],[-896,7],[129,4538],[1773,-46]],[[19013,58167],[-31,-4764],[-257,-1105]],[[73722,62422],[-297,-205],[-178,-5148],[-918,25]],[[72329,57094],[-8761,227],[-2293,95]],[[80956,50641],[81,2521],[1378,-24],[125,3640]],[[25919,6568],[55,1246],[696,9409]],[[33352,18197],[1651,-84],[1018,-1019]],[[36097,5968],[-619,-609],[-543,354],[-113,599],[-1029,781],[-2358,474],[-1229,772],[-2464,-662],[-442,-1186],[-516,-251],[-865,328]],[[392,72339],[-5,7367]],[[16413,32831],[203,3594],[291,3694],[912,339]],[[74339,50839],[155,4109],[-2238,75],[73,2071]],[[25919,6568],[-1554,514],[-266,1050],[-1325,735],[-428,977],[-1044,318],[-931,432],[-810,98],[-1718,-440]]],"bbox":[-84.820157,38.405138,-80.518991,41.977523],"transform":{"scale":[0.00004301209012090116,0.00003572420724207239],"translate":[-84.820157,38.405138]},"objects":{"in":{"type":"GeometryCollection","geometries":[{"arcs":[[0,1,2,3,4,5]],"type":"Polygon","properties":{"geoid":"39035","name":"Cuyahoga"},"id":"39035"},{"arcs":[[6,7,8,9]],"type":"Polygon","properties":{"geoid":"39123","name":"Ottawa"},"id":"39123"},{"arcs":[[10,11,-7,12,13]],"type":"Polygon","properties":{"geoid":"39095","name":"Lucas"},"id":"39095"},{"arcs":[[14,15,16,17,18,19]],"type":"Polygon","properties":{"geoid":"39011","name":"Auglaize"},"id":"39011"},{"arcs":[[[20]],[[21,22,23,24]]],"type":"MultiPolygon","properties":{"geoid":"39043","name":"Erie"},"id":"39043"},{"arcs":[[25,-11,26,27]],"type":"Polygon","properties":{"geoid":"39051","name":"Fulton"},"id":"39051"},{"arcs":[[-27,-14,28,29,30,31]],"type":"Polygon","properties":{"geoid":"39069","name":"Henry"},"id":"39069"},{"arcs":[[32,33,34,35,36]],"type":"Polygon","properties":{"geoid":"39025","name":"Clermont"},"id":"39025"},{"arcs":[[37,38,39,40,41,42,43,44]],"type":"Polygon","properties":{"geoid":"39151","name":"Stark"},"id":"39151"},{"arcs":[[45,46,47,48,49,50]],"type":"Polygon","properties":{"geoid":"39129","name":"Pickaway"},"id":"39129"},{"arcs":[[51,52,53,-40,54]],"type":"Polygon","properties":{"geoid":"39133","name":"Portage"},"id":"39133"},{"arcs":[[55,56,57,58,59,60]],"type":"Polygon","properties":{"geoid":"39127","name":"Perry"},"id":"39127"},{"arcs":[[61,62,63,-16,64]],"type":"Polygon","properties":{"geoid":"39003","name":"Allen"},"id":"39003"},{"arcs":[[-43,65,66,67,68]],"type":"Polygon","properties":{"geoid":"39019","name":"Carroll"},"id":"39019"},{"arcs":[[69,70,71,72,73]],"type":"Polygon","properties":{"geoid":"39139","name":"Richland"},"id":"39139"},{"arcs":[[74,75,76,-33,77,78]],"type":"Polygon","properties":{"geoid":"39165","name":"Warren"},"id":"39165"},{"arcs":[[79,80,-65,-15,81,82]],"type":"Polygon","properties":{"geoid":"39161","name":"Van Wert"},"id":"39161"},{"arcs":[[-54,83,84,85,-41]],"type":"Polygon","properties":{"geoid":"39099","name":"Mahoning"},"id":"39099"},{"arcs":[[86,87,-38,88,89]],"type":"Polygon","properties":{"geoid":"39169","name":"Wayne"},"id":"39169"},{"arcs":[[90,91,92,93,-46,94,95]],"type":"Polygon","properties":{"geoid":"39097","name":"Madison"},"id":"39097"},{"arcs":[[96,97,98,99,100]],"type":"Polygon","properties":{"geoid":"39135","name":"Preble"},"id":"39135"},{"arcs":[[-86,101,102,-66,-42]],"type":"Polygon","properties":{"geoid":"39029","name":"Columbiana"},"id":"39029"},{"arcs":[[103,104,105,106,-34,-77]],"type":"Polygon","properties":{"geoid":"39027","name":"Clinton"},"id":"39027"},{"arcs":[[-23,107,108,-70,109,110,111]],"type":"Polygon","properties":{"geoid":"39077","name":"Huron"},"id":"39077"},{"arcs":[[112,113,114,115]],"type":"Polygon","properties":{"geoid":"39007","name":"Ashtabula"},"id":"39007"},{"arcs":[[116,-110,-74,117,118,119]],"type":"Polygon","properties":{"geoid":"39033","name":"Crawford"},"id":"39033"},{"arcs":[[120,-59,121,122,123,124,125]],"type":"Polygon","properties":{"geoid":"39009","name":"Athens"},"id":"39009"},{"arcs":[[-95,-51,126,127,-105,128]],"type":"Polygon","properties":{"geoid":"39047","name":"Fayette"},"id":"39047"},{"arcs":[[-106,-128,129,130,131,132]],"type":"Polygon","properties":{"geoid":"39071","name":"Highland"},"id":"39071"},{"arcs":[[133,134,135,136,137,138]],"type":"Polygon","properties":{"geoid":"39059","name":"Guernsey"},"id":"39059"},{"arcs":[[139,140,-30,141,-62,-81]],"type":"Polygon","properties":{"geoid":"39137","name":"Putnam"},"id":"39137"},{"arcs":[[142,-118,-73,143,144]],"type":"Polygon","properties":{"geoid":"39117","name":"Morrow"},"id":"39117"},{"arcs":[[145,146,147,148]],"type":"Polygon","properties":{"geoid":"39087","name":"Lawrence"},"id":"39087"},{"arcs":[[149,-31,-141,150,151]],"type":"Polygon","properties":{"geoid":"39039","name":"Defiance"},"id":"39039"},{"arcs":[[152,153,154,-92,155,156]],"type":"Polygon","properties":{"geoid":"39021","name":"Champaign"},"id":"39021"},{"arcs":[[157,158,159,-122,-58]],"type":"Polygon","properties":{"geoid":"39115","name":"Morgan"},"id":"39115"},{"arcs":[[160,161,162,163,-148]],"type":"Polygon","properties":{"geoid":"39053","name":"Gallia"},"id":"39053"},{"arcs":[[164,165,166,167,-93,-155,168]],"type":"Polygon","properties":{"geoid":"39159","name":"Union"},"id":"39159"},{"arcs":[[-137,169,170,171,172,173]],"type":"Polygon","properties":{"geoid":"39013","name":"Belmont"},"id":"39013"},{"arcs":[[174,175,176,177,-56,178,179]],"type":"Polygon","properties":{"geoid":"39089","name":"Licking"},"id":"39089"},{"arcs":[[180,-145,181,-175,182,-167]],"type":"Polygon","properties":{"geoid":"39041","name":"Delaware"},"id":"39041"},{"arcs":[[183,-156,-91,184,185]],"type":"Polygon","properties":{"geoid":"39023","name":"Clark"},"id":"39023"},{"arcs":[[186,-139,187,-158,-57,-178]],"type":"Polygon","properties":{"geoid":"39119","name":"Muskingum"},"id":"39119"},{"arcs":[[-168,-183,-180,188,-47,-94]],"type":"Polygon","properties":{"geoid":"39049","name":"Franklin"},"id":"39049"},{"arcs":[[189,-6,190,191,-108,-22]],"type":"Polygon","properties":{"geoid":"39093","name":"Lorain"},"id":"39093"},{"arcs":[[-191,-5,192,-87,193]],"type":"Polygon","properties":{"geoid":"39103","name":"Medina"},"id":"39103"},{"arcs":[[-144,-72,194,195,196,-176,-182]],"type":"Polygon","properties":{"geoid":"39083","name":"Knox"},"id":"39083"},{"arcs":[[-114,197,-84,-53,198]],"type":"Polygon","properties":{"geoid":"39155","name":"Trumbull"},"id":"39155"},{"arcs":[[-103,199,-171,200,-67]],"type":"Polygon","properties":{"geoid":"39081","name":"Jefferson"},"id":"39081"},{"arcs":[[201,202,203,204,205,-98,206]],"type":"Polygon","properties":{"geoid":"39037","name":"Darke"},"id":"39037"},{"arcs":[[-192,-194,-90,207,-195,-71,-109]],"type":"Polygon","properties":{"geoid":"39005","name":"Ashland"},"id":"39005"},{"arcs":[[208,-82,-20,209,-203,210]],"type":"Polygon","properties":{"geoid":"39107","name":"Mercer"},"id":"39107"},{"arcs":[[-13,-10,211,212,213,-29]],"type":"Polygon","properties":{"geoid":"39173","name":"Wood"},"id":"39173"},{"arcs":[[-64,214,215,216,-165,217,-17]],"type":"Polygon","properties":{"geoid":"39065","name":"Hardin"},"id":"39065"},{"arcs":[[218,219,220,-161,-147,221]],"type":"Polygon","properties":{"geoid":"39079","name":"Jackson"},"id":"39079"},{"arcs":[[222,-157,-184,223,-205]],"type":"Polygon","properties":{"geoid":"39109","name":"Miami"},"id":"39109"},{"arcs":[[-9,224,-24,-112,225,-212]],"type":"Polygon","properties":{"geoid":"39143","name":"Sandusky"},"id":"39143"},{"arcs":[[-189,-179,-61,226,-48]],"type":"Polygon","properties":{"geoid":"39045","name":"Fairfield"},"id":"39045"},{"arcs":[[227,-116,228,-2]],"type":"Polygon","properties":{"geoid":"39085","name":"Lake"},"id":"39085"},{"arcs":[[229,-28,-32,-150,230]],"type":"Polygon","properties":{"geoid":"39171","name":"Williams"},"id":"39171"},{"arcs":[[231,-78,-37,232]],"type":"Polygon","properties":{"geoid":"39061","name":"Hamilton"},"id":"39061"},{"arcs":[[233,-100,234,-79,-232,235]],"type":"Polygon","properties":{"geoid":"39017","name":"Butler"},"id":"39017"},{"arcs":[[236,237,-120,238,-216]],"type":"Polygon","properties":{"geoid":"39175","name":"Wyandot"},"id":"39175"},{"arcs":[[-214,239,-237,-215,-63,-142]],"type":"Polygon","properties":{"geoid":"39063","name":"Hancock"},"id":"39063"},{"arcs":[[-127,-50,240,241,-220,242,-130]],"type":"Polygon","properties":{"geoid":"39141","name":"Ross"},"id":"39141"},{"arcs":[[-160,243,244,245,-123]],"type":"Polygon","properties":{"geoid":"39167","name":"Washington"},"id":"39167"},{"arcs":[[246,-125,247,-163]],"type":"Polygon","properties":{"geoid":"39105","name":"Meigs"},"id":"39105"},{"arcs":[[-49,-227,-60,-121,248,-241]],"type":"Polygon","properties":{"geoid":"39073","name":"Hocking"},"id":"39073"},{"arcs":[[249,-222,-146,250,251]],"type":"Polygon","properties":{"geoid":"39145","name":"Scioto"},"id":"39145"},{"arcs":[[-173,252,-245,253]],"type":"Polygon","properties":{"geoid":"39111","name":"Monroe"},"id":"39111"},{"arcs":[[-210,-19,254,-153,-223,-204]],"type":"Polygon","properties":{"geoid":"39149","name":"Shelby"},"id":"39149"},{"arcs":[[-239,-119,-143,-181,-166,-217]],"type":"Polygon","properties":{"geoid":"39101","name":"Marion"},"id":"39101"},{"arcs":[[-89,-45,255,256,-196,-208]],"type":"Polygon","properties":{"geoid":"39075","name":"Holmes"},"id":"39075"},{"arcs":[[-4,-55,-39,-88,-193]],"type":"Polygon","properties":{"geoid":"39153","name":"Summit"},"id":"39153"},{"arcs":[[257,-68,-201,-170,-136]],"type":"Polygon","properties":{"geoid":"39067","name":"Harrison"},"id":"39067"},{"arcs":[[258,-132,259,-252,260]],"type":"Polygon","properties":{"geoid":"39001","name":"Adams"},"id":"39001"},{"arcs":[[-151,-140,-80,261]],"type":"Polygon","properties":{"geoid":"39125","name":"Paulding"},"id":"39125"},{"arcs":[[-185,-96,-129,-104,-76,262]],"type":"Polygon","properties":{"geoid":"39057","name":"Greene"},"id":"39057"},{"arcs":[[-256,-44,-69,-258,-135,263]],"type":"Polygon","properties":{"geoid":"39157","name":"Tuscarawas"},"id":"39157"},{"arcs":[[-213,-226,-111,-117,-238,-240]],"type":"Polygon","properties":{"geoid":"39147","name":"Seneca"},"id":"39147"},{"arcs":[[-249,-126,-247,-162,-221,-242]],"type":"Polygon","properties":{"geoid":"39163","name":"Vinton"},"id":"39163"},{"arcs":[[-257,-264,-134,-187,-177,-197]],"type":"Polygon","properties":{"geoid":"39031","name":"Coshocton"},"id":"39031"},{"arcs":[[-206,-224,-186,-263,-75,-235,-99]],"type":"Polygon","properties":{"geoid":"39113","name":"Montgomery"},"id":"39113"},{"arcs":[[-18,-218,-169,-154,-255]],"type":"Polygon","properties":{"geoid":"39091","name":"Logan"},"id":"39091"},{"arcs":[[-188,-138,-174,-254,-244,-159]],"type":"Polygon","properties":{"geoid":"39121","name":"Noble"},"id":"39121"},{"arcs":[[-107,-133,-259,264,-35]],"type":"Polygon","properties":{"geoid":"39015","name":"Brown"},"id":"39015"},{"arcs":[[-243,-219,-250,-260,-131]],"type":"Polygon","properties":{"geoid":"39131","name":"Pike"},"id":"39131"},{"arcs":[[-229,-115,-199,-52,-3]],"type":"Polygon","properties":{"geoid":"39055","name":"Geauga"},"id":"39055"}]}}}