{"type":"Topology","arcs":[[[66303,86779],[555,-352],[1879,-270],[1194,353],[1570,-229],[3371,2058],[1628,1490],[955,489]],[[77455,90318],[19,-1716],[2251,-10]],[[79725,88592],[-16,-6199]],[[79709,82393],[-4797,81],[293,-1184],[518,-848],[-2832,-40]],[[72891,80402],[-4489,-59]],[[68402,80343],[25,2118],[-2192,16],[68,4302]],[[48491,89539],[275,371],[958,-140],[-102,-676],[-1131,445]],[[57474,84634],[134,-4033]],[[57608,80601],[-2330,-11],[-9275,172]],[[46003,80762],[-145,3933],[-1261,-1]],[[44597,84694],[1493,543],[583,559],[1077,-673],[829,119],[1151,766],[1865,-1620],[2063,-1022],[721,-47],[3095,1315]],[[21790,86292],[59,6510]],[[21849,92802],[2726,97],[7155,260],[-522,-962],[1270,-253],[1662,-69],[369,519],[2968,-1967],[898,-335]],[[38375,90092],[-5728,-117]],[[32647,89975],[-3580,-55],[-995,-1299],[-1893,-901],[-404,-1204],[-1000,-916],[-1208,-737],[-1784,-616]],[[21783,84247],[7,2045]],[[54807,42699],[1026,-222],[4294,-257]],[[60127,42220],[1665,-109],[-179,-2481],[2258,-127],[-86,-1267]],[[63785,38236],[-84,-1212],[1303,-83],[-358,-4884],[-184,17]],[[64462,32074],[-2596,160]],[[61866,32234],[-2427,156],[37,797],[-2742,172],[125,1630]],[[56859,34989],[197,2451],[-888,58],[178,2477],[-1762,116],[223,2608]],[[16,25196],[4130,-3],[274,196],[2473,-246],[442,75],[3521,-382]],[[10856,24836],[2117,-111],[63,-489]],[[13036,24236],[-1408,-1328],[1014,-547],[-536,-840],[-476,-4250]],[[11630,17271],[-607,417],[-1416,243],[-532,353],[-70,1008],[-877,761],[-826,-738],[-1041,120],[-495,-485],[-1194,-215],[-1540,834],[-670,921],[-834,269],[-687,-801],[-841,-352],[16,5590]],[[38375,90092],[1538,-291],[658,-345],[849,-1074],[1602,-1072],[1007,-270],[881,211],[728,709],[99,1013],[444,103],[1123,-1297],[1522,44],[-144,-847],[-905,-255],[-1838,-22],[-899,-372],[-1778,-7],[-369,-611],[-1475,-257]],[[41418,85452],[-6963,-1],[-19,1223],[-1758,-27]],[[32678,86647],[-31,3328]],[[416,60667],[3,4366]],[[419,65033],[8043,4],[0,-1216]],[[8462,63821],[18,-9134],[489,-114]],[[8969,54573],[-6,-7]],[[8963,54566],[-3837,-70],[-4753,28]],[[373,54524],[43,6143]],[[69173,29257],[445,-29],[60,1257],[1446,-317],[1219,-56],[80,1406],[-428,465],[211,1026],[593,175],[2342,-98]],[[75141,33086],[2667,-103],[7,1754],[476,-414],[907,-19],[436,-810],[895,-225],[1695,-47],[11,390]],[[82235,33612],[437,-12],[406,-737],[4883,-193],[-45,-898]],[[87916,31772],[-1444,-1480],[-480,-824],[-388,-391],[-1111,-365],[-875,-1251],[-1096,-4],[-1787,-1124],[-551,-104],[-572,378],[-251,911],[-1150,593],[-2358,-1974],[-295,-1990],[-887,234],[-1626,-64],[-419,-468],[117,-814],[-796,-340]],[[71947,22695],[87,1505],[-2244,84],[40,825],[-861,451],[204,3697]],[[72601,37805],[76,2438]],[[72677,40243],[2647,-99],[40,1640],[2662,-88],[31,811],[1766,-56],[19,817],[889,82],[2643,-66]],[[83374,43284],[-76,-2336]],[[83298,40948],[-1773,46],[-129,-4538],[896,-7],[-57,-2837]],[[75141,33086],[48,2156],[-1327,47],[77,2456],[-1338,60]],[[41834,56792],[93,1420],[1357,172],[14,4325],[2280,35],[34,1641]],[[45612,64385],[2,208],[3047,-35]],[[48661,64558],[2324,-50],[83,-4466]],[[51068,60042],[-222,-751],[-310,-4982],[-2288,126]],[[48248,54435],[-4294,239],[112,1592],[-2262,109],[30,417]],[[30222,58760],[2362,32]],[[32584,58792],[3963,51],[-9,-1765]],[[36538,57078],[4,-5586],[1769,-6],[54,-2832]],[[38365,48654],[-5,-1008],[-838,18]],[[37522,47664],[-6916,105]],[[30606,47769],[215,3191],[-1322,109]],[[29499,51069],[723,7691]],[[86809,72308],[1967,-7],[-13,4099]],[[88763,76400],[11232,-23]],[[99995,76377],[4,-232],[-18,-6292]],[[99981,69853],[-7025,17],[7,807],[-1725,12],[-5,-817],[-4432,17]],[[86801,69889],[8,2419]],[[19013,58173],[198,1457],[2646,99]],[[21857,59729],[1,-190],[8376,-624],[-12,-155]],[[29499,51069],[-5441,444],[34,407],[-5367,384]],[[18725,52304],[257,1105],[31,4764]],[[80956,50646],[81,2522],[1378,-25],[125,3641]],[[82540,56784],[7626,-246]],[[90166,56538],[1777,-50],[-141,-1217],[-263,-6158]],[[91539,49113],[-5329,236],[-2647,60]],[[83563,49409],[-2642,54],[35,1183]],[[21853,62696],[4,4906]],[[21857,67602],[8466,-50]],[[30323,67552],[456,-6],[14,-3260],[1291,20],[472,-430]],[[32556,63876],[28,-5084]],[[21857,59729],[-4,2967]],[[7784,42366],[1382,32]],[[9166,42398],[6236,94],[11,-1035],[2469,-174]],[[17882,41283],[-63,-821]],[[17819,40462],[-912,-339],[-291,-3694],[-202,-3588]],[[16414,32841],[-3988,317],[-1849,-2]],[[10577,33156],[-2650,43]],[[7927,33199],[-143,9167]],[[21831,77341],[3581,20],[5282,-78],[1834,29]],[[32528,77312],[17,-4896]],[[32545,72416],[-872,-6],[4,-1208],[-445,-4],[1,-1215],[-883,4],[-27,-2435]],[[21857,67602],[-9,2814]],[[21848,70416],[-17,6925]],[[61580,74422],[37,2059],[2223,-18],[42,1775],[2292,0],[32,2099],[2196,6]],[[72891,80402],[-82,-8078]],[[72809,72324],[-3264,-9],[-6985,99]],[[62560,72414],[-1024,8],[44,2000]],[[62633,63359],[4520,-32],[6550,16]],[[73703,63343],[22,-931]],[[73725,62412],[-318,-203],[-164,-5131],[-914,22]],[[72329,57100],[-4296,93],[-6751,232]],[[61282,57425],[134,3267],[-970,-137]],[[60446,60555],[-20,2776],[2207,28]],[[39696,72460],[6035,6],[550,83]],[[46281,72549],[2435,-28]],[[48716,72521],[-55,-7963]],[[45612,64385],[-5884,-59]],[[39728,64326],[-32,8134]],[[72329,57100],[-73,-2071],[2238,-75],[-155,-4110]],[[74339,50844],[-1044,32],[-77,-2001],[-1055,33]],[[72163,48908],[-8758,292],[-2188,120]],[[61217,49320],[99,2009],[-304,12]],[[61012,51341],[270,6084]],[[19302,23767],[2889,-190]],[[22191,23577],[-152,-6327],[4631,-25]],[[26670,17225],[-696,-9411],[-55,-1246]],[[25919,6568],[-1554,515],[-266,1050],[-1325,735],[-428,977],[-1044,318],[-931,433],[-810,97],[-1717,-440]],[[17844,10253],[1458,13514]],[[72809,72324],[949,-1],[-1,-2087]],[[73757,70236],[-54,-6893]],[[62633,63359],[-27,3804],[54,2296],[-100,2955]],[[73725,62412],[3761,505],[3943,-28]],[[81429,62889],[-91,-2377],[1323,-45],[-121,-3683]],[[80956,50646],[-6617,198]],[[79709,82393],[9030,-11]],[[88739,82382],[24,-5982]],[[86809,72308],[-7136,14]],[[79673,72322],[36,10071]],[[73757,70236],[5286,-210],[93,2294],[537,2]],[[86801,69889],[-15,-4866]],[[86786,65023],[-2591,38],[-894,-157],[-94,-2044],[-1778,29]],[[387,79714],[8051,26],[4,-1234],[2684,-10],[0,-1219]],[[11126,77277],[-7,-4894],[-1339,-11]],[[9780,72372],[-9388,-26]],[[392,72346],[-5,7368]],[[27128,36722],[4481,-331],[4839,-269]],[[36448,36122],[-332,-5016]],[[36116,31106],[-2464,-3887]],[[33652,27219],[-5072,37]],[[28580,27256],[339,4642],[-2183,160]],[[26736,32058],[392,4664]],[[11119,86235],[6171,16],[4500,41]],[[21783,84247],[48,-6906]],[[21831,77341],[-8069,-54]],[[13762,77287],[-5,7333],[-2632,-7]],[[11125,84613],[-6,1622]],[[9780,72372],[25,-2437],[1336,9],[10,-1245]],[[11151,68699],[10,-1203],[-1332,-5],[14,-3668]],[[9843,63823],[-1381,-2]],[[419,65033],[-19,5443],[-8,1870]],[[57743,74484],[3837,-62]],[[60446,60555],[-2714,-370]],[[57732,60185],[-52,4807],[-911,13],[-13,1682],[-223,586],[-658,179],[-24,4994],[-348,0]],[[55503,72446],[-94,2028],[2334,10]],[[51068,60042],[5783,28],[881,115]],[[61012,51341],[-2827,16],[-3715,173],[27,529],[-6385,344]],[[48112,52403],[136,2032]],[[88743,86688],[6742,-54],[4509,5]],[[99994,86639],[0,-303],[1,-9959]],[[88739,82382],[4,4306]],[[32528,77312],[28,2442]],[[32556,79754],[4730,-21],[1972,88],[6777,-30]],[[46035,79791],[246,-7242]],[[39696,72460],[-7151,-44]],[[8969,54573],[8,664],[2215,14],[-9,2865],[7830,57]],[[18725,52304],[-190,-2506]],[[18535,49798],[-4562,323],[11,126],[-4973,-83]],[[9011,50164],[-48,4402]],[[36538,57078],[5296,-286]],[[48112,52403],[-257,-4231]],[[47855,48172],[-9490,482]],[[32556,63876],[2677,8],[1,417],[4494,25]],[[214,44790],[164,8539],[-5,1195]],[[9011,50164],[155,-7766]],[[7784,42366],[-2578,-49],[-5026,5]],[[180,42322],[34,2468]],[[30606,47769],[-289,-2836]],[[30317,44933],[-2702,170],[-9386,670]],[[18229,45773],[306,4025]],[[36021,17095],[1292,-668],[73,-889],[5611,-137],[3805,-202]],[[46802,15199],[1249,-75],[-170,-2534],[2573,-162]],[[50454,12428],[-299,-2830],[-756,56],[-255,-2030],[-1337,70],[-54,-988],[600,-1330],[-1757,-741]],[[46596,4635],[-726,685],[-374,2075],[-333,585],[179,1063],[-565,796],[-1981,-857],[-1197,-12],[-516,-832],[-1154,-518],[-751,-1277],[-436,-361],[-1161,-58],[-975,331],[-498,-291]],[[36108,5964],[-35,7400],[-52,3731]],[[52185,12299],[28,252],[2771,-249],[462,5333]],[[55446,17635],[2614,-207]],[[58060,17428],[-24,-407],[5311,-290],[-79,-1245]],[[63268,15486],[-1030,-1686],[-39,-1613],[-1684,-1254],[15,-765],[413,-297],[381,-1370],[-195,-796],[437,-1522],[-388,-868],[-702,-93],[-628,191],[-956,-445]],[[58892,4968],[-1734,72],[167,2545],[-2743,174],[130,1657],[-388,862],[-2304,190],[165,1831]],[[79725,88592],[2212,7],[28,1986],[4493,16],[-20,2039],[2293,24]],[[88731,92664],[12,-5976]],[[36448,36122],[203,3277]],[[36651,39399],[4791,-194],[4961,-296]],[[46403,38909],[-310,-4070],[-124,-2467],[2590,-197]],[[48559,32175],[-214,-2410]],[[48345,29765],[-5986,328],[130,737],[-6373,276]],[[58832,27409],[215,2483],[2628,-185],[191,2527]],[[64462,32074],[-192,-2542],[4903,-275]],[[71947,22695],[-703,-988]],[[71244,21707],[-6823,329],[-5099,321]],[[59322,22357],[194,2496],[-889,59],[205,2497]],[[83298,40948],[5121,-223],[4552,-277]],[[92971,40448],[-112,-1438],[-859,-655],[-53,-615],[741,-908],[-657,-761],[-115,-1148],[-319,-893],[-1474,-386],[-2207,-1872]],[[330,92131],[9449,273]],[[9779,92404],[27,-2488],[397,-7],[13,-2878],[900,5],[3,-801]],[[11125,84613],[-10748,-43]],[[377,84570],[-18,2914],[-29,4647]],[[46403,38909],[507,783],[188,2459],[276,808]],[[47374,42959],[7186,-409],[247,149]],[[56859,34989],[-2692,189],[-135,-1648],[-2823,161],[-59,-1249],[-2562,142],[-29,-409]],[[58832,27409],[-5227,324],[-72,-737],[-2715,182],[-31,-403],[-2625,185]],[[48162,26960],[183,2805]],[[19603,32594],[7133,-536]],[[28580,27256],[-4509,-3243],[-546,-1070],[-607,589],[-727,45]],[[19302,23767],[-407,28]],[[18895,23795],[708,8799]],[[57474,84634],[2172,168],[1787,1042],[3845,1231],[1025,-296]],[[57743,74484],[-88,1783],[-47,4334]],[[41418,85452],[556,-266],[887,156],[454,-787],[740,-198],[542,337]],[[46003,80762],[32,-971]],[[32556,79754],[122,6893]],[[13762,77287],[-2636,-10]],[[387,79714],[-2,524],[-8,4332]],[[34098,22185],[13197,-807]],[[47295,21378],[-493,-6179]],[[36021,17095],[-1018,1019],[-1651,84]],[[33352,18198],[746,3987]],[[9779,92404],[910,21],[11160,377]],[[59322,22357],[-885,49],[-377,-4978]],[[55446,17635],[247,2876],[-2688,187],[93,1015],[-2678,247],[33,356],[-2623,159]],[[47830,22475],[332,4485]],[[77455,90318],[1080,1170],[1250,956],[2373,1466],[1468,241],[2203,1199],[2936,1175]],[[88765,96525],[-34,-3861]],[[27271,38294],[1375,-119],[1671,6758]],[[37522,47664],[-138,-1670],[-968,32],[-164,-1299],[446,-1407],[373,-568],[-613,-417],[193,-2936]],[[27128,36722],[143,1572]],[[16414,32841],[3189,-247]],[[18895,23795],[-5859,441]],[[10856,24836],[384,4583],[107,2553],[-749,-95],[-21,1279]],[[72163,48908],[-287,-6171],[872,-30],[-71,-2464]],[[72601,37805],[-8816,431]],[[60127,42220],[53,1059],[766,-25],[271,6066]],[[55503,72446],[-6787,75]],[[112,31265],[7,1281]],[[119,32546],[1208,-31],[6606,61],[-6,623]],[[16,25196],[96,6069]],[[11151,68699],[5369,53],[2,1224],[2658,10],[-1,413],[2669,17]],[[21853,62696],[-5291,-45],[-3,416],[-2670,-27],[-1,812],[-4045,-29]],[[71244,21707],[260,-899],[-61,-1485],[-658,-476],[-751,157],[-89,-683],[1103,-1240],[-409,-1409],[597,-879],[-686,-206],[-664,559],[-704,-488],[-97,-765],[-943,-759],[-451,117],[-420,639],[607,1018],[-758,1400],[-1029,140],[-407,834],[-995,39],[-321,-825],[-872,-515],[-228,-495]],[[18229,45773],[-347,-4490]],[[86786,65023],[3956,-24],[-23,-2337],[1333,-25],[-28,-1208]],[[92024,61429],[-36,-1232],[-1334,25],[-84,-2473],[-363,11],[-41,-1222]],[[99981,69853],[17,-1372],[1,-5950],[-1343,-688],[-512,309],[-827,-256],[-781,-941]],[[96536,60955],[-1845,23],[4,383],[-2671,68]],[[140,36995],[40,5327]],[[119,32546],[21,4449]],[[17819,40462],[2648,-197],[-34,-408],[2647,-176],[-45,-694],[2058,-244],[45,-217],[2133,-232]],[[50454,12428],[1731,-129]],[[58892,4968],[-398,-2416],[-460,-1317],[-1529,-417],[-352,140],[-2390,-800],[-1486,-158],[-508,467],[-473,1476],[-1201,873],[-570,845],[-811,607],[-1270,40],[-848,327]],[[26670,17225],[1428,-43],[5254,1016]],[[36108,5964],[-630,-604],[-543,354],[-113,598],[-1029,782],[-2358,474],[-1229,772],[-2464,-662],[-423,-1202],[-612,-254],[-788,346]],[[83374,43284],[189,6125]],[[91539,49113],[2711,-122],[1473,60]],[[95723,49051],[-170,-1615],[-660,-669],[124,-1185],[-159,-1751],[-567,-678],[199,-841],[-1103,62],[-131,-435],[439,-867],[-724,-624]],[[47855,48172],[-279,-4192],[-202,-1021]],[[96536,60955],[940,-1307],[221,-945],[437,-545],[-293,-2204],[-416,-248],[514,-712],[-121,-613],[300,-840],[-525,-1565],[-908,-895],[-471,-1238],[-491,-792]],[[47295,21378],[447,-28],[88,1125]],[[88765,96525],[2363,433],[1749,695],[574,455],[639,-39],[3314,991],[2585,939],[3,-3572],[2,-9788]],[[34098,22185],[234,997],[-876,459],[21,2995],[175,583]],[[17844,10253],[-438,-25],[-1963,684],[-1325,302],[-407,607],[-35,1328],[-59,515],[-1249,1751],[-384,1419],[-354,437]]],"bbox":[-84.820157,38.405138,-80.518991,41.977164],"transform":{"scale":[0.00004301209012090116,0.00003572061720617207],"translate":[-84.820157,38.405138]},"objects":{"in":{"type":"GeometryCollection","geometries":[{"arcs":[[0,1,2,3,4,5]],"type":"Polygon","properties":{"geoid":"39035","name":"Cuyahoga"},"id":"39035"},{"arcs":[[[6]],[[7,8,9,10]]],"type":"MultiPolygon","properties":{"geoid":"39043","name":"Erie"},"id":"39043"},{"arcs":[[11,12,13,14,15]],"type":"Polygon","properties":{"geoid":"39095","name":"Lucas"},"id":"39095"},{"arcs":[[16,17,18,19,20,21]],"type":"Polygon","properties":{"geoid":"39127","name":"Perry"},"id":"39127"},{"arcs":[[22,23,24,25]],"type":"Polygon","properties":{"geoid":"39061","name":"Hamilton"},"id":"39061"},{"arcs":[[-14,26,27,28]],"type":"Polygon","properties":{"geoid":"39123","name":"Ottawa"},"id":"39123"},{"arcs":[[29,30,31,32,33,34]],"type":"Polygon","properties":{"geoid":"39107","name":"Mercer"},"id":"39107"},{"arcs":[[35,36,37,38,39]],"type":"Polygon","properties":{"geoid":"39167","name":"Washington"},"id":"39167"},{"arcs":[[40,41,42,43,-37,44]],"type":"Polygon","properties":{"geoid":"39121","name":"Noble"},"id":"39121"},{"arcs":[[45,46,47,48,49]],"type":"Polygon","properties":{"geoid":"39117","name":"Morrow"},"id":"39117"},{"arcs":[[50,51,52,53,54,55,56]],"type":"Polygon","properties":{"geoid":"39159","name":"Union"},"id":"39159"},{"arcs":[[57,58,59,60,61]],"type":"Polygon","properties":{"geoid":"39099","name":"Mahoning"},"id":"39099"},{"arcs":[[62,63,-57,64,65]],"type":"Polygon","properties":{"geoid":"39091","name":"Logan"},"id":"39091"},{"arcs":[[66,67,68,69,70]],"type":"Polygon","properties":{"geoid":"39067","name":"Harrison"},"id":"39067"},{"arcs":[[71,72,73,74,-51,-64,75]],"type":"Polygon","properties":{"geoid":"39065","name":"Hardin"},"id":"39065"},{"arcs":[[76,77,78,79,80,81,82]],"type":"Polygon","properties":{"geoid":"39113","name":"Montgomery"},"id":"39113"},{"arcs":[[83,84,85,-73,86,87]],"type":"Polygon","properties":{"geoid":"39063","name":"Hancock"},"id":"39063"},{"arcs":[[88,-5,89,90,91]],"type":"Polygon","properties":{"geoid":"39103","name":"Medina"},"id":"39103"},{"arcs":[[92,93,94,95,96,97]],"type":"Polygon","properties":{"geoid":"39075","name":"Holmes"},"id":"39075"},{"arcs":[[98,99,100,-47,101,102]],"type":"Polygon","properties":{"geoid":"39033","name":"Crawford"},"id":"39033"},{"arcs":[[-96,103,104,105,106,107]],"type":"Polygon","properties":{"geoid":"39031","name":"Coshocton"},"id":"39031"},{"arcs":[[108,109,110,111,112]],"type":"Polygon","properties":{"geoid":"39015","name":"Brown"},"id":"39015"},{"arcs":[[-91,113,114,-93,115]],"type":"Polygon","properties":{"geoid":"39169","name":"Wayne"},"id":"39169"},{"arcs":[[-95,116,117,-67,118,-104]],"type":"Polygon","properties":{"geoid":"39157","name":"Tuscarawas"},"id":"39157"},{"arcs":[[119,120,-58,121,122]],"type":"Polygon","properties":{"geoid":"39133","name":"Portage"},"id":"39133"},{"arcs":[[123,-122,-62,124,125,-117,-94,-115]],"type":"Polygon","properties":{"geoid":"39151","name":"Stark"},"id":"39151"},{"arcs":[[126,127,128,129]],"type":"Polygon","properties":{"geoid":"39125","name":"Paulding"},"id":"39125"},{"arcs":[[130,131,132,133,134,135]],"type":"Polygon","properties":{"geoid":"39047","name":"Fayette"},"id":"39047"},{"arcs":[[136,-16,137,138,139,140]],"type":"Polygon","properties":{"geoid":"39069","name":"Henry"},"id":"39069"},{"arcs":[[-129,141,142,143,-31,144]],"type":"Polygon","properties":{"geoid":"39161","name":"Van Wert"},"id":"39161"},{"arcs":[[145,-92,-116,-98,146,147,148]],"type":"Polygon","properties":{"geoid":"39005","name":"Ashland"},"id":"39005"},{"arcs":[[-49,149,-147,-97,-108,150,151]],"type":"Polygon","properties":{"geoid":"39083","name":"Knox"},"id":"39083"},{"arcs":[[152,153,-59,-121,154]],"type":"Polygon","properties":{"geoid":"39155","name":"Trumbull"},"id":"39155"},{"arcs":[[155,156,157,-99,158,-85]],"type":"Polygon","properties":{"geoid":"39147","name":"Seneca"},"id":"39147"},{"arcs":[[-33,159,-66,160,161,162]],"type":"Polygon","properties":{"geoid":"39149","name":"Shelby"},"id":"39149"},{"arcs":[[163,-50,-152,164,165,-53]],"type":"Polygon","properties":{"geoid":"39041","name":"Delaware"},"id":"39041"},{"arcs":[[166,-102,-46,-164,-52,-75]],"type":"Polygon","properties":{"geoid":"39101","name":"Marion"},"id":"39101"},{"arcs":[[167,-34,-163,168,-77,169,170]],"type":"Polygon","properties":{"geoid":"39037","name":"Darke"},"id":"39037"},{"arcs":[[-161,-65,-56,171,172,173]],"type":"Polygon","properties":{"geoid":"39021","name":"Champaign"},"id":"39021"},{"arcs":[[174,175,176,177,178]],"type":"Polygon","properties":{"geoid":"39145","name":"Scioto"},"id":"39145"},{"arcs":[[179,180,181,182,183]],"type":"Polygon","properties":{"geoid":"39053","name":"Gallia"},"id":"39053"},{"arcs":[[184,185,-155,-120,-3]],"type":"Polygon","properties":{"geoid":"39055","name":"Geauga"},"id":"39055"},{"arcs":[[186,187,188,189,190,-132]],"type":"Polygon","properties":{"geoid":"39129","name":"Pickaway"},"id":"39129"},{"arcs":[[191,-20,192,-40,193,194,195]],"type":"Polygon","properties":{"geoid":"39009","name":"Athens"},"id":"39009"},{"arcs":[[196,197,-38,-44]],"type":"Polygon","properties":{"geoid":"39111","name":"Monroe"},"id":"39111"},{"arcs":[[198,199,-141,200,201]],"type":"Polygon","properties":{"geoid":"39171","name":"Williams"},"id":"39171"},{"arcs":[[202,203,-22,204,-189]],"type":"Polygon","properties":{"geoid":"39045","name":"Fairfield"},"id":"39045"},{"arcs":[[-190,-205,-21,-192,205,206]],"type":"Polygon","properties":{"geoid":"39073","name":"Hocking"},"id":"39073"},{"arcs":[[207,-135,208,-109,209,210]],"type":"Polygon","properties":{"geoid":"39027","name":"Clinton"},"id":"39027"},{"arcs":[[211,-6,-89,-146,212,-8]],"type":"Polygon","properties":{"geoid":"39093","name":"Lorain"},"id":"39093"},{"arcs":[[-28,213,-10,214,-157,215]],"type":"Polygon","properties":{"geoid":"39143","name":"Sandusky"},"id":"39143"},{"arcs":[[-201,-140,216,-127,217]],"type":"Polygon","properties":{"geoid":"39039","name":"Defiance"},"id":"39039"},{"arcs":[[218,219,-175,220,221]],"type":"Polygon","properties":{"geoid":"39131","name":"Pike"},"id":"39131"},{"arcs":[[222,-12,-137,-200]],"type":"Polygon","properties":{"geoid":"39051","name":"Fulton"},"id":"39051"},{"arcs":[[-206,-196,223,-181,224,225]],"type":"Polygon","properties":{"geoid":"39163","name":"Vinton"},"id":"39163"},{"arcs":[[226,227,-185,-2]],"type":"Polygon","properties":{"geoid":"39085","name":"Lake"},"id":"39085"},{"arcs":[[228,-172,-55,229,-187,-131,230]],"type":"Polygon","properties":{"geoid":"39097","name":"Madison"},"id":"39097"},{"arcs":[[-81,231,-211,232,-24,233]],"type":"Polygon","properties":{"geoid":"39165","name":"Warren"},"id":"39165"},{"arcs":[[-106,234,-41,235,-18,236]],"type":"Polygon","properties":{"geoid":"39119","name":"Muskingum"},"id":"39119"},{"arcs":[[-236,-45,-36,-193,-19]],"type":"Polygon","properties":{"geoid":"39115","name":"Morgan"},"id":"39115"},{"arcs":[[-9,-213,-149,237,-100,-158,-215]],"type":"Polygon","properties":{"geoid":"39077","name":"Huron"},"id":"39077"},{"arcs":[[238,239,-82,-234,-23,240]],"type":"Polygon","properties":{"geoid":"39017","name":"Butler"},"id":"39017"},{"arcs":[[241,-87,-72,242,-143]],"type":"Polygon","properties":{"geoid":"39003","name":"Allen"},"id":"39003"},{"arcs":[[-224,-195,243,-182]],"type":"Polygon","properties":{"geoid":"39105","name":"Meigs"},"id":"39105"},{"arcs":[[-162,-174,244,-78,-169]],"type":"Polygon","properties":{"geoid":"39109","name":"Miami"},"id":"39109"},{"arcs":[[-126,245,246,-68,-118]],"type":"Polygon","properties":{"geoid":"39019","name":"Carroll"},"id":"39019"},{"arcs":[[-61,247,248,-246,-125]],"type":"Polygon","properties":{"geoid":"39029","name":"Columbiana"},"id":"39029"},{"arcs":[[-4,-123,-124,-114,-90]],"type":"Polygon","properties":{"geoid":"39153","name":"Summit"},"id":"39153"},{"arcs":[[-128,-217,-139,-88,-242,-142]],"type":"Polygon","properties":{"geoid":"39137","name":"Putnam"},"id":"39137"},{"arcs":[[-238,-148,-150,-48,-101]],"type":"Polygon","properties":{"geoid":"39139","name":"Richland"},"id":"39139"},{"arcs":[[249,-170,-83,-240,250]],"type":"Polygon","properties":{"geoid":"39135","name":"Preble"},"id":"39135"},{"arcs":[[251,-231,-136,-208,-232,-80]],"type":"Polygon","properties":{"geoid":"39057","name":"Greene"},"id":"39057"},{"arcs":[[-177,252,-184,253]],"type":"Polygon","properties":{"geoid":"39087","name":"Lawrence"},"id":"39087"},{"arcs":[[-15,-29,-216,-156,-84,-138]],"type":"Polygon","properties":{"geoid":"39173","name":"Wood"},"id":"39173"},{"arcs":[[-111,254,-221,-179,255]],"type":"Polygon","properties":{"geoid":"39001","name":"Adams"},"id":"39001"},{"arcs":[[256,-70,257,258,-197,-43]],"type":"Polygon","properties":{"geoid":"39013","name":"Belmont"},"id":"39013"},{"arcs":[[-54,-166,259,-203,-188,-230]],"type":"Polygon","properties":{"geoid":"39049","name":"Franklin"},"id":"39049"},{"arcs":[[-249,260,-258,-69,-247]],"type":"Polygon","properties":{"geoid":"39081","name":"Jefferson"},"id":"39081"},{"arcs":[[-105,-119,-71,-257,-42,-235]],"type":"Polygon","properties":{"geoid":"39059","name":"Guernsey"},"id":"39059"},{"arcs":[[-220,261,-225,-180,-253,-176]],"type":"Polygon","properties":{"geoid":"39079","name":"Jackson"},"id":"39079"},{"arcs":[[262,-153,-186,-228]],"type":"Polygon","properties":{"geoid":"39007","name":"Ashtabula"},"id":"39007"},{"arcs":[[-133,-191,-207,-226,-262,-219,263]],"type":"Polygon","properties":{"geoid":"39141","name":"Ross"},"id":"39141"},{"arcs":[[-233,-210,-113,264,-25]],"type":"Polygon","properties":{"geoid":"39025","name":"Clermont"},"id":"39025"},{"arcs":[[-209,-134,-264,-222,-255,-110]],"type":"Polygon","properties":{"geoid":"39071","name":"Highland"},"id":"39071"},{"arcs":[[-86,-159,-103,-167,-74]],"type":"Polygon","properties":{"geoid":"39175","name":"Wyandot"},"id":"39175"},{"arcs":[[-245,-173,-229,-252,-79]],"type":"Polygon","properties":{"geoid":"39023","name":"Clark"},"id":"39023"},{"arcs":[[-144,-243,-76,-63,-160,-32]],"type":"Polygon","properties":{"geoid":"39011","name":"Auglaize"},"id":"39011"},{"arcs":[[-165,-151,-107,-237,-17,-204,-260]],"type":"Polygon","properties":{"geoid":"39089","name":"Licking"},"id":"39089"}]}}}