{"type":"Topology","arcs":[[[32647,89975],[5728,117]],[[38375,90092],[1538,-291],[658,-345],[849,-1074],[1602,-1072],[1007,-270],[881,211],[728,709],[99,1013],[444,103],[1123,-1297],[1522,44],[-144,-847],[-905,-255],[-1838,-22],[-899,-372],[-1778,-7],[-358,-596],[-799,59],[-686,-331]],[[41419,85452],[-6964,-1],[-19,1223],[-1758,-27]],[[32678,86647],[-31,3328]],[[62633,63359],[4520,-32],[6550,16]],[[73703,63343],[22,-931]],[[73725,62412],[-318,-203],[-163,-5134],[-915,25]],[[72329,57100],[-4296,93],[-6751,232]],[[61282,57425],[134,3267],[-970,-137]],[[60446,60555],[-20,2776],[2207,28]],[[11119,86235],[10671,57]],[[21790,86292],[-7,-2045]],[[21783,84247],[48,-6906]],[[21831,77341],[-8069,-54]],[[13762,77287],[-5,7333],[-2632,-7]],[[11125,84613],[-6,1622]],[[69173,29257],[445,-29],[60,1257],[1446,-317],[1219,-56],[80,1406],[-428,465],[211,1026],[593,175],[2342,-98]],[[75141,33086],[2667,-103],[7,1754],[476,-414],[907,-19],[436,-810],[895,-225],[1695,-47],[11,390]],[[82235,33612],[843,-749],[4883,-193],[-45,-898]],[[87916,31772],[-1444,-1480],[-480,-824],[-388,-391],[-1111,-365],[-875,-1251],[-1096,-4],[-1787,-1124],[-551,-104],[-572,378],[-251,911],[-1150,593],[-2358,-1974],[-295,-1990],[-887,234],[-1626,-64],[-419,-468],[117,-814],[-796,-340]],[[71947,22695],[87,1505],[-2244,84],[40,825],[-861,451],[204,3697]],[[58832,27409],[215,2483],[2628,-185],[191,2527]],[[61866,32234],[2596,-160]],[[64462,32074],[-192,-2542],[4903,-275]],[[71947,22695],[-703,-988]],[[71244,21707],[-6823,329],[-5099,321]],[[59322,22357],[194,2496],[-889,59],[205,2497]],[[39696,72460],[6035,6],[550,83]],[[46281,72549],[2435,-28]],[[48716,72521],[-55,-7963]],[[48661,64558],[-3047,35],[-2,-208]],[[45612,64385],[-5884,-59]],[[39728,64326],[-32,8134]],[[374,84571],[10751,42]],[[13762,77287],[-2636,-10]],[[11126,77277],[0,1219],[-2684,10],[-4,1234],[-8051,-26]],[[387,79714],[-2,514],[-11,4343]],[[66303,86779],[555,-352],[1879,-270],[1194,353],[1570,-229],[3371,2058],[1628,1490],[955,489]],[[77455,90318],[19,-1716],[2251,-10]],[[79725,88592],[-16,-6199]],[[79709,82393],[-4797,81],[293,-1184],[518,-848],[-2832,-40]],[[72891,80402],[-4489,-59]],[[68402,80343],[25,2118],[-2192,16],[68,4302]],[[21790,86292],[59,6510]],[[21849,92802],[2726,97],[7155,260],[-522,-962],[1270,-253],[1662,-69],[369,519],[2968,-1967],[898,-335]],[[32647,89975],[-3580,-55],[-995,-1299],[-1893,-901],[-404,-1204],[-1000,-916],[-1208,-737],[-1784,-616]],[[11126,77277],[-7,-4894],[-1339,-11]],[[9780,72372],[-9387,-26]],[[393,72346],[-6,7368]],[[18535,49798],[190,2506]],[[18725,52304],[5367,-384],[-34,-407],[5441,-444]],[[29499,51069],[1322,-109],[-215,-3191]],[[30606,47769],[-287,-2818]],[[30319,44951],[-2704,152],[-9386,670]],[[18229,45773],[306,4025]],[[46802,15199],[493,6179]],[[47295,21378],[447,-28],[88,1125]],[[47830,22475],[2623,-159],[-33,-356],[2678,-247],[-93,-1015],[2688,-187],[-247,-2876]],[[55446,17635],[-462,-5333],[-2771,249],[-28,-252]],[[52185,12299],[-1731,129]],[[50454,12428],[-2573,162],[170,2534],[-1249,75]],[[32556,63876],[2677,8],[1,417],[4494,25]],[[45612,64385],[-34,-1641],[-2280,-35],[-14,-4325],[-1357,-172],[-93,-1420]],[[41834,56792],[-5296,286]],[[36538,57078],[7,1766],[-3961,-52]],[[32584,58792],[-28,5084]],[[79725,88592],[2212,7],[28,1986],[4493,16],[-20,2039],[2310,17]],[[88748,92657],[-5,-5975]],[[88743,86682],[-1,-4300]],[[88742,82382],[-9033,11]],[[48491,89539],[275,371],[958,-140],[-102,-676],[-1131,445]],[[57474,84634],[134,-4033]],[[57608,80601],[-2330,-11],[-9275,172]],[[46003,80762],[-145,3933],[-1261,-1]],[[44597,84694],[1493,543],[583,559],[1077,-673],[829,119],[1151,766],[1865,-1620],[2063,-1022],[721,-47],[3095,1315]],[[16,25196],[4130,-3],[274,196],[2473,-246],[442,75],[3521,-382]],[[10856,24836],[2117,-111],[63,-489]],[[13036,24236],[-1408,-1328],[1014,-547],[-536,-840],[-476,-4250]],[[11630,17271],[-607,417],[-1416,243],[-532,353],[-70,1008],[-877,761],[-826,-738],[-1041,120],[-495,-485],[-1194,-215],[-1540,834],[-670,921],[-834,269],[-687,-801],[-841,-352],[16,5590]],[[32678,86647],[-122,-6893]],[[32556,79754],[-28,-2442]],[[32528,77312],[-1834,-29],[-5282,78],[-3581,-20]],[[32556,79754],[4730,-21],[1972,88],[6777,-30]],[[46035,79791],[246,-7242]],[[39696,72460],[-7151,-44]],[[32545,72416],[-17,4896]],[[48716,72521],[6787,-75]],[[55503,72446],[348,0],[24,-4994],[658,-179],[223,-586],[13,-1682],[911,-13],[52,-4807]],[[57732,60185],[-881,-115],[-5783,-28]],[[51068,60042],[-83,4466],[-2324,50]],[[88742,82382],[21,-5982]],[[88763,76400],[13,-4099],[-1967,7]],[[86809,72308],[-7136,14]],[[79673,72322],[36,10071]],[[79673,72322],[-537,-2],[-93,-2294],[-5286,210]],[[73757,70236],[1,2087],[-949,1]],[[72809,72324],[82,8078]],[[8462,63821],[1381,2]],[[9843,63823],[4045,29],[1,-812],[2670,27],[3,-416],[5291,45]],[[21853,62696],[4,-2967]],[[21857,59729],[-2646,-99],[-198,-1457]],[[19013,58173],[-7830,-57],[9,-2865],[-2215,-14],[-8,-664]],[[8969,54573],[-489,114],[-18,9134]],[[54807,42699],[1026,-222],[4294,-257]],[[60127,42220],[1665,-109],[-179,-2481],[2258,-127],[-86,-1267]],[[63785,38236],[-84,-1212],[1303,-83],[-358,-4884],[-184,17]],[[61866,32234],[-2427,156],[37,797],[-2742,172],[125,1630]],[[56859,34989],[197,2451],[-888,58],[178,2477],[-1762,116],[223,2608]],[[8963,54566],[6,7]],[[19013,58173],[-31,-4764],[-257,-1105]],[[18535,49798],[-4562,323],[11,126],[-4973,-83]],[[9011,50164],[-48,4402]],[[81429,62889],[1778,-29],[94,2044],[894,157],[2591,-38]],[[86786,65023],[3956,-24],[-23,-2337],[1333,-25],[-28,-1208]],[[92024,61429],[-36,-1232],[-1334,25],[-84,-2473],[-363,11],[-41,-1222]],[[90166,56538],[-7626,246]],[[82540,56784],[121,3683],[-1323,45],[91,2377]],[[25919,6568],[55,1246],[696,9411]],[[26670,17225],[1428,-43],[5254,1016]],[[33352,18198],[1651,-84],[1018,-1019]],[[36021,17095],[52,-3731],[35,-7400]],[[36108,5964],[-630,-604],[-656,952],[-1029,782],[-2358,474],[-1229,772],[-2464,-662],[-423,-1202],[-612,-254],[-788,346]],[[83298,40948],[2562,-78],[7111,-422]],[[92971,40448],[-112,-1438],[-859,-655],[-53,-615],[741,-908],[-657,-761],[-115,-1148],[-319,-893],[-1474,-386],[-2207,-1872]],[[82235,33612],[57,2837],[-896,7],[129,4538],[1773,-46]],[[86801,69889],[4432,-17],[5,817],[1725,-12],[-7,-807],[7025,-17]],[[99981,69853],[17,-1372],[1,-5950],[-1343,-688],[-512,309],[-827,-256],[-781,-941]],[[96536,60955],[-1845,23],[4,383],[-2671,68]],[[86786,65023],[15,4866]],[[13036,24236],[5859,-441]],[[18895,23795],[407,-28]],[[19302,23767],[-1458,-13514]],[[17844,10253],[-438,-25],[-1963,684],[-1325,302],[-407,607],[-35,1328],[-59,515],[-1249,1751],[-384,1419],[-354,437]],[[411,60667],[5,4366]],[[416,65033],[8046,4],[0,-1216]],[[8963,54566],[-3837,-70],[-4748,28]],[[378,54524],[33,6143]],[[330,92131],[9449,273]],[[9779,92404],[27,-2488],[397,-7],[13,-2878],[900,5],[3,-801]],[[374,84571],[-14,2913],[-30,4647]],[[77455,90318],[1080,1170],[1250,956],[2373,1466],[1468,241],[2203,1199],[2936,1175]],[[88765,96525],[-17,-3868]],[[9779,92404],[910,21],[11160,377]],[[41419,85452],[824,-568],[618,458],[454,-787],[740,-198],[542,337]],[[46003,80762],[32,-971]],[[55446,17635],[2614,-207]],[[58060,17428],[-24,-407],[5311,-290],[-79,-1245]],[[63268,15486],[-1030,-1686],[-39,-1613],[-1684,-1254],[15,-765],[413,-297],[381,-1370],[-195,-796],[437,-1522],[-388,-868],[-702,-93],[-628,191],[-956,-445]],[[58892,4968],[-1734,72],[167,2545],[-2743,174],[130,1657],[-388,862],[-2304,190],[165,1831]],[[134,36995],[46,5327]],[[180,42322],[5026,-5],[2578,49]],[[7784,42366],[143,-9167]],[[7927,33199],[6,-623],[-6606,-61],[-1206,31]],[[121,32546],[13,4449]],[[96536,60955],[940,-1307],[221,-945],[437,-545],[-293,-2204],[-416,-248],[514,-712],[-121,-613],[300,-840],[-525,-1565],[-908,-895],[-471,-1238],[-491,-792]],[[95723,49051],[-1473,-60],[-2711,122]],[[91539,49113],[263,6158],[141,1217],[-1777,50]],[[83374,43284],[189,6125]],[[83563,49409],[2647,-60],[5329,-236]],[[95723,49051],[-170,-1615],[-660,-669],[124,-1185],[-159,-1751],[-567,-678],[199,-841],[-1103,62],[-131,-435],[439,-867],[-724,-624]],[[83298,40948],[76,2336]],[[88765,96525],[2363,433],[1749,695],[574,455],[639,-39],[3314,991],[2585,939],[3,-3572],[2,-9805]],[[99994,86622],[-2309,-26],[-8942,86]],[[99994,86622],[0,-286],[1,-9963]],[[99995,76373],[-11232,27]],[[10577,33156],[1849,2],[3988,-317]],[[16414,32841],[3189,-247]],[[19603,32594],[-708,-8799]],[[10856,24836],[384,4583],[107,2553],[-749,-95],[-21,1279]],[[73725,62412],[4185,571],[3519,-94]],[[82540,56784],[-125,-3641],[-1378,25],[-81,-2527]],[[80956,50641],[-6609,203]],[[74347,50844],[140,4110],[-2234,74],[76,2072]],[[18229,45773],[-347,-4490]],[[17882,41283],[-2469,174],[-11,1035],[-6236,-94]],[[9166,42398],[-155,7766]],[[61580,74422],[37,2059],[2223,-18],[42,1775],[2292,0],[32,2099],[2196,6]],[[72809,72324],[-3264,-9],[-6985,99]],[[62560,72414],[-1024,8],[44,2000]],[[73757,70236],[-54,-6893]],[[62633,63359],[-27,3804],[54,2296],[-100,2955]],[[47855,48172],[257,4231]],[[48112,52403],[6385,-344],[-27,-529],[3715,-173],[2827,-16]],[[61012,51341],[304,-12],[-99,-2009]],[[61217,49320],[-271,-6066],[-766,25],[-53,-1059]],[[54807,42699],[-247,-149],[-7186,409]],[[47374,42959],[202,1021],[279,4192]],[[83563,49409],[-2642,54],[35,1178]],[[11151,68699],[5369,53],[2,1224],[2658,10],[-1,413],[2669,17]],[[21848,70416],[9,-2814]],[[21857,67602],[-4,-4906]],[[9843,63823],[-14,3668],[1332,5],[-10,1203]],[[36448,36122],[203,3277]],[[36651,39399],[4791,-194],[4961,-296]],[[46403,38909],[-310,-4070],[-124,-2467],[2590,-197]],[[48559,32175],[-214,-2410]],[[48345,29765],[-5986,328],[130,737],[-6373,276]],[[36116,31106],[332,5016]],[[19302,23767],[2889,-190]],[[22191,23577],[-152,-6327],[4631,-25]],[[25919,6568],[-1554,515],[-266,1050],[-1325,735],[-428,977],[-1044,318],[-931,433],[-810,97],[-1717,-440]],[[41834,56792],[-30,-417],[2262,-109],[-112,-1592],[4294,-239]],[[48248,54435],[-136,-2032]],[[47855,48172],[-9487,482]],[[38368,48654],[-57,2832],[-1769,6],[-4,5586]],[[17819,40469],[2649,-203],[-35,-409],[2647,-176],[-45,-694],[2090,-247],[-32,-208],[2178,-238]],[[27271,38294],[-143,-1572]],[[27128,36722],[-392,-4664]],[[26736,32058],[-7133,536]],[[16414,32841],[202,3588],[291,3694],[912,346]],[[26736,32058],[2183,-160],[-339,-4642]],[[28580,27256],[-4509,-3243],[-546,-1070],[-607,589],[-727,45]],[[51068,60042],[-222,-751],[-310,-4982],[-2288,126]],[[37522,47664],[838,-18],[8,1008]],[[47374,42959],[-276,-808],[-188,-2459],[-507,-783]],[[36651,39399],[-193,2936],[613,417],[-373,568],[-446,1407],[164,1299],[968,-32],[138,1670]],[[21831,77341],[17,-6925]],[[11151,68699],[-10,1245],[-1336,-9],[-25,2437]],[[34098,22185],[13197,-807]],[[46802,15199],[-3805,202],[-5611,137],[-73,889],[-1292,668]],[[33352,18198],[746,3987]],[[57732,60185],[2714,370]],[[61282,57425],[-270,-6084]],[[74347,50844],[-1052,32],[-77,-2001],[-1055,33]],[[72163,48908],[-8758,292],[-2188,120]],[[58060,17428],[377,4978],[885,-49]],[[71244,21707],[260,-899],[-61,-1485],[-658,-476],[-751,157],[-89,-683],[1103,-1240],[-409,-1409],[597,-879],[-686,-206],[-664,559],[-704,-488],[-97,-765],[-943,-759],[-451,117],[-420,639],[607,1018],[-758,1400],[-1029,140],[-407,834],[-995,39],[-321,-825],[-872,-515],[-228,-495]],[[57474,84634],[2172,168],[1787,1042],[3845,1231],[1025,-296]],[[61580,74422],[-3837,62]],[[57743,74484],[-88,1783],[-47,4334]],[[111,31265],[10,1281]],[[7927,33199],[2650,-43]],[[16,25196],[95,6069]],[[21857,59729],[1,-190],[8376,-624],[-12,-155]],[[30222,58760],[-723,-7691]],[[32545,72416],[-872,-6],[4,-1208],[-445,-4],[1,-1215],[-883,4],[-27,-2435]],[[30323,67552],[-8466,50]],[[72601,37805],[76,2438]],[[72677,40243],[2647,-99],[40,1640],[2662,-88],[31,811],[1766,-56],[19,817],[889,82],[2643,-66]],[[75141,33086],[48,2156],[-1327,47],[77,2456],[-1338,60]],[[30319,44951],[80,-22],[-1797,-6753],[-1331,118]],[[17819,40469],[63,814]],[[72677,40243],[71,2467],[-872,27],[287,6171]],[[55503,72446],[-94,2028],[2334,10]],[[30222,58760],[2362,32]],[[37522,47664],[-6916,105]],[[48559,32175],[29,409],[2562,-142],[59,1249],[2823,-161],[135,1648],[2692,-189]],[[58832,27409],[-5227,324],[-72,-737],[-2715,182],[-31,-403],[-2625,185]],[[48162,26960],[183,2805]],[[32556,63876],[-472,430],[-1291,-20],[-14,3260],[-456,6]],[[86809,72308],[-8,-2419]],[[33652,27219],[2464,3887]],[[48162,26960],[-332,-4485]],[[34098,22185],[234,997],[-876,459],[21,2995],[175,583]],[[27128,36722],[4481,-331],[4839,-269]],[[33652,27219],[-5072,37]],[[416,65033],[-15,5443],[-8,1870]],[[50454,12428],[-299,-2830],[-756,56],[-255,-2030],[-1337,70],[-54,-988],[600,-1330],[-1757,-741]],[[46596,4635],[-726,685],[-374,2075],[-333,585],[179,1063],[-565,796],[-1981,-857],[-1197,-12],[-516,-832],[-1154,-518],[-751,-1277],[-436,-361],[-1161,-58],[-975,331],[-498,-291]],[[72601,37805],[-8816,431]],[[214,44790],[169,8539],[-5,1195]],[[9166,42398],[-1382,-32]],[[180,42322],[34,2468]],[[58892,4968],[-398,-2416],[-460,-1317],[-1529,-417],[-352,140],[-2390,-800],[-1486,-158],[-508,467],[-473,1476],[-1201,873],[-570,845],[-811,607],[-1270,40],[-848,327]],[[99995,76373],[4,-228],[-18,-6292]]],"bbox":[-84.820157,38.405138,-80.518991,41.977164],"transform":{"scale":[0.00004301209012090116,0.00003572061720617207],"translate":[-84.820157,38.405138]},"objects":{"in":{"type":"GeometryCollection","geometries":[{"arcs":[[0,1,2,3]],"type":"Polygon","properties":{"geoid":"39123","name":"Ottawa"},"id":"39123"},{"arcs":[[4,5,6,7,8,9]],"type":"Polygon","properties":{"geoid":"39075","name":"Holmes"},"id":"39075"},{"arcs":[[10,11,12,13,14,15]],"type":"Polygon","properties":{"geoid":"39069","name":"Henry"},"id":"39069"},{"arcs":[[16,17,18,19,20]],"type":"Polygon","properties":{"geoid":"39167","name":"Washington"},"id":"39167"},{"arcs":[[21,22,23,-21,24,25,26]],"type":"Polygon","properties":{"geoid":"39009","name":"Athens"},"id":"39009"},{"arcs":[[27,28,29,30,31,32]],"type":"Polygon","properties":{"geoid":"39033","name":"Crawford"},"id":"39033"},{"arcs":[[33,-15,34,35,36]],"type":"Polygon","properties":{"geoid":"39039","name":"Defiance"},"id":"39039"},{"arcs":[[37,38,39,40,41,42]],"type":"Polygon","properties":{"geoid":"39035","name":"Cuyahoga"},"id":"39035"},{"arcs":[[43,44,-1,45,-12]],"type":"Polygon","properties":{"geoid":"39095","name":"Lucas"},"id":"39095"},{"arcs":[[-36,46,47,48]],"type":"Polygon","properties":{"geoid":"39125","name":"Paulding"},"id":"39125"},{"arcs":[[49,50,51,52,53,54]],"type":"Polygon","properties":{"geoid":"39021","name":"Champaign"},"id":"39021"},{"arcs":[[55,56,57,58,59,60]],"type":"Polygon","properties":{"geoid":"39079","name":"Jackson"},"id":"39079"},{"arcs":[[61,-32,62,63,64,65]],"type":"Polygon","properties":{"geoid":"39101","name":"Marion"},"id":"39101"},{"arcs":[[66,67,68,69,-40]],"type":"Polygon","properties":{"geoid":"39055","name":"Geauga"},"id":"39055"},{"arcs":[[[70]],[[71,72,73,74]]],"type":"MultiPolygon","properties":{"geoid":"39043","name":"Erie"},"id":"39043"},{"arcs":[[75,76,77,78]],"type":"Polygon","properties":{"geoid":"39061","name":"Hamilton"},"id":"39061"},{"arcs":[[-46,-4,79,80,81,-13]],"type":"Polygon","properties":{"geoid":"39173","name":"Wood"},"id":"39173"},{"arcs":[[-81,82,83,-28,84,85]],"type":"Polygon","properties":{"geoid":"39147","name":"Seneca"},"id":"39147"},{"arcs":[[86,87,88,89,-30]],"type":"Polygon","properties":{"geoid":"39139","name":"Richland"},"id":"39139"},{"arcs":[[-70,90,91,92,93]],"type":"Polygon","properties":{"geoid":"39133","name":"Portage"},"id":"39133"},{"arcs":[[-41,-94,94,95,96]],"type":"Polygon","properties":{"geoid":"39153","name":"Summit"},"id":"39153"},{"arcs":[[97,98,99,100,101,102]],"type":"Polygon","properties":{"geoid":"39011","name":"Auglaize"},"id":"39011"},{"arcs":[[103,104,105,-23,106,107]],"type":"Polygon","properties":{"geoid":"39127","name":"Perry"},"id":"39127"},{"arcs":[[108,-102,109,-50,110,111]],"type":"Polygon","properties":{"geoid":"39149","name":"Shelby"},"id":"39149"},{"arcs":[[112,113,114,115,116]],"type":"Polygon","properties":{"geoid":"39019","name":"Carroll"},"id":"39019"},{"arcs":[[117,118,119,120,121]],"type":"Polygon","properties":{"geoid":"39001","name":"Adams"},"id":"39001"},{"arcs":[[122,123,-19,124]],"type":"Polygon","properties":{"geoid":"39111","name":"Monroe"},"id":"39111"},{"arcs":[[125,126,127,-114,128]],"type":"Polygon","properties":{"geoid":"39029","name":"Columbiana"},"id":"39029"},{"arcs":[[129,130,131,132,-78]],"type":"Polygon","properties":{"geoid":"39025","name":"Clermont"},"id":"39025"},{"arcs":[[133,134,-103,-109,135,136]],"type":"Polygon","properties":{"geoid":"39107","name":"Mercer"},"id":"39107"},{"arcs":[[137,138,-16,-34,139]],"type":"Polygon","properties":{"geoid":"39171","name":"Williams"},"id":"39171"},{"arcs":[[140,141,-67,-39]],"type":"Polygon","properties":{"geoid":"39085","name":"Lake"},"id":"39085"},{"arcs":[[142,-44,-11,-139]],"type":"Polygon","properties":{"geoid":"39051","name":"Fulton"},"id":"39051"},{"arcs":[[-3,143,-74,144,-83,-80]],"type":"Polygon","properties":{"geoid":"39143","name":"Sandusky"},"id":"39143"},{"arcs":[[-59,145,146,147,148]],"type":"Polygon","properties":{"geoid":"39053","name":"Gallia"},"id":"39053"},{"arcs":[[149,150,151,152,153]],"type":"Polygon","properties":{"geoid":"39135","name":"Preble"},"id":"39135"},{"arcs":[[-128,154,155,156,-115]],"type":"Polygon","properties":{"geoid":"39081","name":"Jefferson"},"id":"39081"},{"arcs":[[157,158,-156,159,-123,160]],"type":"Polygon","properties":{"geoid":"39013","name":"Belmont"},"id":"39013"},{"arcs":[[-142,161,162,-68]],"type":"Polygon","properties":{"geoid":"39007","name":"Ashtabula"},"id":"39007"},{"arcs":[[-163,163,164,-91,-69]],"type":"Polygon","properties":{"geoid":"39155","name":"Trumbull"},"id":"39155"},{"arcs":[[165,166,167,-130,-77,168]],"type":"Polygon","properties":{"geoid":"39165","name":"Warren"},"id":"39165"},{"arcs":[[-7,169,-117,170,171,172]],"type":"Polygon","properties":{"geoid":"39157","name":"Tuscarawas"},"id":"39157"},{"arcs":[[-111,-55,173,174,175]],"type":"Polygon","properties":{"geoid":"39109","name":"Miami"},"id":"39109"},{"arcs":[[176,-42,-97,177,178]],"type":"Polygon","properties":{"geoid":"39103","name":"Medina"},"id":"39103"},{"arcs":[[-178,-96,179,-5,180]],"type":"Polygon","properties":{"geoid":"39169","name":"Wayne"},"id":"39169"},{"arcs":[[181,182,183,184,-104,185,186]],"type":"Polygon","properties":{"geoid":"39089","name":"Licking"},"id":"39089"},{"arcs":[[-171,-116,-157,-159,187]],"type":"Polygon","properties":{"geoid":"39067","name":"Harrison"},"id":"39067"},{"arcs":[[188,189,190,-99,191]],"type":"Polygon","properties":{"geoid":"39003","name":"Allen"},"id":"39003"},{"arcs":[[192,193,194,195,196,197]],"type":"Polygon","properties":{"geoid":"39129","name":"Pickaway"},"id":"39129"},{"arcs":[[198,199,-118,200,-132]],"type":"Polygon","properties":{"geoid":"39015","name":"Brown"},"id":"39015"},{"arcs":[[-64,201,202,-182,203,204]],"type":"Polygon","properties":{"geoid":"39041","name":"Delaware"},"id":"39041"},{"arcs":[[205,206,207,208,-167,209]],"type":"Polygon","properties":{"geoid":"39057","name":"Greene"},"id":"39057"},{"arcs":[[-209,210,211,-199,-131,-168]],"type":"Polygon","properties":{"geoid":"39027","name":"Clinton"},"id":"39027"},{"arcs":[[-63,-31,-90,212,-202]],"type":"Polygon","properties":{"geoid":"39117","name":"Morrow"},"id":"39117"},{"arcs":[[213,-204,-187,214,-194,215]],"type":"Polygon","properties":{"geoid":"39049","name":"Franklin"},"id":"39049"},{"arcs":[[-47,-35,-14,216,-189,217]],"type":"Polygon","properties":{"geoid":"39137","name":"Putnam"},"id":"39137"},{"arcs":[[218,-56,219,-120,220]],"type":"Polygon","properties":{"geoid":"39131","name":"Pike"},"id":"39131"},{"arcs":[[-213,-89,221,-9,222,-183,-203]],"type":"Polygon","properties":{"geoid":"39083","name":"Knox"},"id":"39083"},{"arcs":[[-8,-173,223,224,-184,-223]],"type":"Polygon","properties":{"geoid":"39031","name":"Coshocton"},"id":"39031"},{"arcs":[[225,-26,226,-147]],"type":"Polygon","properties":{"geoid":"39105","name":"Meigs"},"id":"39105"},{"arcs":[[227,-43,-177,228,229,-72]],"type":"Polygon","properties":{"geoid":"39093","name":"Lorain"},"id":"39093"},{"arcs":[[230,-153,231,-169,-76,232]],"type":"Polygon","properties":{"geoid":"39017","name":"Butler"},"id":"39017"},{"arcs":[[-101,233,234,-51,-110]],"type":"Polygon","properties":{"geoid":"39091","name":"Logan"},"id":"39091"},{"arcs":[[-82,-86,235,236,-190,-217]],"type":"Polygon","properties":{"geoid":"39063","name":"Hancock"},"id":"39063"},{"arcs":[[237,238,-161,-125,-18,239]],"type":"Polygon","properties":{"geoid":"39121","name":"Noble"},"id":"39121"},{"arcs":[[-174,-54,240,-206,241]],"type":"Polygon","properties":{"geoid":"39023","name":"Clark"},"id":"39023"},{"arcs":[[-224,-172,-188,-158,-239,242]],"type":"Polygon","properties":{"geoid":"39059","name":"Guernsey"},"id":"39059"},{"arcs":[[-229,-179,-181,-10,-222,-88,243]],"type":"Polygon","properties":{"geoid":"39005","name":"Ashland"},"id":"39005"},{"arcs":[[244,-65,-205,-214,245,-52,-235]],"type":"Polygon","properties":{"geoid":"39159","name":"Union"},"id":"39159"},{"arcs":[[-196,246,-107,-22,247,248]],"type":"Polygon","properties":{"geoid":"39073","name":"Hocking"},"id":"39073"},{"arcs":[[-236,-85,-33,-62,249]],"type":"Polygon","properties":{"geoid":"39175","name":"Wyandot"},"id":"39175"},{"arcs":[[-95,-93,250,-129,-113,-170,-6,-180]],"type":"Polygon","properties":{"geoid":"39151","name":"Stark"},"id":"39151"},{"arcs":[[251,-197,-249,252,-57,-219,253]],"type":"Polygon","properties":{"geoid":"39141","name":"Ross"},"id":"39141"},{"arcs":[[-73,-230,-244,-87,-29,-84,-145]],"type":"Polygon","properties":{"geoid":"39077","name":"Huron"},"id":"39077"},{"arcs":[[254,-198,-252,255,-211,-208]],"type":"Polygon","properties":{"geoid":"39047","name":"Fayette"},"id":"39047"},{"arcs":[[-212,-256,-254,-221,-119,-200]],"type":"Polygon","properties":{"geoid":"39071","name":"Highland"},"id":"39071"},{"arcs":[[-48,-218,-192,-98,-135,256]],"type":"Polygon","properties":{"geoid":"39161","name":"Van Wert"},"id":"39161"},{"arcs":[[-220,-61,257,258,-121]],"type":"Polygon","properties":{"geoid":"39145","name":"Scioto"},"id":"39145"},{"arcs":[[-225,-243,-238,259,-105,-185]],"type":"Polygon","properties":{"geoid":"39119","name":"Muskingum"},"id":"39119"},{"arcs":[[-248,-27,-226,-146,-58,-253]],"type":"Polygon","properties":{"geoid":"39163","name":"Vinton"},"id":"39163"},{"arcs":[[260,-136,-112,-176,261,-151,262]],"type":"Polygon","properties":{"geoid":"39037","name":"Darke"},"id":"39037"},{"arcs":[[-215,-186,-108,-247,-195]],"type":"Polygon","properties":{"geoid":"39045","name":"Fairfield"},"id":"39045"},{"arcs":[[-241,-53,-246,-216,-193,-255,-207]],"type":"Polygon","properties":{"geoid":"39097","name":"Madison"},"id":"39097"},{"arcs":[[-258,-60,-149,263]],"type":"Polygon","properties":{"geoid":"39087","name":"Lawrence"},"id":"39087"},{"arcs":[[-191,-237,-250,-66,-245,-234,-100]],"type":"Polygon","properties":{"geoid":"39065","name":"Hardin"},"id":"39065"},{"arcs":[[-262,-175,-242,-210,-166,-232,-152]],"type":"Polygon","properties":{"geoid":"39113","name":"Montgomery"},"id":"39113"},{"arcs":[[-260,-240,-17,-24,-106]],"type":"Polygon","properties":{"geoid":"39115","name":"Morgan"},"id":"39115"},{"arcs":[[-92,-165,264,-126,-251]],"type":"Polygon","properties":{"geoid":"39099","name":"Mahoning"},"id":"39099"}]}}}